{
"type": "FeatureCollection",
"name": "agency_nasa_satellites",
"crs": { "type": "name", "properties": { "name": "urn:ogc:def:crs:OGC:1.3:CRS84" } },
"features": [
{ "type": "Feature", "properties": { "norad_cat_id": 19548, "object_id": "1988-091B", "object_name": "TDRS 3", "element_epoch_utc": "2026-07-25T05:48:44.275968", "element_age_days": 0.9662, "inclination_deg": 12.5726, "raan_deg": 340.7465, "eccentricity": 0.00375323, "arg_perigee_deg": 355.3115, "mean_anomaly_deg": 5.1431, "mean_motion_rev_day": 1.00278149, "bstar": 0.0, "rev_at_epoch": 12576.0, "element_set_no": 999.0, "classification": "U", "period_min": 1436.0057643265832, "apogee_alt_km": 35944.046905491152, "perigee_alt_km": 35627.545044185768, "orbit_class": "GEO", "lat_deg": -2.352770825627347, "lon_deg": -48.717769697760779, "alt_km": 35627.219730817764, "speed_km_s": 3.0862643633193949, "footprint_central_angle_deg": 81.266367452404964, "footprint_radius_km": 9046.5306434207814, "elevation_mask_deg": 0.0, "agency_lead": "NASA", "agencies": "NASA", "program": "TDRSS", "mission_class": "relay communications", "agency_evidence_url": "https://www.nasa.gov/", "satcat_object_type": "PAY", "satcat_ops_status": "+", "satcat_owner": "US", "satcat_launch_date": "1988-09-29", "satcat_launch_site": "AFETR", "satcat_rcs_m2": 38.9782, "satcat_orbit_center": "EA", "satcat_orbit_type": "ORB" }, "geometry": { "type": "Point", "coordinates": [ -48.717769697760779, -2.352770825627347 ] } },
{ "type": "Feature", "properties": { "norad_cat_id": 20580, "object_id": "1990-037B", "object_name": "HST", "element_epoch_utc": "2026-07-25T14:28:52.372416", "element_age_days": 0.6049, "inclination_deg": 28.4719, "raan_deg": 177.9281, "eccentricity": 0.00017898, "arg_perigee_deg": 205.9997, "mean_anomaly_deg": 154.051, "mean_motion_rev_day": 15.31150436, "bstar": 0.00018101913, "rev_at_epoch": 79446.0, "element_set_no": 999.0, "classification": "U", "period_min": 94.046931388523603, "apogee_alt_km": 477.8488772925482, "perigee_alt_km": 475.39514847221608, "orbit_class": "LEO", "lat_deg": 27.997507157483881, "lon_deg": -102.25417315352314, "alt_km": 471.54904277488589, "speed_km_s": 7.6353029779975685, "footprint_central_angle_deg": 21.384016336691008, "footprint_radius_km": 2380.4578097154863, "elevation_mask_deg": 0.0, "agency_lead": "NASA", "agencies": "NASA", "program": "Hubble", "mission_class": "astrophysics", "agency_evidence_url": "https://science.nasa.gov/mission/hubble/", "satcat_object_type": "PAY", "satcat_ops_status": "+", "satcat_owner": "US", "satcat_launch_date": "1990-04-24", "satcat_launch_site": "AFETR", "satcat_rcs_m2": 28.0799, "satcat_orbit_center": "EA", "satcat_orbit_type": "ORB" }, "geometry": { "type": "Point", "coordinates": [ -102.254173153523141, 27.997507157483881 ] } },
{ "type": "Feature", "properties": { "norad_cat_id": 21639, "object_id": "1991-054B", "object_name": "TDRS 5", "element_epoch_utc": "2026-07-25T13:25:38.790336", "element_age_days": 0.6489, "inclination_deg": 14.0662, "raan_deg": 353.4903, "eccentricity": 0.00073369, "arg_perigee_deg": 253.0634, "mean_anomaly_deg": 90.5592, "mean_motion_rev_day": 1.00278921, "bstar": 0.0, "rev_at_epoch": 12809.0, "element_set_no": 999.0, "classification": "U", "period_min": 1435.9947091971603, "apogee_alt_km": 35816.496335102856, "perigee_alt_km": 35754.62617049543, "orbit_class": "GEO", "lat_deg": -8.5775314669407532, "lon_deg": -168.4430894503125, "alt_km": 35760.504148382264, "speed_km_s": 3.0765391907093589, "footprint_central_angle_deg": 81.294206832320441, "footprint_radius_km": 9049.6297090169737, "elevation_mask_deg": 0.0, "agency_lead": "NASA", "agencies": "NASA", "program": "TDRSS", "mission_class": "relay communications", "agency_evidence_url": "https://www.nasa.gov/", "satcat_object_type": "PAY", "satcat_ops_status": "+", "satcat_owner": "US", "satcat_launch_date": "1991-08-02", "satcat_launch_site": "AFETR", "satcat_rcs_m2": 20.8608, "satcat_orbit_center": "EA", "satcat_orbit_type": "ORB" }, "geometry": { "type": "Point", "coordinates": [ -168.443089450312499, -8.577531466940753 ] } },
{ "type": "Feature", "properties": { "norad_cat_id": 22314, "object_id": "1993-003B", "object_name": "TDRS 6", "element_epoch_utc": "2026-07-25T07:32:08.249568", "element_age_days": 0.8943, "inclination_deg": 14.1835, "raan_deg": 356.7702, "eccentricity": 0.00088882, "arg_perigee_deg": 187.3384, "mean_anomaly_deg": 186.1191, "mean_motion_rev_day": 1.0027604, "bstar": 0.0, "rev_at_epoch": 12279.0, "element_set_no": 999.0, "classification": "U", "period_min": 1436.0359663185741, "apogee_alt_km": 35823.843942224899, "perigee_alt_km": 35748.890636375356, "orbit_class": "GEO", "lat_deg": -5.6527483649360413, "lon_deg": -45.13294964708016, "alt_km": 35818.052831034227, "speed_km_s": 3.0723602664812901, "footprint_central_angle_deg": 81.306172140574617, "footprint_radius_km": 9050.9616810390125, "elevation_mask_deg": 0.0, "agency_lead": "NASA", "agencies": "NASA", "program": "TDRSS", "mission_class": "relay communications", "agency_evidence_url": "https://www.nasa.gov/", "satcat_object_type": "PAY", "satcat_ops_status": "+", "satcat_owner": "US", "satcat_launch_date": "1993-01-13", "satcat_launch_site": "AFETR", "satcat_rcs_m2": 28.6701, "satcat_orbit_center": "EA", "satcat_orbit_type": "ORB" }, "geometry": { "type": "Point", "coordinates": [ -45.13294964708016, -5.652748364936041 ] } },
{ "type": "Feature", "properties": { "norad_cat_id": 23613, "object_id": "1995-035B", "object_name": "TDRS 7", "element_epoch_utc": "2026-07-24T21:16:38.794368", "element_age_days": 1.3218, "inclination_deg": 13.3616, "raan_deg": 347.9252, "eccentricity": 0.00109843, "arg_perigee_deg": 88.1936, "mean_anomaly_deg": 274.9007, "mean_motion_rev_day": 1.0027127, "bstar": 0.0, "rev_at_epoch": 11363.0, "element_set_no": 999.0, "classification": "U", "period_min": 1436.1042799198615, "apogee_alt_km": 35834.031050635167, "perigee_alt_km": 35741.398581807895, "orbit_class": "GEO", "lat_deg": 11.531274793290395, "lon_deg": 90.0001022066985, "alt_km": 35746.294846334371, "speed_km_s": 3.0776859275602493, "footprint_central_angle_deg": 81.291247395380054, "footprint_radius_km": 9049.3002660037346, "elevation_mask_deg": 0.0, "agency_lead": "NASA", "agencies": "NASA", "program": "TDRSS", "mission_class": "relay communications", "agency_evidence_url": "https://www.nasa.gov/", "satcat_object_type": "PAY", "satcat_ops_status": "+", "satcat_owner": "US", "satcat_launch_date": "1995-07-13", "satcat_launch_site": "AFETR", "satcat_rcs_m2": 22.3872, "satcat_orbit_center": "EA", "satcat_orbit_type": "ORB" }, "geometry": { "type": "Point", "coordinates": [ 90.0001022066985, 11.531274793290395 ] } },
{ "type": "Feature", "properties": { "norad_cat_id": 25544, "object_id": "1998-067A", "object_name": "ISS (ZARYA)", "element_epoch_utc": "2026-07-25T10:38:14.228736", "element_age_days": 0.7651, "inclination_deg": 51.6316, "raan_deg": 110.7757, "eccentricity": 0.00069089, "arg_perigee_deg": 336.1751, "mean_anomaly_deg": 23.8916, "mean_motion_rev_day": 15.49160253, "bstar": 0.00016367362, "rev_at_epoch": 57768.0, "element_set_no": 999.0, "classification": "U", "period_min": 92.953585480352501, "apogee_alt_km": 424.38690792004485, "perigee_alt_km": 414.99380879637266, "orbit_class": "LEO", "lat_deg": -37.189186254147593, "lon_deg": 51.397756245940805, "alt_km": 426.88230154327397, "speed_km_s": 7.6574719970483898, "footprint_central_angle_deg": 20.402053758217725, "footprint_radius_km": 2271.1462355017902, "elevation_mask_deg": 0.0, "agency_lead": "NASA", "agencies": "NASA", "program": "ISS", "mission_class": "crewed platform", "agency_evidence_url": "https://www.nasa.gov/international-space-station/", "satcat_object_type": "PAY", "satcat_ops_status": "+", "satcat_owner": "ISS", "satcat_launch_date": "1998-11-20", "satcat_launch_site": "TYMSC", "satcat_rcs_m2": 399.0524, "satcat_orbit_center": "EA", "satcat_orbit_type": "ORB" }, "geometry": { "type": "Point", "coordinates": [ 51.397756245940805, -37.189186254147593 ] } },
{ "type": "Feature", "properties": { "norad_cat_id": 25575, "object_id": "1998-069F", "object_name": "ISS (UNITY)", "element_epoch_utc": "2026-07-25T10:38:14.228736", "element_age_days": 0.7651, "inclination_deg": 51.6316, "raan_deg": 110.7757, "eccentricity": 0.00069089, "arg_perigee_deg": 336.1751, "mean_anomaly_deg": 23.8916, "mean_motion_rev_day": 15.49160253, "bstar": 0.00016367362, "rev_at_epoch": 57651.0, "element_set_no": 999.0, "classification": "U", "period_min": 92.953585480352501, "apogee_alt_km": 424.38690792004485, "perigee_alt_km": 414.99380879637266, "orbit_class": "LEO", "lat_deg": -37.189186254147593, "lon_deg": 51.397756245940805, "alt_km": 426.88230154327397, "speed_km_s": 7.6574719970483898, "footprint_central_angle_deg": 20.402053758217725, "footprint_radius_km": 2271.1462355017902, "elevation_mask_deg": 0.0, "agency_lead": "NASA", "agencies": "NASA", "program": "ISS", "mission_class": "crewed platform", "agency_evidence_url": "https://www.nasa.gov/international-space-station/", "satcat_object_type": "PAY", "satcat_ops_status": "+", "satcat_owner": "ISS", "satcat_launch_date": "1998-12-04", "satcat_launch_site": "AFETR", "satcat_rcs_m2": null, "satcat_orbit_center": "25544", "satcat_orbit_type": "DOC" }, "geometry": { "type": "Point", "coordinates": [ 51.397756245940805, -37.189186254147593 ] } },
{ "type": "Feature", "properties": { "norad_cat_id": 25994, "object_id": "1999-068A", "object_name": "TERRA", "element_epoch_utc": "2026-07-25T14:12:12.837600", "element_age_days": 0.6165, "inclination_deg": 97.9435, "raan_deg": 254.611, "eccentricity": 0.00036786, "arg_perigee_deg": 102.4657, "mean_anomaly_deg": 58.9752, "mean_motion_rev_day": 14.61130276, "bstar": 8.5144579e-05, "rev_at_epoch": 41521.0, "element_set_no": 999.0, "classification": "U", "period_min": 98.553840383223985, "apogee_alt_km": 689.19345597231722, "perigee_alt_km": 683.9957930929553, "orbit_class": "LEO", "lat_deg": 17.347626749931763, "lon_deg": 58.777928600267636, "alt_km": 690.69151624502149, "speed_km_s": 7.5130591416235557, "footprint_central_angle_deg": 25.539200634058385, "footprint_radius_km": 2843.0108098506289, "elevation_mask_deg": 0.0, "agency_lead": "NASA", "agencies": "NASA", "program": "EOS", "mission_class": "earth observation", "agency_evidence_url": "https://terra.nasa.gov/", "satcat_object_type": "PAY", "satcat_ops_status": "X", "satcat_owner": "US", "satcat_launch_date": "1999-12-18", "satcat_launch_site": "AFWTR", "satcat_rcs_m2": 12.444, "satcat_orbit_center": "EA", "satcat_orbit_type": "ORB" }, "geometry": { "type": "Point", "coordinates": [ 58.777928600267636, 17.347626749931763 ] } },
{ "type": "Feature", "properties": { "norad_cat_id": 26388, "object_id": "2000-034A", "object_name": "TDRS 8", "element_epoch_utc": "2026-07-25T00:38:50.860320", "element_age_days": 1.1814, "inclination_deg": 12.7417, "raan_deg": 30.9937, "eccentricity": 0.00033454, "arg_perigee_deg": 43.5505, "mean_anomaly_deg": 322.7191, "mean_motion_rev_day": 1.00270471, "bstar": 0.0, "rev_at_epoch": 9556.0, "element_set_no": 999.0, "classification": "U", "period_min": 1436.1157234416503, "apogee_alt_km": 35802.052500998456, "perigee_alt_km": 35773.840019348892, "orbit_class": "GEO", "lat_deg": 12.178388296187777, "lon_deg": 84.407429703047498, "alt_km": 35773.556556607742, "speed_km_s": 3.0757101462345551, "footprint_central_angle_deg": 81.296923538850123, "footprint_radius_km": 9049.9321314044919, "elevation_mask_deg": 0.0, "agency_lead": "NASA", "agencies": "NASA", "program": "TDRSS", "mission_class": "relay communications", "agency_evidence_url": "https://www.nasa.gov/", "satcat_object_type": "PAY", "satcat_ops_status": "+", "satcat_owner": "US", "satcat_launch_date": "2000-06-30", "satcat_launch_site": "AFETR", "satcat_rcs_m2": 26.766, "satcat_orbit_center": "EA", "satcat_orbit_type": "ORB" }, "geometry": { "type": "Point", "coordinates": [ 84.407429703047498, 12.178388296187777 ] } },
{ "type": "Feature", "properties": { "norad_cat_id": 26400, "object_id": "2000-037A", "object_name": "ISS (ZVEZDA)", "element_epoch_utc": "2026-07-25T10:38:14.228736", "element_age_days": 0.7651, "inclination_deg": 51.6316, "raan_deg": 110.7757, "eccentricity": 0.00069089, "arg_perigee_deg": 336.1751, "mean_anomaly_deg": 23.8916, "mean_motion_rev_day": 15.49160253, "bstar": 0.00016367362, "rev_at_epoch": 57655.0, "element_set_no": 999.0, "classification": "U", "period_min": 92.953585480352501, "apogee_alt_km": 424.38690792004485, "perigee_alt_km": 414.99380879637266, "orbit_class": "LEO", "lat_deg": -37.189186254147593, "lon_deg": 51.397756245940805, "alt_km": 426.88230154327397, "speed_km_s": 7.6574719970483898, "footprint_central_angle_deg": 20.402053758217725, "footprint_radius_km": 2271.1462355017902, "elevation_mask_deg": 0.0, "agency_lead": "NASA", "agencies": "NASA", "program": "ISS", "mission_class": "crewed platform", "agency_evidence_url": "https://www.nasa.gov/international-space-station/", "satcat_object_type": "PAY", "satcat_ops_status": "+", "satcat_owner": "ISS", "satcat_launch_date": "2000-07-12", "satcat_launch_site": "TYMSC", "satcat_rcs_m2": 32.94, "satcat_orbit_center": "25544", "satcat_orbit_type": "DOC" }, "geometry": { "type": "Point", "coordinates": [ 51.397756245940805, -37.189186254147593 ] } },
{ "type": "Feature", "properties": { "norad_cat_id": 26700, "object_id": "2001-006B", "object_name": "ISS (DESTINY)", "element_epoch_utc": "2026-07-25T10:38:14.228736", "element_age_days": 0.7651, "inclination_deg": 51.6316, "raan_deg": 110.7757, "eccentricity": 0.00069089, "arg_perigee_deg": 336.1751, "mean_anomaly_deg": 23.8916, "mean_motion_rev_day": 15.49160253, "bstar": 0.00016367362, "rev_at_epoch": 57659.0, "element_set_no": 999.0, "classification": "U", "period_min": 92.953585480352501, "apogee_alt_km": 424.38690792004485, "perigee_alt_km": 414.99380879637266, "orbit_class": "LEO", "lat_deg": -37.189186254147593, "lon_deg": 51.397756245940805, "alt_km": 426.88230154327397, "speed_km_s": 7.6574719970483898, "footprint_central_angle_deg": 20.402053758217725, "footprint_radius_km": 2271.1462355017902, "elevation_mask_deg": 0.0, "agency_lead": "NASA", "agencies": "NASA", "program": "ISS", "mission_class": "crewed platform", "agency_evidence_url": "https://www.nasa.gov/international-space-station/", "satcat_object_type": "PAY", "satcat_ops_status": "+", "satcat_owner": "ISS", "satcat_launch_date": "2001-02-07", "satcat_launch_site": "AFETR", "satcat_rcs_m2": 15.0, "satcat_orbit_center": "25544", "satcat_orbit_type": "DOC" }, "geometry": { "type": "Point", "coordinates": [ 51.397756245940805, -37.189186254147593 ] } },
{ "type": "Feature", "properties": { "norad_cat_id": 26998, "object_id": "2001-055B", "object_name": "TIMED", "element_epoch_utc": "2026-07-25T06:38:45.409344", "element_age_days": 0.9314, "inclination_deg": 74.0678, "raan_deg": 158.3217, "eccentricity": 0.00024128, "arg_perigee_deg": 289.2269, "mean_anomaly_deg": 70.8655, "mean_motion_rev_day": 14.95363205, "bstar": 0.00011473637, "rev_at_epoch": 33651.0, "element_set_no": 999.0, "classification": "U", "period_min": 96.297675052128895, "apogee_alt_km": 580.48000837318261, "perigee_alt_km": 577.12286912529976, "orbit_class": "LEO", "lat_deg": -26.988954935956109, "lon_deg": 129.2237493342156, "alt_km": 589.84683398947584, "speed_km_s": 7.5647841708368171, "footprint_central_angle_deg": 23.744662321534406, "footprint_radius_km": 2643.243718691439, "elevation_mask_deg": 0.0, "agency_lead": "NASA", "agencies": "NASA", "program": "TIMED", "mission_class": "upper atmosphere", "agency_evidence_url": "https://www.nasa.gov/", "satcat_object_type": "PAY", "satcat_ops_status": "+", "satcat_owner": "US", "satcat_launch_date": "2001-12-07", "satcat_launch_site": "AFWTR", "satcat_rcs_m2": 2.7177, "satcat_orbit_center": "EA", "satcat_orbit_type": "ORB" }, "geometry": { "type": "Point", "coordinates": [ 129.223749334215597, -26.988954935956109 ] } },
{ "type": "Feature", "properties": { "norad_cat_id": 27424, "object_id": "2002-022A", "object_name": "AQUA", "element_epoch_utc": "2026-07-25T14:17:04.035840", "element_age_days": 0.6131, "inclination_deg": 98.4305, "raan_deg": 176.6518, "eccentricity": 0.00014165, "arg_perigee_deg": 101.8438, "mean_anomaly_deg": 31.5186, "mean_motion_rev_day": 14.62141186, "bstar": 0.00016362821, "rev_at_epoch": 28888.0, "element_set_no": 999.0, "classification": "U", "period_min": 98.485701229675911, "apogee_alt_km": 684.35787336129727, "perigee_alt_km": 682.35735250405355, "orbit_class": "LEO", "lat_deg": 60.102128531690013, "lon_deg": -6.7768640721151057, "alt_km": 695.53242552031668, "speed_km_s": 7.5146515032856085, "footprint_central_angle_deg": 25.621140482607593, "footprint_radius_km": 2852.1323120668048, "elevation_mask_deg": 0.0, "agency_lead": "NASA", "agencies": "NASA", "program": "EOS", "mission_class": "earth observation", "agency_evidence_url": "https://aqua.nasa.gov/", "satcat_object_type": "PAY", "satcat_ops_status": "+", "satcat_owner": "US", "satcat_launch_date": "2002-05-04", "satcat_launch_site": "AFWTR", "satcat_rcs_m2": 7.8419, "satcat_orbit_center": "EA", "satcat_orbit_type": "ORB" }, "geometry": { "type": "Point", "coordinates": [ -6.776864072115106, 60.102128531690013 ] } },
{ "type": "Feature", "properties": { "norad_cat_id": 27651, "object_id": "2003-004A", "object_name": "SORCE", "element_epoch_utc": "2026-07-25T14:10:45.759360", "element_age_days": 0.6175, "inclination_deg": 39.9919, "raan_deg": 42.5372, "eccentricity": 0.00182971, "arg_perigee_deg": 324.0712, "mean_anomaly_deg": 35.8851, "mean_motion_rev_day": 15.03887597, "bstar": 0.00021926705, "rev_at_epoch": 27768.0, "element_set_no": 999.0, "classification": "U", "period_min": 95.751836963916404, "apogee_alt_km": 570.0337993199206, "perigee_alt_km": 544.65396918131637, "orbit_class": "LEO", "lat_deg": 37.86880600701182, "lon_deg": 132.89543522280911, "alt_km": 566.22630015105563, "speed_km_s": 7.5783776719900837, "footprint_central_angle_deg": 23.297670851052235, "footprint_radius_km": 2593.4848558084273, "elevation_mask_deg": 0.0, "agency_lead": "NASA", "agencies": "NASA", "program": "SORCE", "mission_class": "solar irradiance", "agency_evidence_url": "https://www.nasa.gov/", "satcat_object_type": "PAY", "satcat_ops_status": "+", "satcat_owner": "US", "satcat_launch_date": "2003-01-25", "satcat_launch_site": "ERAS", "satcat_rcs_m2": 1.7809, "satcat_orbit_center": "EA", "satcat_orbit_type": "ORB" }, "geometry": { "type": "Point", "coordinates": [ 132.895435222809112, 37.86880600701182 ] } },
{ "type": "Feature", "properties": { "norad_cat_id": 28376, "object_id": "2004-026A", "object_name": "AURA", "element_epoch_utc": "2026-07-25T14:28:40.584000", "element_age_days": 0.6051, "inclination_deg": 98.3437, "raan_deg": 163.3806, "eccentricity": 0.00014637, "arg_perigee_deg": 93.5578, "mean_anomaly_deg": 266.5789, "mean_motion_rev_day": 14.61380448, "bstar": 0.00016588204, "rev_at_epoch": 17182.0, "element_set_no": 999.0, "classification": "U", "period_min": 98.536969067208972, "apogee_alt_km": 686.8399132024108, "perigee_alt_km": 684.77201512456224, "orbit_class": "LEO", "lat_deg": -57.663956572766331, "lon_deg": 158.40366723810121, "alt_km": 711.92861798879972, "speed_km_s": 7.4980430637440003, "footprint_central_angle_deg": 25.89605315179195, "footprint_radius_km": 2882.7354504130267, "elevation_mask_deg": 0.0, "agency_lead": "NASA", "agencies": "NASA", "program": "EOS", "mission_class": "atmospheric chemistry", "agency_evidence_url": "https://aura.gsfc.nasa.gov/", "satcat_object_type": "PAY", "satcat_ops_status": "+", "satcat_owner": "US", "satcat_launch_date": "2004-07-15", "satcat_launch_site": "AFWTR", "satcat_rcs_m2": 9.4421, "satcat_orbit_center": "EA", "satcat_orbit_type": "ORB" }, "geometry": { "type": "Point", "coordinates": [ 158.403667238101207, -57.663956572766331 ] } },
{ "type": "Feature", "properties": { "norad_cat_id": 30580, "object_id": "2007-004A", "object_name": "THEMIS A", "element_epoch_utc": "2026-07-19T07:13:59.850624", "element_age_days": 6.9069, "inclination_deg": 8.7612, "raan_deg": 106.9403, "eccentricity": 0.83570828, "arg_perigee_deg": 205.5446, "mean_anomaly_deg": 59.6753, "mean_motion_rev_day": 0.87844, "bstar": 0.0, "rev_at_epoch": 4156.0, "element_set_no": 999.0, "classification": "U", "period_min": 1639.269614316288, "apogee_alt_km": 78172.484211716423, "perigee_alt_km": 1188.9533052060633, "orbit_class": "HEO", "lat_deg": 1.3262528090994812, "lon_deg": 96.107404013947587, "alt_km": 61201.653942938356, "speed_km_s": 1.7722214048923133, "footprint_central_angle_deg": 84.584401095083777, "footprint_radius_km": 9415.8924589587368, "elevation_mask_deg": 0.0, "agency_lead": "NASA", "agencies": "NASA", "program": "THEMIS", "mission_class": "magnetospheric", "agency_evidence_url": "https://www.nasa.gov/", "satcat_object_type": "PAY", "satcat_ops_status": "+", "satcat_owner": "US", "satcat_launch_date": "2007-02-17", "satcat_launch_site": "AFETR", "satcat_rcs_m2": 0.3981, "satcat_orbit_center": "EA", "satcat_orbit_type": "ORB" }, "geometry": { "type": "Point", "coordinates": [ 96.107404013947587, 1.326252809099481 ] } },
{ "type": "Feature", "properties": { "norad_cat_id": 30797, "object_id": "2007-004D", "object_name": "THEMIS D", "element_epoch_utc": "2026-07-18T05:47:30.119712", "element_age_days": 7.967, "inclination_deg": 7.8884, "raan_deg": 78.8831, "eccentricity": 0.8325695, "arg_perigee_deg": 235.817, "mean_anomaly_deg": 351.9207, "mean_motion_rev_day": 0.87589141, "bstar": 0.0, "rev_at_epoch": 4134.0, "element_set_no": 999.0, "classification": "U", "period_min": 1644.0394135158831, "apogee_alt_km": 78191.3356721171, "perigee_alt_km": 1348.4525915581394, "orbit_class": "HEO", "lat_deg": 7.1503934158719993, "lon_deg": 176.89083552433669, "alt_km": 17575.588140906344, "speed_km_s": 4.9638407352164817, "footprint_central_angle_deg": 74.557623022660877, "footprint_radius_km": 8299.7166296394589, "elevation_mask_deg": 0.0, "agency_lead": "NASA", "agencies": "NASA", "program": "THEMIS", "mission_class": "magnetospheric", "agency_evidence_url": "https://www.nasa.gov/", "satcat_object_type": "PAY", "satcat_ops_status": "+", "satcat_owner": "US", "satcat_launch_date": "2007-02-17", "satcat_launch_site": "AFETR", "satcat_rcs_m2": 0.5012, "satcat_orbit_center": "EA", "satcat_orbit_type": "ORB" }, "geometry": { "type": "Point", "coordinates": [ 176.890835524336694, 7.150393415871999 ] } },
{ "type": "Feature", "properties": { "norad_cat_id": 30798, "object_id": "2007-004E", "object_name": "THEMIS E", "element_epoch_utc": "2026-07-03T23:29:48.598080", "element_age_days": 22.2293, "inclination_deg": 6.5283, "raan_deg": 97.0944, "eccentricity": 0.8437049, "arg_perigee_deg": 218.5457, "mean_anomaly_deg": 13.1584, "mean_motion_rev_day": 0.88041892, "bstar": 0.0, "rev_at_epoch": 6606.0, "element_set_no": 999.0, "classification": "U", "period_min": 1635.5850235476539, "apogee_alt_km": 78414.437912256064, "perigee_alt_km": 809.92620360061585, "orbit_class": "HEO", "lat_deg": 5.0931982050956845, "lon_deg": 125.29239573906828, "alt_km": 75834.497698540712, "speed_km_s": 1.0141036039704496, "footprint_central_angle_deg": 85.550465996211926, "footprint_radius_km": 9523.4343118255765, "elevation_mask_deg": 0.0, "agency_lead": "NASA", "agencies": "NASA", "program": "THEMIS", "mission_class": "magnetospheric", "agency_evidence_url": "https://www.nasa.gov/", "satcat_object_type": "PAY", "satcat_ops_status": "+", "satcat_owner": "US", "satcat_launch_date": "2007-02-17", "satcat_launch_site": "AFETR", "satcat_rcs_m2": 0.6325, "satcat_orbit_center": "EA", "satcat_orbit_type": "ORB" }, "geometry": { "type": "Point", "coordinates": [ 125.292395739068283, 5.093198205095685 ] } },
{ "type": "Feature", "properties": { "norad_cat_id": 39070, "object_id": "2013-004A", "object_name": "TDRS 11", "element_epoch_utc": "2026-07-25T13:27:57.108960", "element_age_days": 0.6473, "inclination_deg": 3.5771, "raan_deg": 31.8492, "eccentricity": 0.00050577, "arg_perigee_deg": 30.985, "mean_anomaly_deg": 268.1086, "mean_motion_rev_day": 1.00266823, "bstar": 0.0, "rev_at_epoch": 4707.0, "element_set_no": 999.0, "classification": "U", "period_min": 1436.1679735279934, "apogee_alt_km": 35810.365965517398, "perigee_alt_km": 35767.712182254698, "orbit_class": "GEO", "lat_deg": 0.46179603475970488, "lon_deg": -174.26806313755819, "alt_km": 35804.019538376568, "speed_km_s": 3.0734577082202974, "footprint_central_angle_deg": 81.303257435702946, "footprint_radius_km": 9050.6372175768847, "elevation_mask_deg": 0.0, "agency_lead": "NASA", "agencies": "NASA", "program": "TDRSS", "mission_class": "relay communications", "agency_evidence_url": "https://www.nasa.gov/", "satcat_object_type": "PAY", "satcat_ops_status": "+", "satcat_owner": "US", "satcat_launch_date": "2013-01-31", "satcat_launch_site": "AFETR", "satcat_rcs_m2": 25.1189, "satcat_orbit_center": "EA", "satcat_orbit_type": "ORB" }, "geometry": { "type": "Point", "coordinates": [ -174.268063137558187, 0.461796034759705 ] } },
{ "type": "Feature", "properties": { "norad_cat_id": 39504, "object_id": "2014-004A", "object_name": "TDRS 12", "element_epoch_utc": "2026-07-25T07:33:38.105568", "element_age_days": 0.8933, "inclination_deg": 4.0151, "raan_deg": 19.6921, "eccentricity": 0.00044897, "arg_perigee_deg": 197.849, "mean_anomaly_deg": 158.0059, "mean_motion_rev_day": 1.00270136, "bstar": 0.0, "rev_at_epoch": 4465.0, "element_set_no": 999.0, "classification": "U", "period_min": 1436.1205214681268, "apogee_alt_km": 35807.0400871694, "perigee_alt_km": 35769.177330293569, "orbit_class": "GEO", "lat_deg": -2.690022870639913, "lon_deg": -40.775747574796142, "alt_km": 35796.56648661333, "speed_km_s": 3.0739756659274864, "footprint_central_angle_deg": 81.301708644300888, "footprint_radius_km": 9050.4648069066625, "elevation_mask_deg": 0.0, "agency_lead": "NASA", "agencies": "NASA", "program": "TDRSS", "mission_class": "relay communications", "agency_evidence_url": "https://www.nasa.gov/", "satcat_object_type": "PAY", "satcat_ops_status": "+", "satcat_owner": "US", "satcat_launch_date": "2014-01-24", "satcat_launch_site": "AFETR", "satcat_rcs_m2": 7.9433, "satcat_orbit_center": "EA", "satcat_orbit_type": "ORB" }, "geometry": { "type": "Point", "coordinates": [ -40.775747574796142, -2.690022870639913 ] } },
{ "type": "Feature", "properties": { "norad_cat_id": 39574, "object_id": "2014-009C", "object_name": "GPM-CORE", "element_epoch_utc": "2026-07-25T11:12:30.366432", "element_age_days": 0.7413, "inclination_deg": 64.9698, "raan_deg": 179.8573, "eccentricity": 0.00108013, "arg_perigee_deg": 264.8977, "mean_anomaly_deg": 95.0931, "mean_motion_rev_day": 15.45147549, "bstar": 0.00013765396, "rev_at_epoch": 70372.0, "element_set_no": 999.0, "classification": "U", "period_min": 93.194983283761459, "apogee_alt_km": 436.80467070637457, "perigee_alt_km": 422.09851369470726, "orbit_class": "LEO", "lat_deg": 15.213626835584046, "lon_deg": -28.790848165702833, "alt_km": 433.72863249495066, "speed_km_s": 7.6525088388284708, "footprint_central_angle_deg": 20.556321787853754, "footprint_radius_km": 2288.3192740065547, "elevation_mask_deg": 0.0, "agency_lead": "NASA", "agencies": "NASA", "program": "GPM", "mission_class": "precipitation radar", "agency_evidence_url": "https://gpm.nasa.gov/", "satcat_object_type": "PAY", "satcat_ops_status": "+", "satcat_owner": "JPN", "satcat_launch_date": "2014-02-27", "satcat_launch_site": "TANSC", "satcat_rcs_m2": 8.104, "satcat_orbit_center": "EA", "satcat_orbit_type": "ORB" }, "geometry": { "type": "Point", "coordinates": [ -28.790848165702833, 15.213626835584046 ] } },
{ "type": "Feature", "properties": { "norad_cat_id": 40059, "object_id": "2014-035A", "object_name": "OCO 2", "element_epoch_utc": "2026-07-25T12:59:35.867040", "element_age_days": 0.6669, "inclination_deg": 98.2022, "raan_deg": 147.2526, "eccentricity": 0.00013841, "arg_perigee_deg": 80.8278, "mean_anomaly_deg": 279.3077, "mean_motion_rev_day": 14.57138968, "bstar": 9.7887357e-05, "rev_at_epoch": 64163.0, "element_set_no": 999.0, "classification": "U", "period_min": 98.823793174406418, "apogee_alt_km": 700.49162990134562, "perigee_alt_km": 698.5323956552686, "orbit_class": "LEO", "lat_deg": -74.49604252948221, "lon_deg": -82.120556023343312, "alt_km": 730.56031239287927, "speed_km_s": 7.4883442710352712, "footprint_central_angle_deg": 26.203672076371028, "footprint_radius_km": 2916.9794324555442, "elevation_mask_deg": 0.0, "agency_lead": "NASA", "agencies": "NASA", "program": "OCO", "mission_class": "carbon spectrometry", "agency_evidence_url": "https://ocov2.jpl.nasa.gov/", "satcat_object_type": "PAY", "satcat_ops_status": "+", "satcat_owner": "US", "satcat_launch_date": "2014-07-02", "satcat_launch_site": "AFWTR", "satcat_rcs_m2": 1.154, "satcat_orbit_center": "EA", "satcat_orbit_type": "ORB" }, "geometry": { "type": "Point", "coordinates": [ -82.120556023343312, -74.49604252948221 ] } },
{ "type": "Feature", "properties": { "norad_cat_id": 40376, "object_id": "2015-003A", "object_name": "SMAP", "element_epoch_utc": "2026-07-25T13:48:31.591296", "element_age_days": 0.633, "inclination_deg": 98.1289, "raan_deg": 213.1284, "eccentricity": 0.00016406, "arg_perigee_deg": 91.0956, "mean_anomaly_deg": 269.0434, "mean_motion_rev_day": 14.63396403, "bstar": 9.2606918e-05, "rev_at_epoch": 61323.0, "element_set_no": 999.0, "classification": "U", "period_min": 98.401225877551923, "apogee_alt_km": 680.4595545768525, "perigee_alt_km": 678.14386844307228, "orbit_class": "LEO", "lat_deg": 81.459456229121926, "lon_deg": 85.930255731035146, "alt_km": 694.52948356037768, "speed_km_s": 7.5164728799656402, "footprint_central_angle_deg": 25.604193434688806, "footprint_radius_km": 2850.2457753220365, "elevation_mask_deg": 0.0, "agency_lead": "NASA", "agencies": "NASA", "program": "SMAP", "mission_class": "soil moisture radar", "agency_evidence_url": "https://smap.jpl.nasa.gov/", "satcat_object_type": "PAY", "satcat_ops_status": "P", "satcat_owner": "US", "satcat_launch_date": "2015-01-31", "satcat_launch_site": "AFWTR", "satcat_rcs_m2": 4.277, "satcat_orbit_center": "EA", "satcat_orbit_type": "ORB" }, "geometry": { "type": "Point", "coordinates": [ 85.930255731035146, 81.459456229121926 ] } },
{ "type": "Feature", "properties": { "norad_cat_id": 40482, "object_id": "2015-011A", "object_name": "MMS 1", "element_epoch_utc": "2026-07-25T14:00:01.999872", "element_age_days": 0.625, "inclination_deg": 72.523, "raan_deg": 348.3558, "eccentricity": 0.82960145, "arg_perigee_deg": 168.2132, "mean_anomaly_deg": 255.3825, "mean_motion_rev_day": 0.28345383, "bstar": 0.0, "rev_at_epoch": 139.0, "element_set_no": 999.0, "classification": "U", "period_min": 5080.1924249885769, "apogee_alt_km": 172723.43754567474, "perigee_alt_km": 10302.354767048877, "orbit_class": "HEO", "lat_deg": 22.426949541653695, "lon_deg": -23.122534468485281, "alt_km": 86577.947923188316, "speed_km_s": 2.1224223973688181, "footprint_central_angle_deg": 86.065586382091638, "footprint_radius_km": 9580.7772508789421, "elevation_mask_deg": 0.0, "agency_lead": "NASA", "agencies": "NASA", "program": "MMS", "mission_class": "magnetospheric", "agency_evidence_url": "https://www.nasa.gov/mission/mms/", "satcat_object_type": "PAY", "satcat_ops_status": "+", "satcat_owner": "US", "satcat_launch_date": "2015-03-13", "satcat_launch_site": "AFETR", "satcat_rcs_m2": 3.2865, "satcat_orbit_center": "EA", "satcat_orbit_type": "ORB" }, "geometry": { "type": "Point", "coordinates": [ -23.122534468485281, 22.426949541653695 ] } },
{ "type": "Feature", "properties": { "norad_cat_id": 40483, "object_id": "2015-011B", "object_name": "MMS 2", "element_epoch_utc": "2026-07-25T14:00:01.999872", "element_age_days": 0.625, "inclination_deg": 72.527, "raan_deg": 348.3547, "eccentricity": 0.82988356, "arg_perigee_deg": 168.2158, "mean_anomaly_deg": 255.3681, "mean_motion_rev_day": 0.28345354, "bstar": 0.0, "rev_at_epoch": 139.0, "element_set_no": 999.0, "classification": "U", "period_min": 5080.1976225098479, "apogee_alt_km": 172751.17158751408, "perigee_alt_km": 10274.749698486743, "orbit_class": "HEO", "lat_deg": 22.383878590564759, "lon_deg": -23.14142131810717, "alt_km": 86621.252275824008, "speed_km_s": 2.1214818246774234, "footprint_central_angle_deg": 86.06742129037255, "footprint_radius_km": 9580.9815119344257, "elevation_mask_deg": 0.0, "agency_lead": "NASA", "agencies": "NASA", "program": "MMS", "mission_class": "magnetospheric", "agency_evidence_url": "https://www.nasa.gov/mission/mms/", "satcat_object_type": "PAY", "satcat_ops_status": "+", "satcat_owner": "US", "satcat_launch_date": "2015-03-13", "satcat_launch_site": "AFETR", "satcat_rcs_m2": 3.373, "satcat_orbit_center": "EA", "satcat_orbit_type": "ORB" }, "geometry": { "type": "Point", "coordinates": [ -23.14142131810717, 22.383878590564759 ] } },
{ "type": "Feature", "properties": { "norad_cat_id": 40484, "object_id": "2015-011C", "object_name": "MMS 3", "element_epoch_utc": "2026-07-25T14:00:01.999872", "element_age_days": 0.625, "inclination_deg": 72.5254, "raan_deg": 348.3664, "eccentricity": 0.8297148, "arg_perigee_deg": 168.2223, "mean_anomaly_deg": 255.3467, "mean_motion_rev_day": 0.28344183, "bstar": 0.0, "rev_at_epoch": 136.0, "element_set_no": 999.0, "classification": "U", "period_min": 5080.4075037195462, "apogee_alt_km": 172739.58718654778, "perigee_alt_km": 10291.729148270937, "orbit_class": "HEO", "lat_deg": 22.398633507691475, "lon_deg": -23.123182041186979, "alt_km": 86646.263193139792, "speed_km_s": 2.1209649948454206, "footprint_central_angle_deg": 86.06848028223294, "footprint_radius_km": 9581.0993983690769, "elevation_mask_deg": 0.0, "agency_lead": "NASA", "agencies": "NASA", "program": "MMS", "mission_class": "magnetospheric", "agency_evidence_url": "https://www.nasa.gov/mission/mms/", "satcat_object_type": "PAY", "satcat_ops_status": "+", "satcat_owner": "US", "satcat_launch_date": "2015-03-13", "satcat_launch_site": "AFETR", "satcat_rcs_m2": 2.6555, "satcat_orbit_center": "EA", "satcat_orbit_type": "ORB" }, "geometry": { "type": "Point", "coordinates": [ -23.123182041186979, 22.398633507691475 ] } },
{ "type": "Feature", "properties": { "norad_cat_id": 40485, "object_id": "2015-011D", "object_name": "MMS 4", "element_epoch_utc": "2026-07-25T14:00:01.999872", "element_age_days": 0.625, "inclination_deg": 72.5208, "raan_deg": 348.3499, "eccentricity": 0.82971076, "arg_perigee_deg": 168.2322, "mean_anomaly_deg": 255.3433, "mean_motion_rev_day": 0.28344195, "bstar": 0.0, "rev_at_epoch": 139.0, "element_set_no": 999.0, "classification": "U", "period_min": 5080.40535284209, "apogee_alt_km": 172739.14152198235, "perigee_alt_km": 10292.119969587775, "orbit_class": "HEO", "lat_deg": 22.406064919938078, "lon_deg": -23.135208650457301, "alt_km": 86650.900645517264, "speed_km_s": 2.1208640417873688, "footprint_central_angle_deg": 86.068676574732663, "footprint_radius_km": 9581.1212495501932, "elevation_mask_deg": 0.0, "agency_lead": "NASA", "agencies": "NASA", "program": "MMS", "mission_class": "magnetospheric", "agency_evidence_url": "https://www.nasa.gov/mission/mms/", "satcat_object_type": "PAY", "satcat_ops_status": "+", "satcat_owner": "US", "satcat_launch_date": "2015-03-13", "satcat_launch_site": "AFETR", "satcat_rcs_m2": 2.1286, "satcat_orbit_center": "EA", "satcat_orbit_type": "ORB" }, "geometry": { "type": "Point", "coordinates": [ -23.135208650457301, 22.406064919938078 ] } },
{ "type": "Feature", "properties": { "norad_cat_id": 41884, "object_id": "2016-078A", "object_name": "CYGFM05", "element_epoch_utc": "2026-07-25T13:46:08.969952", "element_age_days": 0.6346, "inclination_deg": 34.9577, "raan_deg": 6.0849, "eccentricity": 0.00054506, "arg_perigee_deg": 152.1, "mean_anomaly_deg": 208.0018, "mean_motion_rev_day": 15.58296062, "bstar": 0.00033251845, "rev_at_epoch": 53474.0, "element_set_no": 999.0, "classification": "U", "period_min": 92.408627289465613, "apogee_alt_km": 399.58726023067538, "perigee_alt_km": 392.20275463896996, "orbit_class": "LEO", "lat_deg": -18.650666200847638, "lon_deg": -45.728695557286251, "alt_km": 399.20050002499858, "speed_km_s": 7.670237662004916, "footprint_central_angle_deg": 19.76326786677323, "footprint_radius_km": 2200.0369153402621, "elevation_mask_deg": 0.0, "agency_lead": "NASA", "agencies": "NASA", "program": "CYGNSS", "mission_class": "GNSS-R wind", "agency_evidence_url": "https://www.nasa.gov/cygnss/", "satcat_object_type": "PAY", "satcat_ops_status": "X", "satcat_owner": "US", "satcat_launch_date": "2016-12-15", "satcat_launch_site": "ERAS", "satcat_rcs_m2": 0.185, "satcat_orbit_center": "EA", "satcat_orbit_type": "ORB" }, "geometry": { "type": "Point", "coordinates": [ -45.728695557286251, -18.650666200847638 ] } },
{ "type": "Feature", "properties": { "norad_cat_id": 41885, "object_id": "2016-078B", "object_name": "CYGFM04", "element_epoch_utc": "2026-07-25T13:06:58.166784", "element_age_days": 0.6618, "inclination_deg": 34.9332, "raan_deg": 331.9292, "eccentricity": 0.00047484, "arg_perigee_deg": 199.2539, "mean_anomaly_deg": 160.8008, "mean_motion_rev_day": 15.63661558, "bstar": 0.00034892604, "rev_at_epoch": 53500.0, "element_set_no": 999.0, "classification": "U", "period_min": 92.091539414822648, "apogee_alt_km": 383.61831006937916, "perigee_alt_km": 377.19985592463809, "orbit_class": "LEO", "lat_deg": 25.303702159857426, "lon_deg": 86.28444945944419, "alt_km": 375.0598399129193, "speed_km_s": 7.6898981097528747, "footprint_central_angle_deg": 19.185096331020208, "footprint_radius_km": 2135.6751543890705, "elevation_mask_deg": 0.0, "agency_lead": "NASA", "agencies": "NASA", "program": "CYGNSS", "mission_class": "GNSS-R wind", "agency_evidence_url": "https://www.nasa.gov/cygnss/", "satcat_object_type": "PAY", "satcat_ops_status": "X", "satcat_owner": "US", "satcat_launch_date": "2016-12-15", "satcat_launch_site": "ERAS", "satcat_rcs_m2": 0.1968, "satcat_orbit_center": "EA", "satcat_orbit_type": "ORB" }, "geometry": { "type": "Point", "coordinates": [ 86.28444945944419, 25.303702159857426 ] } },
{ "type": "Feature", "properties": { "norad_cat_id": 41886, "object_id": "2016-078C", "object_name": "CYGFM02", "element_epoch_utc": "2026-07-25T12:47:11.114592", "element_age_days": 0.6756, "inclination_deg": 34.9412, "raan_deg": 325.3607, "eccentricity": 0.00053868, "arg_perigee_deg": 200.1462, "mean_anomaly_deg": 159.9054, "mean_motion_rev_day": 15.67058055, "bstar": 0.00036398983, "rev_at_epoch": 53518.0, "element_set_no": 999.0, "classification": "U", "period_min": 91.891936958264125, "apogee_alt_km": 374.28348859631853, "perigee_alt_km": 367.01261968510931, "orbit_class": "LEO", "lat_deg": -20.693871326106031, "lon_deg": 154.42882270905181, "alt_km": 367.37302831538858, "speed_km_s": 7.692329246990897, "footprint_central_angle_deg": 18.99655676247087, "footprint_radius_km": 2114.6870256237753, "elevation_mask_deg": 0.0, "agency_lead": "NASA", "agencies": "NASA", "program": "CYGNSS", "mission_class": "GNSS-R wind", "agency_evidence_url": "https://www.nasa.gov/cygnss/", "satcat_object_type": "PAY", "satcat_ops_status": "X", "satcat_owner": "US", "satcat_launch_date": "2016-12-15", "satcat_launch_site": "ERAS", "satcat_rcs_m2": 0.2175, "satcat_orbit_center": "EA", "satcat_orbit_type": "ORB" }, "geometry": { "type": "Point", "coordinates": [ 154.428822709051815, -20.693871326106031 ] } },
{ "type": "Feature", "properties": { "norad_cat_id": 41887, "object_id": "2016-078D", "object_name": "CYGFM01", "element_epoch_utc": "2026-07-25T13:04:47.320896", "element_age_days": 0.6633, "inclination_deg": 34.9407, "raan_deg": 7.01, "eccentricity": 0.00052333, "arg_perigee_deg": 144.419, "mean_anomaly_deg": 215.6884, "mean_motion_rev_day": 15.59032134, "bstar": 0.00034038552, "rev_at_epoch": 53469.0, "element_set_no": 999.0, "classification": "U", "period_min": 92.364998039225796, "apogee_alt_km": 397.31141469177186, "perigee_alt_km": 390.22353524731966, "orbit_class": "LEO", "lat_deg": 26.345758904980322, "lon_deg": 118.87419388857917, "alt_km": 386.1950394744137, "speed_km_s": 7.6850143319011313, "footprint_central_angle_deg": 19.454351158569047, "footprint_radius_km": 2165.6484646854378, "elevation_mask_deg": 0.0, "agency_lead": "NASA", "agencies": "NASA", "program": "CYGNSS", "mission_class": "GNSS-R wind", "agency_evidence_url": "https://www.nasa.gov/cygnss/", "satcat_object_type": "PAY", "satcat_ops_status": "X", "satcat_owner": "US", "satcat_launch_date": "2016-12-15", "satcat_launch_site": "ERAS", "satcat_rcs_m2": 0.234, "satcat_orbit_center": "EA", "satcat_orbit_type": "ORB" }, "geometry": { "type": "Point", "coordinates": [ 118.874193888579171, 26.345758904980322 ] } },
{ "type": "Feature", "properties": { "norad_cat_id": 41888, "object_id": "2016-078E", "object_name": "CYGFM08", "element_epoch_utc": "2026-07-25T13:30:54.082080", "element_age_days": 0.6452, "inclination_deg": 34.944, "raan_deg": 345.4035, "eccentricity": 0.00063738, "arg_perigee_deg": 181.4442, "mean_anomaly_deg": 178.6266, "mean_motion_rev_day": 15.61997076, "bstar": 0.00035519928, "rev_at_epoch": 53497.0, "element_set_no": 999.0, "classification": "U", "period_min": 92.18967321549583, "apogee_alt_km": 389.51393039747296, "perigee_alt_km": 380.89229750333402, "orbit_class": "LEO", "lat_deg": 18.956570166592954, "lon_deg": -8.550952305497276, "alt_km": 383.97611439192758, "speed_km_s": 7.6814733531582258, "footprint_central_angle_deg": 19.401053619303376, "footprint_radius_km": 2159.7154097538491, "elevation_mask_deg": 0.0, "agency_lead": "NASA", "agencies": "NASA", "program": "CYGNSS", "mission_class": "GNSS-R wind", "agency_evidence_url": "https://www.nasa.gov/cygnss/", "satcat_object_type": "PAY", "satcat_ops_status": "X", "satcat_owner": "US", "satcat_launch_date": "2016-12-15", "satcat_launch_site": "ERAS", "satcat_rcs_m2": 0.197, "satcat_orbit_center": "EA", "satcat_orbit_type": "ORB" }, "geometry": { "type": "Point", "coordinates": [ -8.550952305497276, 18.956570166592954 ] } },
{ "type": "Feature", "properties": { "norad_cat_id": 41890, "object_id": "2016-078G", "object_name": "CYGFM07", "element_epoch_utc": "2026-07-25T15:32:27.296160", "element_age_days": 0.5608, "inclination_deg": 34.9457, "raan_deg": 333.1468, "eccentricity": 0.00051762, "arg_perigee_deg": 199.2067, "mean_anomaly_deg": 160.8464, "mean_motion_rev_day": 15.62110735, "bstar": 0.00034134102, "rev_at_epoch": 53501.0, "element_set_no": 999.0, "classification": "U", "period_min": 92.182965505323153, "apogee_alt_km": 388.3757608571762, "perigee_alt_km": 381.37442228997486, "orbit_class": "LEO", "lat_deg": -34.58178737802735, "lon_deg": -128.32504018389361, "alt_km": 389.45105196691492, "speed_km_s": 7.6779293299954885, "footprint_central_angle_deg": 19.532243002434349, "footprint_radius_km": 2174.3193450814724, "elevation_mask_deg": 0.0, "agency_lead": "NASA", "agencies": "NASA", "program": "CYGNSS", "mission_class": "GNSS-R wind", "agency_evidence_url": "https://www.nasa.gov/cygnss/", "satcat_object_type": "PAY", "satcat_ops_status": "X", "satcat_owner": "US", "satcat_launch_date": "2016-12-15", "satcat_launch_site": "ERAS", "satcat_rcs_m2": 0.3239, "satcat_orbit_center": "EA", "satcat_orbit_type": "ORB" }, "geometry": { "type": "Point", "coordinates": [ -128.325040183893606, -34.58178737802735 ] } },
{ "type": "Feature", "properties": { "norad_cat_id": 41891, "object_id": "2016-078H", "object_name": "CYGFM03", "element_epoch_utc": "2026-07-25T13:19:06.371904", "element_age_days": 0.6534, "inclination_deg": 34.9411, "raan_deg": 335.6926, "eccentricity": 0.00047204, "arg_perigee_deg": 182.9374, "mean_anomaly_deg": 177.1325, "mean_motion_rev_day": 15.6208969, "bstar": 0.00034839374, "rev_at_epoch": 53497.0, "element_set_no": 999.0, "classification": "U", "period_min": 92.184207425375178, "apogee_alt_km": 388.12895169045106, "perigee_alt_km": 381.74407113795502, "orbit_class": "LEO", "lat_deg": 34.570781859204502, "lon_deg": 31.167021214849697, "alt_km": 382.98069656212255, "speed_km_s": 7.6853011051092528, "footprint_central_angle_deg": 19.377086961204792, "footprint_radius_km": 2157.0474535782978, "elevation_mask_deg": 0.0, "agency_lead": "NASA", "agencies": "NASA", "program": "CYGNSS", "mission_class": "GNSS-R wind", "agency_evidence_url": "https://www.nasa.gov/cygnss/", "satcat_object_type": "PAY", "satcat_ops_status": "X", "satcat_owner": "US", "satcat_launch_date": "2016-12-15", "satcat_launch_site": "ERAS", "satcat_rcs_m2": 0.192, "satcat_orbit_center": "EA", "satcat_orbit_type": "ORB" }, "geometry": { "type": "Point", "coordinates": [ 31.167021214849697, 34.570781859204502 ] } },
{ "type": "Feature", "properties": { "norad_cat_id": 42915, "object_id": "2017-047A", "object_name": "TDRS 13", "element_epoch_utc": "2026-07-25T04:16:45.979680", "element_age_days": 1.03, "inclination_deg": 3.4624, "raan_deg": 3.65, "eccentricity": 0.00151666, "arg_perigee_deg": 112.38, "mean_anomaly_deg": 239.6577, "mean_motion_rev_day": 1.00272776, "bstar": 0.0, "rev_at_epoch": 3272.0, "element_set_no": 999.0, "classification": "U", "period_min": 1436.0827110241767, "apogee_alt_km": 35851.321340732087, "perigee_alt_km": 35723.419869270328, "orbit_class": "GEO", "lat_deg": 0.20779216998257749, "lon_deg": -11.560525994023038, "alt_km": 35806.300715427307, "speed_km_s": 3.0732328583907109, "footprint_central_angle_deg": 81.303731368087682, "footprint_radius_km": 9050.6899754886235, "elevation_mask_deg": 0.0, "agency_lead": "NASA", "agencies": "NASA", "program": "TDRSS", "mission_class": "relay communications", "agency_evidence_url": "https://www.nasa.gov/", "satcat_object_type": "PAY", "satcat_ops_status": "+", "satcat_owner": "US", "satcat_launch_date": "2017-08-18", "satcat_launch_site": "AFETR", "satcat_rcs_m2": null, "satcat_orbit_center": "EA", "satcat_orbit_type": "ORB" }, "geometry": { "type": "Point", "coordinates": [ -11.560525994023038, 0.207792169982577 ] } },
{ "type": "Feature", "properties": { "norad_cat_id": 43476, "object_id": "2018-047A", "object_name": "GRACE-FO 1", "element_epoch_utc": "2026-07-25T14:30:51.759072", "element_age_days": 0.6036, "inclination_deg": 88.9926, "raan_deg": 192.6695, "eccentricity": 0.00088714, "arg_perigee_deg": 336.9046, "mean_anomaly_deg": 23.181, "mean_motion_rev_day": 15.38506749, "bstar": 0.00010323736, "rev_at_epoch": 45570.0, "element_set_no": 999.0, "classification": "U", "period_min": 93.597249471669357, "apogee_alt_km": 453.36281742529735, "perigee_alt_km": 441.25257096184419, "orbit_class": "LEO", "lat_deg": 79.254268100065588, "lon_deg": -11.610130706014187, "alt_km": 467.48696831408796, "speed_km_s": 7.6374025834259518, "footprint_central_angle_deg": 21.297022864739169, "footprint_radius_km": 2370.7737407154686, "elevation_mask_deg": 0.0, "agency_lead": "NASA", "agencies": "NASA", "program": "GRACE-FO", "mission_class": "gravimetry", "agency_evidence_url": "https://gracefo.jpl.nasa.gov/", "satcat_object_type": "PAY", "satcat_ops_status": "+", "satcat_owner": "US", "satcat_launch_date": "2018-05-22", "satcat_launch_site": "AFWTR", "satcat_rcs_m2": null, "satcat_orbit_center": "EA", "satcat_orbit_type": "ORB" }, "geometry": { "type": "Point", "coordinates": [ -11.610130706014187, 79.254268100065588 ] } },
{ "type": "Feature", "properties": { "norad_cat_id": 43477, "object_id": "2018-047B", "object_name": "GRACE-FO 2", "element_epoch_utc": "2026-07-25T14:31:17.244480", "element_age_days": 0.6033, "inclination_deg": 88.9926, "raan_deg": 192.6693, "eccentricity": 0.00088848, "arg_perigee_deg": 336.9543, "mean_anomaly_deg": 23.1313, "mean_motion_rev_day": 15.38506219, "bstar": 0.0001044169, "rev_at_epoch": 45570.0, "element_set_no": 999.0, "classification": "U", "period_min": 93.597281714985385, "apogee_alt_km": 453.37353391087618, "perigee_alt_km": 441.24499247295512, "orbit_class": "LEO", "lat_deg": 80.871232797131313, "lon_deg": -12.570908491671966, "alt_km": 467.48682690256459, "speed_km_s": 7.6375294522191766, "footprint_central_angle_deg": 21.297019828569578, "footprint_radius_km": 2370.773402730616, "elevation_mask_deg": 0.0, "agency_lead": "NASA", "agencies": "NASA", "program": "GRACE-FO", "mission_class": "gravimetry", "agency_evidence_url": "https://gracefo.jpl.nasa.gov/", "satcat_object_type": "PAY", "satcat_ops_status": "+", "satcat_owner": "US", "satcat_launch_date": "2018-05-22", "satcat_launch_site": "AFWTR", "satcat_rcs_m2": null, "satcat_orbit_center": "EA", "satcat_orbit_type": "ORB" }, "geometry": { "type": "Point", "coordinates": [ -12.570908491671966, 80.871232797131313 ] } },
{ "type": "Feature", "properties": { "norad_cat_id": 43613, "object_id": "2018-070A", "object_name": "ICESAT-2", "element_epoch_utc": "2026-07-25T11:03:18.942624", "element_age_days": 0.7477, "inclination_deg": 92.0089, "raan_deg": 301.3221, "eccentricity": 0.00042349, "arg_perigee_deg": 34.7941, "mean_anomaly_deg": 325.3584, "mean_motion_rev_day": 15.28326358, "bstar": 0.00032179125, "rev_at_epoch": 43830.0, "element_set_no": 999.0, "classification": "U", "period_min": 94.220713557830294, "apogee_alt_km": 480.52498076509727, "perigee_alt_km": 474.71829200921047, "orbit_class": "LEO", "lat_deg": 28.87153274787795, "lon_deg": 103.71675593974157, "alt_km": 486.0161694383379, "speed_km_s": 7.6240592069038708, "footprint_central_angle_deg": 21.690319641463624, "footprint_radius_km": 2414.5553376310704, "elevation_mask_deg": 0.0, "agency_lead": "NASA", "agencies": "NASA", "program": "ICESat-2", "mission_class": "laser altimetry", "agency_evidence_url": "https://icesat-2.gsfc.nasa.gov/", "satcat_object_type": "PAY", "satcat_ops_status": "+", "satcat_owner": "US", "satcat_launch_date": "2018-09-15", "satcat_launch_site": "AFWTR", "satcat_rcs_m2": null, "satcat_orbit_center": "EA", "satcat_orbit_type": "ORB" }, "geometry": { "type": "Point", "coordinates": [ 103.716755939741574, 28.87153274787795 ] } },
{ "type": "Feature", "properties": { "norad_cat_id": 49044, "object_id": "2021-066A", "object_name": "ISS (NAUKA)", "element_epoch_utc": "2026-07-25T10:38:14.228736", "element_age_days": 0.7651, "inclination_deg": 51.6316, "raan_deg": 110.7757, "eccentricity": 0.00069089, "arg_perigee_deg": 336.1751, "mean_anomaly_deg": 23.8916, "mean_motion_rev_day": 15.49160253, "bstar": 0.00016367362, "rev_at_epoch": 57667.0, "element_set_no": 999.0, "classification": "U", "period_min": 92.953585480352501, "apogee_alt_km": 424.38690792004485, "perigee_alt_km": 414.99380879637266, "orbit_class": "LEO", "lat_deg": -37.189186254147593, "lon_deg": 51.397756245940805, "alt_km": 426.88230154327397, "speed_km_s": 7.6574719970483898, "footprint_central_angle_deg": 20.402053758217725, "footprint_radius_km": 2271.1462355017902, "elevation_mask_deg": 0.0, "agency_lead": "NASA", "agencies": "NASA", "program": "ISS", "mission_class": "crewed platform", "agency_evidence_url": "https://www.nasa.gov/international-space-station/", "satcat_object_type": "PAY", "satcat_ops_status": "+", "satcat_owner": "CIS", "satcat_launch_date": "2021-07-21", "satcat_launch_site": "TYMSC", "satcat_rcs_m2": null, "satcat_orbit_center": "25544", "satcat_orbit_type": "DOC" }, "geometry": { "type": "Point", "coordinates": [ 51.397756245940805, -37.189186254147593 ] } },
{ "type": "Feature", "properties": { "norad_cat_id": 54754, "object_id": "2022-173A", "object_name": "SWOT", "element_epoch_utc": "2026-07-25T15:28:45.981696", "element_age_days": 0.5634, "inclination_deg": 77.6121, "raan_deg": 343.3916, "eccentricity": 1.794e-05, "arg_perigee_deg": 71.8862, "mean_anomaly_deg": 288.2309, "mean_motion_rev_day": 14.00169437, "bstar": 3.5356077e-05, "rev_at_epoch": 18453.0, "element_set_no": 999.0, "classification": "U", "period_min": 102.84469593089683, "apogee_alt_km": 890.73345290749273, "perigee_alt_km": 890.4726505861961, "orbit_class": "LEO", "lat_deg": -40.669139384276392, "lon_deg": -47.09831340192104, "alt_km": 908.63208536734055, "speed_km_s": 7.3966041750903813, "footprint_central_angle_deg": 28.919043968539818, "footprint_radius_km": 3219.253248806142, "elevation_mask_deg": 0.0, "agency_lead": "NASA", "agencies": "NASA", "program": "SWOT", "mission_class": "surface water altimetry", "agency_evidence_url": "https://swot.jpl.nasa.gov/", "satcat_object_type": "PAY", "satcat_ops_status": "+", "satcat_owner": "US", "satcat_launch_date": "2022-12-16", "satcat_launch_site": "AFWTR", "satcat_rcs_m2": null, "satcat_orbit_center": "EA", "satcat_orbit_type": "ORB" }, "geometry": { "type": "Point", "coordinates": [ -47.09831340192104, -40.669139384276392 ] } },
{ "type": "Feature", "properties": { "norad_cat_id": 58928, "object_id": "2024-025A", "object_name": "PACE", "element_epoch_utc": "2026-07-25T13:34:49.154016", "element_age_days": 0.6425, "inclination_deg": 98.0944, "raan_deg": 137.3151, "eccentricity": 0.00030927, "arg_perigee_deg": 114.717, "mean_anomaly_deg": 245.4356, "mean_motion_rev_day": 14.6557301, "bstar": 8.2088032e-05, "rev_at_epoch": 13155.0, "element_set_no": 999.0, "classification": "U", "period_min": 98.255084541984033, "apogee_alt_km": 674.48548483243201, "perigee_alt_km": 670.12450567776648, "orbit_class": "LEO", "lat_deg": 31.75647485379708, "lon_deg": -55.938601196148518, "alt_km": 677.56312363927248, "speed_km_s": 7.5218433185016655, "footprint_central_angle_deg": 25.315165844994379, "footprint_radius_km": 2818.0713712120451, "elevation_mask_deg": 0.0, "agency_lead": "NASA", "agencies": "NASA", "program": "PACE", "mission_class": "ocean colour / aerosol", "agency_evidence_url": "https://pace.gsfc.nasa.gov/", "satcat_object_type": "PAY", "satcat_ops_status": "+", "satcat_owner": "US", "satcat_launch_date": "2024-02-08", "satcat_launch_site": "AFETR", "satcat_rcs_m2": null, "satcat_orbit_center": "EA", "satcat_orbit_type": "ORB" }, "geometry": { "type": "Point", "coordinates": [ -55.938601196148518, 31.75647485379708 ] } },
{ "type": "Feature", "properties": { "norad_cat_id": 65053, "object_id": "2025-163A", "object_name": "NISAR", "element_epoch_utc": "2026-07-25T14:13:33.396960", "element_age_days": 0.6156, "inclination_deg": 98.4054, "raan_deg": 33.6974, "eccentricity": 0.00012254, "arg_perigee_deg": 89.8238, "mean_anomaly_deg": 270.3093, "mean_motion_rev_day": 14.42505563, "bstar": 7.578383e-05, "rev_at_epoch": 5192.0, "element_set_no": 999.0, "classification": "U", "period_min": 99.826304794638773, "apogee_alt_km": 748.2190897434042, "perigee_alt_km": 746.47277687626865, "orbit_class": "LEO", "lat_deg": -44.630979652587627, "lon_deg": 23.737186545888541, "alt_km": 768.02359922373387, "speed_km_s": 7.4686394928074993, "footprint_central_angle_deg": 26.807549566649854, "footprint_radius_km": 2984.2027671749033, "elevation_mask_deg": 0.0, "agency_lead": "NASA", "agencies": "NASA", "program": "NISAR", "mission_class": "L/S-band SAR", "agency_evidence_url": "https://nisar.jpl.nasa.gov/", "satcat_object_type": "PAY", "satcat_ops_status": "+", "satcat_owner": "IND", "satcat_launch_date": "2025-07-30", "satcat_launch_site": "SRILR", "satcat_rcs_m2": null, "satcat_orbit_center": "EA", "satcat_orbit_type": "ORB" }, "geometry": { "type": "Point", "coordinates": [ 23.737186545888541, -44.630979652587627 ] } }
]
}
