{
"type": "FeatureCollection",
"name": "agency_usgs_ground_tracks",
"crs": { "type": "name", "properties": { "name": "urn:ogc:def:crs:OGC:1.3:CRS84" } },
"features": [
{ "type": "Feature", "properties": { "norad_cat_id": 39084, "object_name": "LANDSAT 8", "orbit_class": "LEO", "agency_lead": "USGS", "program": "Landsat", "period_min": 98.826444414009089, "n_samples": 60 }, "geometry": { "type": "MultiLineString", "coordinates": [ [ [ 71.369296302801416, -38.615806777609144 ], [ 69.394373580044345, -44.596286455811374 ], [ 67.065027653060696, -50.542032639304566 ], [ 64.18848809128913, -56.43913690058465 ], [ 60.417259195371024, -62.262267368288448 ], [ 55.062085523367607, -67.959615823119989 ], [ 46.587809023866797, -73.409261351557632 ], [ 31.188538949241863, -78.270223967778392 ], [ 0.913460835913984, -81.477425827675958 ], [ -40.016090070181733, -81.03786776588349 ], [ -66.463704711135691, -77.325104404585545 ], [ -79.873670903539306, -72.287764686494711 ], [ -87.481477576739024, -66.768657001592516 ], [ -92.414290135201938, -61.037991071002821 ], [ -95.954603746092047, -55.196130442045217 ], [ -98.693312707808005, -49.287132588756279 ], [ -100.934941639440851, -43.333107117916477 ], [ -102.851450324017108, -37.346475417532069 ], [ -104.547483049796128, -31.335004580139874 ], [ -106.09093361936489, -25.304110159748141 ], [ -107.528522124015197, -19.257996019083624 ], [ -108.894338140591969, -13.200248438312975 ], [ -110.21487437470509, -7.134153545281604 ], [ -111.512233540139064, -1.062867124505145 ], [ -112.806395159628508, 5.010494421882409 ], [ -114.117059323720994, 11.082799861199184 ], [ -115.465435280374834, 17.15085428802897 ], [ -116.876330566957819, 23.2113255021886 ], [ -118.380990540689751, 29.260607934865202 ], [ -120.021430710068046, 35.294565811015872 ], [ -121.857623434635414, 41.308050348325246 ], [ -123.980324295832233, 47.293978513497926 ], [ -126.535666837060774, 53.241500352593427 ], [ -129.776289759249408, 59.132091707779871 ], [ -134.178164712803181, 64.930364526051818 ], [ -140.738521400468841, 70.559445110688202 ], [ -151.816741424088093, 75.823442721706911 ], [ -173.269532353828112, 80.128163246763094 ], [ -180.0, 80.420465796786345 ] ], [ [ 180.0, 80.420465796786345 ], [ 148.286554368787364, 81.797772919464506 ], [ 112.479729609571649, 79.492057852825042 ], [ 93.519722070402452, 74.936334749128093 ], [ 83.527217487990242, 69.582538004915435 ], [ 77.46306099117129, 63.91447750247108 ], [ 73.317924698228353, 58.096013027685991 ], [ 70.224380055183303, 52.193460299943901 ], [ 67.759893426474719, 46.238107542164784 ], [ 65.696448057915404, 40.246673690947645 ], [ 63.900362448903934, 34.229141481440102 ], [ 62.287657340180942, 28.192153804663139 ], [ 60.802254267549699, 22.140629654848006 ], [ 59.404458841976805, 16.078584076136558 ], [ 58.064423698031305, 10.009559830006042 ], [ 56.758155329831141, 3.936857073276192 ], [ 55.464849994457552, -2.136345026519663 ], [ 54.16488565216514, -8.20692144313352 ], [ 52.838048728361343, -14.271753619739966 ], [ 51.461643959104833, -20.327671204181421 ], [ 50.008107388464055, -26.37135070564868 ], [ 48.441554894541696, -32.39912572525629 ], [ 46.712285261429201, -38.406632566488781 ] ] ] } },
{ "type": "Feature", "properties": { "norad_cat_id": 49260, "object_name": "LANDSAT 9", "orbit_class": "LEO", "agency_lead": "USGS", "program": "Landsat", "period_min": 98.826352580303308, "n_samples": 60 }, "geometry": { "type": "MultiLineString", "coordinates": [ [ [ -108.398515909104262, 37.77473120656586 ], [ -110.338874915590637, 43.777729882718482 ], [ -112.617056172710619, 49.749314826750265 ], [ -115.414394970700442, 55.676149801591833 ], [ -119.054986725986836, 61.534409396311766 ], [ -124.175050697182556, 67.276239279634893 ], [ -132.175374356056324, 72.791101693142608 ], [ -146.513431136815257, 77.77547556980123 ], [ -174.90309921511232, 81.275419782965315 ], [ -180.0, 81.275430033206788 ] ], [ [ 180.0, 81.275430033206788 ], [ 143.78470500452778, 81.275502864822386 ], [ 115.394281439649376, 77.775645984362654 ], [ 101.055835544678303, 72.791285838700119 ], [ 93.055341966927642, 67.276406709810814 ], [ 87.935194319335096, 61.534543587560357 ], [ 84.294555821756092, 55.676238772214496 ], [ 81.497187688267502, 49.749348587434483 ], [ 79.218986247475414, 43.777699675019456 ], [ 77.278611910437633, 37.77462927945183 ], [ 75.566539922879144, 31.748463877848994 ], [ 74.012168681887204, 25.704996085465805 ], [ 72.567206707095806, 19.648698827086882 ], [ 71.196628790409761, 13.583352904746143 ], [ 69.873391417891582, 7.51237980955263 ], [ 68.575092507091369, 1.439018502298626 ], [ 67.281640775828862, -4.633580681885536 ], [ 65.973388814229963, -10.702300920648518 ], [ 64.629354033054312, -16.764010526034216 ], [ 63.225176717106649, -22.815491440670755 ], [ 61.730380429322508, -28.853308335417793 ], [ 60.104235240684147, -34.873563227156815 ], [ 58.288948049241185, -40.871437439946725 ], [ 56.197602200400013, -46.840324442213735 ], [ 53.69121962603549, -52.77012028440955 ], [ 50.531535284373433, -58.643617771736359 ], [ 46.274330240610709, -64.428137568917336 ], [ 40.001067780323467, -70.053478064951179 ], [ 29.56952953412349, -75.343856866501397 ], [ 9.642027150296315, -79.775320768853845 ], [ -27.177756756329131, -81.816664254632173 ], [ -64.511037774208262, -79.899065402157433 ], [ -84.924667769166149, -75.516595556287569 ], [ -95.568619212452404, -70.243842934648214 ], [ -101.939160120731572, -64.626215261731019 ], [ -106.246753934571757, -58.845746720512544 ], [ -109.435323064194733, -52.974704591450177 ], [ -111.959555867887218, -47.046570960852563 ], [ -114.062546630627651, -41.078906114153192 ], [ -115.885717075715888, -35.081982917101556 ], [ -117.517314282491327, -29.062492744964747 ], [ -119.015896649683157, -23.025297543449497 ], [ -120.422650020140168, -16.974316881040387 ], [ -121.768325228033007, -10.912996055820511 ], [ -123.077441963200044, -4.844556858133774 ], [ -124.371062852686521, 1.227868625352166 ], [ -125.668850483264123, 7.301165104900559 ], [ -126.990850269136786, 13.372185402382001 ], [ -128.359347412781403, 19.437696059007415 ], [ -129.801175239270719, 25.494285402878599 ], [ -131.35100600740617, 31.538190635683332 ], [ -133.056545208367424, 37.564972245819256 ] ] ] } }
]
}
