{
"type": "FeatureCollection",
"name": "agency_usgs_satellites",
"crs": { "type": "name", "properties": { "name": "urn:ogc:def:crs:OGC:1.3:CRS84" } },
"features": [
{ "type": "Feature", "properties": { "norad_cat_id": 39084, "object_id": "2013-008A", "object_name": "LANDSAT 8", "element_epoch_utc": "2026-07-25T14:48:51.281280", "element_age_days": 0.5911, "inclination_deg": 98.2283, "raan_deg": 276.292, "eccentricity": 0.00013154, "arg_perigee_deg": 91.6192, "mean_anomaly_deg": 268.5157, "mean_motion_rev_day": 14.57099877, "bstar": 7.7005491e-05, "rev_at_epoch": 70349.0, "element_set_no": 999.0, "classification": "U", "period_min": 98.826444414009103, "apogee_alt_km": 700.57091434989673, "perigee_alt_km": 698.70889332819502, "orbit_class": "LEO", "lat_deg": -38.615806777609144, "lon_deg": 71.369296302801416, "alt_km": 717.86230509333586, "speed_km_s": 7.4949725935229301, "footprint_central_angle_deg": 25.994564526238854, "footprint_radius_km": 2893.7016864538023, "elevation_mask_deg": 0.0, "agency_lead": "USGS", "agencies": "USGS;NASA", "program": "Landsat", "mission_class": "land imaging", "agency_evidence_url": "https://www.usgs.gov/landsat-missions/landsat-satellite-missions", "satcat_object_type": "PAY", "satcat_ops_status": "+", "satcat_owner": "US", "satcat_launch_date": "2013-02-11", "satcat_launch_site": "AFWTR", "satcat_rcs_m2": 7.1149, "satcat_orbit_center": "EA", "satcat_orbit_type": "ORB" }, "geometry": { "type": "Point", "coordinates": [ 71.369296302801416, -38.615806777609144 ] } },
{ "type": "Feature", "properties": { "norad_cat_id": 49260, "object_id": "2021-088A", "object_name": "LANDSAT 9", "element_epoch_utc": "2026-07-25T04:06:16.854624", "element_age_days": 1.0373, "inclination_deg": 98.2261, "raan_deg": 275.8848, "eccentricity": 0.00011042, "arg_perigee_deg": 95.2952, "mean_anomaly_deg": 264.8372, "mean_motion_rev_day": 14.57101231, "bstar": 8.5233312e-05, "rev_at_epoch": 25653.0, "element_set_no": 999.0, "classification": "U", "period_min": 98.826352580303322, "apogee_alt_km": 700.41694160013787, "perigee_alt_km": 698.85388678186791, "orbit_class": "LEO", "lat_deg": 37.77473120656586, "lon_deg": -108.39851590910426, "alt_km": 707.3305826774714, "speed_km_s": 7.505953011544177, "footprint_central_angle_deg": 25.819361790785745, "footprint_radius_km": 2874.1982071575731, "elevation_mask_deg": 0.0, "agency_lead": "USGS", "agencies": "USGS;NASA", "program": "Landsat", "mission_class": "land imaging", "agency_evidence_url": "https://www.usgs.gov/landsat-missions/landsat-satellite-missions", "satcat_object_type": "PAY", "satcat_ops_status": "+", "satcat_owner": "US", "satcat_launch_date": "2021-09-27", "satcat_launch_site": "AFWTR", "satcat_rcs_m2": null, "satcat_orbit_center": "EA", "satcat_orbit_type": "ORB" }, "geometry": { "type": "Point", "coordinates": [ -108.398515909104262, 37.77473120656586 ] } }
]
}
