{
"type": "FeatureCollection",
"name": "agency_noaa_satellites",
"crs": { "type": "name", "properties": { "name": "urn:ogc:def:crs:OGC:1.3:CRS84" } },
"features": [
{ "type": "Feature", "properties": { "norad_cat_id": 28054, "object_id": "2003-048A", "object_name": "DMSP 5D-3 F16 (USA 172)", "element_epoch_utc": "2026-07-25T12:34:24.265344", "element_age_days": 0.6844, "inclination_deg": 98.9888, "raan_deg": 230.6044, "eccentricity": 0.0007821, "arg_perigee_deg": 45.5793, "mean_anomaly_deg": 117.9718, "mean_motion_rev_day": 14.14485225, "bstar": 3.4518767e-05, "rev_at_epoch": 17490.0, "element_set_no": 999.0, "classification": "U", "period_min": 101.80382053831633, "apogee_alt_km": 846.88941288042088, "perigee_alt_km": 835.59686159815192, "orbit_class": "LEO", "lat_deg": 46.24461001679061, "lon_deg": -157.07525710650162, "alt_km": 845.46983889368357, "speed_km_s": 7.4373222070491689, "footprint_central_angle_deg": 27.998804993048306, "footprint_radius_km": 3116.812714646303, "elevation_mask_deg": 0.0, "agency_lead": "NOAA", "agencies": "NOAA;USSF", "program": "DMSP", "mission_class": "polar meteorology", "agency_evidence_url": "https://www.nesdis.noaa.gov/our-satellites/currently-flying", "satcat_object_type": "PAY", "satcat_ops_status": "B", "satcat_owner": "US", "satcat_launch_date": "2003-10-18", "satcat_launch_site": "AFWTR", "satcat_rcs_m2": 4.3007, "satcat_orbit_center": "EA", "satcat_orbit_type": "ORB" }, "geometry": { "type": "Point", "coordinates": [ -157.075257106501624, 46.24461001679061 ] } },
{ "type": "Feature", "properties": { "norad_cat_id": 29522, "object_id": "2006-050A", "object_name": "DMSP 5D-3 F17 (USA 191)", "element_epoch_utc": "2026-07-25T13:34:50.510496", "element_age_days": 0.6425, "inclination_deg": 98.7394, "raan_deg": 212.3529, "eccentricity": 0.0009193, "arg_perigee_deg": 311.4167, "mean_anomaly_deg": 48.6216, "mean_motion_rev_day": 14.14997199, "bstar": 5.6713441e-05, "rev_at_epoch": 1785.0, "element_set_no": 999.0, "classification": "U", "period_min": 101.76698590058481, "apogee_alt_km": 846.12330038889638, "perigee_alt_km": 832.85297848472771, "orbit_class": "LEO", "lat_deg": 30.704196068188008, "lon_deg": -171.13762632326277, "alt_km": 845.19081950302052, "speed_km_s": 7.4334248964843335, "footprint_central_angle_deg": 27.994642084630129, "footprint_radius_km": 3116.3493018009726, "elevation_mask_deg": 0.0, "agency_lead": "NOAA", "agencies": "NOAA;USSF", "program": "DMSP", "mission_class": "polar meteorology", "agency_evidence_url": "https://www.nesdis.noaa.gov/our-satellites/currently-flying", "satcat_object_type": "PAY", "satcat_ops_status": "+", "satcat_owner": "US", "satcat_launch_date": "2006-11-04", "satcat_launch_site": "AFWTR", "satcat_rcs_m2": 4.481, "satcat_orbit_center": "EA", "satcat_orbit_type": "ORB" }, "geometry": { "type": "Point", "coordinates": [ -171.137626323262765, 30.704196068188008 ] } },
{ "type": "Feature", "properties": { "norad_cat_id": 35951, "object_id": "2009-057A", "object_name": "DMSP 5D-3 F18 (USA 210)", "element_epoch_utc": "2026-07-25T14:38:51.232416", "element_age_days": 0.598, "inclination_deg": 98.9066, "raan_deg": 187.3014, "eccentricity": 0.00117873, "arg_perigee_deg": 137.1923, "mean_anomaly_deg": 223.017, "mean_motion_rev_day": 14.14916949, "bstar": 0.00014880565, "rev_at_epoch": 86502.0, "element_set_no": 999.0, "classification": "U", "period_min": 101.77275782990144, "apogee_alt_km": 848.27730642386155, "perigee_alt_km": 831.2613856442606, "orbit_class": "LEO", "lat_deg": 15.084336997828675, "lon_deg": -8.6034872004197123, "alt_km": 837.35970682308357, "speed_km_s": 7.4392078832228341, "footprint_central_angle_deg": 27.877438689715255, "footprint_radius_km": 3103.3022795598058, "elevation_mask_deg": 0.0, "agency_lead": "NOAA", "agencies": "NOAA;USSF", "program": "DMSP", "mission_class": "polar meteorology", "agency_evidence_url": "https://www.nesdis.noaa.gov/our-satellites/currently-flying", "satcat_object_type": "PAY", "satcat_ops_status": "+", "satcat_owner": "US", "satcat_launch_date": "2009-10-18", "satcat_launch_site": "AFWTR", "satcat_rcs_m2": 3.9811, "satcat_orbit_center": "EA", "satcat_orbit_type": "ORB" }, "geometry": { "type": "Point", "coordinates": [ -8.603487200419712, 15.084336997828675 ] } },
{ "type": "Feature", "properties": { "norad_cat_id": 37849, "object_id": "2011-061A", "object_name": "SUOMI NPP", "element_epoch_utc": "2026-07-25T14:44:42.749088", "element_age_days": 0.5939, "inclination_deg": 98.7957, "raan_deg": 147.2295, "eccentricity": 0.00013022, "arg_perigee_deg": 173.7402, "mean_anomaly_deg": 186.3791, "mean_motion_rev_day": 14.1952435, "bstar": 4.413206e-05, "rev_at_epoch": 76389.0, "element_set_no": 999.0, "classification": "U", "period_min": 101.44243034647486, "apogee_alt_km": 825.06284082702473, "perigee_alt_km": 823.18708424238275, "orbit_class": "LEO", "lat_deg": 26.038079797010464, "lon_deg": -46.777911567563322, "alt_km": 829.226860488331, "speed_km_s": 7.4411229115128794, "footprint_central_angle_deg": 27.754966499010411, "footprint_radius_km": 3089.6687376542059, "elevation_mask_deg": 0.0, "agency_lead": "NOAA", "agencies": "NOAA;NASA", "program": "JPSS", "mission_class": "polar meteorology", "agency_evidence_url": "https://www.nesdis.noaa.gov/our-satellites/currently-flying/joint-polar-satellite-system", "satcat_object_type": "PAY", "satcat_ops_status": "+", "satcat_owner": "US", "satcat_launch_date": "2011-10-28", "satcat_launch_site": "AFWTR", "satcat_rcs_m2": 5.7802, "satcat_orbit_center": "EA", "satcat_orbit_type": "ORB" }, "geometry": { "type": "Point", "coordinates": [ -46.777911567563322, 26.038079797010464 ] } },
{ "type": "Feature", "properties": { "norad_cat_id": 41240, "object_id": "2016-002A", "object_name": "JASON-3", "element_epoch_utc": "2026-07-25T14:30:44.912736", "element_age_days": 0.6036, "inclination_deg": 66.0416, "raan_deg": 45.0659, "eccentricity": 0.00081156, "arg_perigee_deg": 269.9054, "mean_anomaly_deg": 90.1034, "mean_motion_rev_day": 12.87629042, "bstar": 8.7805087e-05, "rev_at_epoch": 49219.0, "element_set_no": 999.0, "classification": "U", "period_min": 111.8334514856337, "apogee_alt_km": 1315.744389299218, "perigee_alt_km": 1303.2664264004281, "orbit_class": "LEO", "lat_deg": -64.95284440673899, "lon_deg": -46.222916271067696, "alt_km": 1328.648155787833, "speed_km_s": 7.1959174145117766, "footprint_central_angle_deg": 34.146995200161498, "footprint_radius_km": 3801.226117802335, "elevation_mask_deg": 0.0, "agency_lead": "NOAA", "agencies": "NOAA;NASA", "program": "Jason", "mission_class": "ocean altimetry", "agency_evidence_url": "https://www.nesdis.noaa.gov/our-satellites/currently-flying", "satcat_object_type": "PAY", "satcat_ops_status": "P", "satcat_owner": "US", "satcat_launch_date": "2016-01-17", "satcat_launch_site": "AFWTR", "satcat_rcs_m2": 2.7109, "satcat_orbit_center": "EA", "satcat_orbit_type": "ORB" }, "geometry": { "type": "Point", "coordinates": [ -46.222916271067696, -64.95284440673899 ] } },
{ "type": "Feature", "properties": { "norad_cat_id": 41866, "object_id": "2016-071A", "object_name": "GOES 16", "element_epoch_utc": "2026-07-25T07:15:32.340096", "element_age_days": 0.9059, "inclination_deg": 0.4281, "raan_deg": 85.3974, "eccentricity": 8.14e-05, "arg_perigee_deg": 71.3334, "mean_anomaly_deg": 150.4608, "mean_motion_rev_day": 1.0027199, "bstar": 0.0, "rev_at_epoch": 3548.0, "element_set_no": 999.0, "classification": "U", "period_min": 1436.0939680163922, "apogee_alt_km": 35791.028856083831, "perigee_alt_km": 35784.164274984963, "orbit_class": "GEO", "lat_deg": -0.081783418794881588, "lon_deg": -104.68973765523241, "alt_km": 35787.638908438006, "speed_km_s": 3.0746013198508302, "footprint_central_angle_deg": 81.299852707812676, "footprint_radius_km": 9050.2582050018518, "elevation_mask_deg": 0.0, "agency_lead": "NOAA", "agencies": "NOAA", "program": "GOES-R", "mission_class": "geostationary meteorology", "agency_evidence_url": "https://www.nesdis.noaa.gov/our-satellites/currently-flying", "satcat_object_type": "PAY", "satcat_ops_status": "+", "satcat_owner": "US", "satcat_launch_date": "2016-11-19", "satcat_launch_site": "AFETR", "satcat_rcs_m2": 13.1623, "satcat_orbit_center": "EA", "satcat_orbit_type": "ORB" }, "geometry": { "type": "Point", "coordinates": [ -104.689737655232406, -0.081783418794882 ] } },
{ "type": "Feature", "properties": { "norad_cat_id": 43013, "object_id": "2017-073A", "object_name": "NOAA 20 (JPSS-1)", "element_epoch_utc": "2026-07-25T13:22:30.428832", "element_age_days": 0.651, "inclination_deg": 98.7773, "raan_deg": 145.6803, "eccentricity": 0.00016981, "arg_perigee_deg": 112.8933, "mean_anomaly_deg": 247.2423, "mean_motion_rev_day": 14.19518025, "bstar": 3.9233395e-05, "rev_at_epoch": 44991.0, "element_set_no": 999.0, "classification": "U", "period_min": 101.44288234733757, "apogee_alt_km": 825.36850437323017, "perigee_alt_km": 822.92246587487159, "orbit_class": "LEO", "lat_deg": 80.066861569217451, "lon_deg": 66.13138032936655, "alt_km": 839.20872010276275, "speed_km_s": 7.4406368427230136, "footprint_central_angle_deg": 27.905175500300704, "footprint_radius_km": 3106.389927190407, "elevation_mask_deg": 0.0, "agency_lead": "NOAA", "agencies": "NOAA;NASA", "program": "JPSS", "mission_class": "polar meteorology", "agency_evidence_url": "https://www.nesdis.noaa.gov/our-satellites/currently-flying/joint-polar-satellite-system", "satcat_object_type": "PAY", "satcat_ops_status": "+", "satcat_owner": "US", "satcat_launch_date": "2017-11-18", "satcat_launch_site": "AFWTR", "satcat_rcs_m2": null, "satcat_orbit_center": "EA", "satcat_orbit_type": "ORB" }, "geometry": { "type": "Point", "coordinates": [ 66.13138032936655, 80.066861569217451 ] } },
{ "type": "Feature", "properties": { "norad_cat_id": 43226, "object_id": "2018-022A", "object_name": "GOES 17", "element_epoch_utc": "2026-07-25T10:45:09.942336", "element_age_days": 0.7603, "inclination_deg": 1.0319, "raan_deg": 85.114, "eccentricity": 7.678e-05, "arg_perigee_deg": 60.305, "mean_anomaly_deg": 229.5244, "mean_motion_rev_day": 1.00271592, "bstar": 0.0, "rev_at_epoch": 3080.0, "element_set_no": 999.0, "classification": "U", "period_min": 1436.0996681891718, "apogee_alt_km": 35790.945209350655, "perigee_alt_km": 35784.470222543197, "orbit_class": "GEO", "lat_deg": -0.44555032194952177, "lon_deg": -89.495694167671715, "alt_km": 35788.87250296471, "speed_km_s": 3.0745169478899705, "footprint_central_angle_deg": 81.300109204668487, "footprint_radius_km": 9050.2867581012288, "elevation_mask_deg": 0.0, "agency_lead": "NOAA", "agencies": "NOAA", "program": "GOES-R", "mission_class": "geostationary meteorology", "agency_evidence_url": "https://www.nesdis.noaa.gov/our-satellites/currently-flying", "satcat_object_type": "PAY", "satcat_ops_status": "B", "satcat_owner": "US", "satcat_launch_date": "2018-03-01", "satcat_launch_site": "AFETR", "satcat_rcs_m2": null, "satcat_orbit_center": "EA", "satcat_orbit_type": "ORB" }, "geometry": { "type": "Point", "coordinates": [ -89.495694167671715, -0.445550321949522 ] } },
{ "type": "Feature", "properties": { "norad_cat_id": 46984, "object_id": "2020-086A", "object_name": "SENTINEL-6A", "element_epoch_utc": "2026-07-25T13:50:45.607200", "element_age_days": 0.6314, "inclination_deg": 66.0409, "raan_deg": 55.3163, "eccentricity": 0.00077677, "arg_perigee_deg": 269.4809, "mean_anomaly_deg": 90.5316, "mean_motion_rev_day": 12.8093033, "bstar": 5.853832e-05, "rev_at_epoch": 26524.0, "element_set_no": 999.0, "classification": "U", "period_min": 112.41829210180386, "apogee_alt_km": 1342.2866025303658, "perigee_alt_km": 1330.3019280895357, "orbit_class": "LEO", "lat_deg": 28.564161674779225, "lon_deg": 49.024419400189984, "alt_km": 1343.4951087367349, "speed_km_s": 7.1874929810073187, "footprint_central_angle_deg": 34.309085963642275, "footprint_radius_km": 3819.2699790553074, "elevation_mask_deg": 0.0, "agency_lead": "NOAA", "agencies": "NOAA;NASA", "program": "Sentinel-6", "mission_class": "ocean altimetry", "agency_evidence_url": "https://www.nesdis.noaa.gov/our-satellites/currently-flying", "satcat_object_type": "PAY", "satcat_ops_status": "+", "satcat_owner": "ESA", "satcat_launch_date": "2020-11-21", "satcat_launch_site": "AFWTR", "satcat_rcs_m2": null, "satcat_orbit_center": "EA", "satcat_orbit_type": "ORB" }, "geometry": { "type": "Point", "coordinates": [ 49.024419400189984, 28.564161674779225 ] } },
{ "type": "Feature", "properties": { "norad_cat_id": 51850, "object_id": "2022-021A", "object_name": "GOES 18", "element_epoch_utc": "2026-07-25T10:31:33.744864", "element_age_days": 0.7697, "inclination_deg": 0.0124, "raan_deg": 69.1895, "eccentricity": 5.791e-05, "arg_perigee_deg": 79.0249, "mean_anomaly_deg": 175.8204, "mean_motion_rev_day": 1.00272094, "bstar": 0.0, "rev_at_epoch": 697.0, "element_set_no": 999.0, "classification": "U", "period_min": 1436.0924785314648, "apogee_alt_km": 35790.009314620031, "perigee_alt_km": 35785.125682956626, "orbit_class": "GEO", "lat_deg": -7.8526444218670393e-05, "lon_deg": -136.98760456938842, "alt_km": 35786.086720098647, "speed_km_s": 3.0747104827031158, "footprint_central_angle_deg": 81.299529945322661, "footprint_radius_km": 9050.2222752458129, "elevation_mask_deg": 0.0, "agency_lead": "NOAA", "agencies": "NOAA", "program": "GOES-R", "mission_class": "geostationary meteorology", "agency_evidence_url": "https://www.nesdis.noaa.gov/our-satellites/currently-flying", "satcat_object_type": "PAY", "satcat_ops_status": "+", "satcat_owner": "US", "satcat_launch_date": "2022-03-01", "satcat_launch_site": "AFETR", "satcat_rcs_m2": null, "satcat_orbit_center": "EA", "satcat_orbit_type": "ORB" }, "geometry": { "type": "Point", "coordinates": [ -136.987604569388424, -0.000078526444219 ] } },
{ "type": "Feature", "properties": { "norad_cat_id": 54234, "object_id": "2022-150A", "object_name": "NOAA 21 (JPSS-2)", "element_epoch_utc": "2026-07-25T14:08:46.522176", "element_age_days": 0.6189, "inclination_deg": 98.706, "raan_deg": 144.7337, "eccentricity": 0.00029492, "arg_perigee_deg": 86.2792, "mean_anomaly_deg": 273.8721, "mean_motion_rev_day": 14.195425, "bstar": 4.4103227e-05, "rev_at_epoch": 19199.0, "element_set_no": 999.0, "classification": "U", "period_min": 101.44113332288396, "apogee_alt_km": 826.18327932744944, "perigee_alt_km": 821.93513709567821, "orbit_class": "LEO", "lat_deg": -75.954149610874197, "lon_deg": 163.93900299207576, "alt_km": 856.3544452157663, "speed_km_s": 7.4225261770298889, "footprint_central_angle_deg": 28.160510301024949, "footprint_radius_km": 3134.8136671888324, "elevation_mask_deg": 0.0, "agency_lead": "NOAA", "agencies": "NOAA;NASA", "program": "JPSS", "mission_class": "polar meteorology", "agency_evidence_url": "https://www.nesdis.noaa.gov/our-satellites/currently-flying/joint-polar-satellite-system", "satcat_object_type": "PAY", "satcat_ops_status": "+", "satcat_owner": "US", "satcat_launch_date": "2022-11-10", "satcat_launch_site": "AFWTR", "satcat_rcs_m2": null, "satcat_orbit_center": "EA", "satcat_orbit_type": "ORB" }, "geometry": { "type": "Point", "coordinates": [ 163.939002992075757, -75.954149610874197 ] } },
{ "type": "Feature", "properties": { "norad_cat_id": 60133, "object_id": "2024-119A", "object_name": "GOES 19", "element_epoch_utc": "2026-07-25T10:49:09.558912", "element_age_days": 0.7575, "inclination_deg": 0.0141, "raan_deg": 107.3026, "eccentricity": 3.764e-05, "arg_perigee_deg": 67.2334, "mean_anomaly_deg": 215.7171, "mean_motion_rev_day": 1.00271522, "bstar": 0.0, "rev_at_epoch": 734.0, "element_set_no": 999.0, "classification": "U", "period_min": 1436.1006707368019, "apogee_alt_km": 35789.314970219799, "perigee_alt_km": 35786.140724064659, "orbit_class": "GEO", "lat_deg": -0.019398485242679925, "lon_deg": -75.186179800177783, "alt_km": 35787.235011792734, "speed_km_s": 3.0746379899549332, "footprint_central_angle_deg": 81.299768723742005, "footprint_radius_km": 9050.2488559378689, "elevation_mask_deg": 0.0, "agency_lead": "NOAA", "agencies": "NOAA", "program": "GOES-R", "mission_class": "geostationary meteorology", "agency_evidence_url": "https://www.nesdis.noaa.gov/our-satellites/currently-flying", "satcat_object_type": "PAY", "satcat_ops_status": "+", "satcat_owner": "US", "satcat_launch_date": "2024-06-25", "satcat_launch_site": "AFETR", "satcat_rcs_m2": null, "satcat_orbit_center": "EA", "satcat_orbit_type": "ORB" }, "geometry": { "type": "Point", "coordinates": [ -75.186179800177783, -0.01939848524268 ] } },
{ "type": "Feature", "properties": { "norad_cat_id": 66514, "object_id": "2025-264A", "object_name": "SENTINEL-6B", "element_epoch_utc": "2026-07-25T13:51:15.665760", "element_age_days": 0.6311, "inclination_deg": 66.041, "raan_deg": 55.4418, "eccentricity": 0.00078076, "arg_perigee_deg": 268.2267, "mean_anomaly_deg": 91.7854, "mean_motion_rev_day": 12.80930345, "bstar": 5.7493104e-05, "rev_at_epoch": 3208.0, "element_set_no": 999.0, "classification": "U", "period_min": 112.41829078535882, "apogee_alt_km": 1342.3173116986604, "perigee_alt_km": 1330.2710762237052, "orbit_class": "LEO", "lat_deg": 27.133379650188051, "lon_deg": 48.318232878149317, "alt_km": 1343.2642178912042, "speed_km_s": 7.1874623518863796, "footprint_central_angle_deg": 34.306575135600411, "footprint_radius_km": 3818.9904749562179, "elevation_mask_deg": 0.0, "agency_lead": "NOAA", "agencies": "NOAA;NASA", "program": "Sentinel-6", "mission_class": "ocean altimetry", "agency_evidence_url": "https://www.nesdis.noaa.gov/our-satellites/currently-flying", "satcat_object_type": "PAY", "satcat_ops_status": "+", "satcat_owner": "ESA", "satcat_launch_date": "2025-11-17", "satcat_launch_site": "AFWTR", "satcat_rcs_m2": null, "satcat_orbit_center": "EA", "satcat_orbit_type": "ORB" }, "geometry": { "type": "Point", "coordinates": [ 48.318232878149317, 27.133379650188051 ] } }
]
}
