{
"type": "FeatureCollection",
"name": "agency_noaa_ground_tracks",
"crs": { "type": "name", "properties": { "name": "urn:ogc:def:crs:OGC:1.3:CRS84" } },
"features": [
{ "type": "Feature", "properties": { "norad_cat_id": 28054, "object_name": "DMSP 5D-3 F16 (USA 172)", "orbit_class": "LEO", "agency_lead": "NOAA", "program": "DMSP", "period_min": 101.80382053831634, "n_samples": 60 }, "geometry": { "type": "MultiLineString", "coordinates": [ [ [ -157.075257106501624, 46.24461001679061 ], [ -159.74283231573699, 52.179300272248767 ], [ -163.094137887196553, 58.052156876577449 ], [ -167.582036873205112, 63.82596893772525 ], [ -174.121427603709549, 69.422837441133581 ], [ -180.0, 72.313723103202335 ] ], [ [ 180.0, 72.313723103202335 ], [ 175.239354107188376, 74.654849830228812 ], [ 155.772448988766797, 78.996821097036147 ], [ 121.654676001846354, 81.050825846076933 ], [ 86.113553858618502, 79.395020917251074 ], [ 65.137745373228427, 75.228239234991506 ], [ 53.783192856799019, 70.065909101059518 ], [ 46.903918948045032, 64.50350997128335 ], [ 42.236943144522456, 58.7514382558306 ], [ 38.782180508761826, 52.895308261856023 ], [ 36.050526781492863, 46.975347377417798 ], [ 33.778515365505143, 41.012858849459846 ], [ 31.8122587382706, 35.020370293529709 ], [ 30.055523431410847, 29.006022737312176 ], [ 28.444382563357635, 22.975655097092307 ], [ 26.933860210286582, 16.933864701239944 ], [ 25.490387860709689, 10.884572317554877 ], [ 24.087228091145846, 4.831331449669478 ], [ 22.701455511727886, -1.222498704727098 ], [ 21.311725280648545, -7.273650356296208 ], [ 19.896350357452604, -13.318871535623069 ], [ 18.431314216442502, -19.354843595398915 ], [ 16.88782431061054, -25.378055960193002 ], [ 15.2288519427197, -31.384589535894658 ], [ 13.403718517349944, -37.36972881623651 ], [ 11.338941160936486, -43.327252368681698 ], [ 8.921645086006947, -49.248089373966813 ], [ 5.967294992772906, -55.117631353671612 ], [ 2.151735244975612, -60.909915749077278 ], [ -3.145457938404945, -66.573676206648813 ], [ -11.236935276119482, -71.994300605915342 ], [ -25.155601705841093, -76.874911551855362 ], [ -51.09066980340674, -80.364478881725702 ], [ -88.90535146795969, -80.733455075831543 ], [ -117.829008978964566, -77.697036914526876 ], [ -133.490071148129573, -72.987527177175664 ], [ -142.387212404644174, -67.63423834157696 ], [ -148.088299020658724, -61.99978259871731 ], [ -152.1280181574989, -56.220271924147276 ], [ -155.21745943463452, -50.355018795210327 ], [ -157.721392818428058, -44.4334536783633 ], [ -159.844320790436768, -38.471870576429474 ], [ -161.709729767879708, -32.480251276158924 ], [ -163.397102064741716, -26.465363161638191 ], [ -164.960668612405357, -20.432286248937615 ], [ -166.439623648670477, -14.38521145826331 ], [ -167.86408442374011, -8.327873546118916 ], [ -169.258842846789321, -2.263790634788452 ], [ -170.64596353179445, 3.803599960226404 ], [ -172.046837380799957, 9.870856515377541 ], [ -173.484106428731252, 15.934460579108453 ], [ -174.98383263348012, 21.990723179923776 ], [ -176.578366576298436, 28.035628475204767 ], [ -178.310626137880263, 34.064553179102546 ], [ -180.0, 39.321593441915319 ] ] ] } },
{ "type": "Feature", "properties": { "norad_cat_id": 29522, "object_name": "DMSP 5D-3 F17 (USA 191)", "orbit_class": "LEO", "agency_lead": "NOAA", "program": "DMSP", "period_min": 101.76698590058481, "n_samples": 60 }, "geometry": { "type": "MultiLineString", "coordinates": [ [ [ -171.137626323262765, 30.704196068188008 ], [ -172.908700720111938, 36.72201647921203 ], [ -174.905963242108726, 42.714778550915184 ], [ -177.235731149052185, 48.673857145394912 ], [ -180.0, 54.437030060611967 ] ], [ [ 180.0, 54.437030060611967 ], [ 179.928713795782414, 54.585653347104 ], [ 176.283826976177437, 60.426372928403339 ], [ 171.249713916949077, 66.1495325821666 ], [ 163.597567644032694, 71.651892148248535 ], [ 150.445391449228822, 76.665790118431715 ], [ 125.462244759730169, 80.402208873922106 ], [ 86.85050181454227, 81.084072874778983 ], [ 56.233155869628774, 78.172478594093448 ], [ 39.904966080707709, 73.467054610511198 ], [ 30.815494646471734, 68.092565394215043 ], [ 25.06900612692823, 62.434835804022526 ], [ 21.031544212609447, 56.634651889208996 ], [ 17.960777008120147, 50.752221867388627 ], [ 15.481135650308829, 44.81705745231762 ], [ 13.384163953092639, 38.845359528454658 ], [ 11.544952542353656, 32.846985720630599 ], [ 9.883608722239501, 26.82857435853148 ], [ 8.345927380393107, 20.795069399463735 ], [ 6.892947425237026, 14.750510918099721 ], [ 5.494903545687293, 8.698460371118312 ], [ 4.127451325776178, 2.642233749744548 ], [ 2.769079814950203, -3.414967902867741 ], [ 1.399094953188637, -9.469978335629255 ], [ -0.004239041907852, -15.519599913740359 ], [ -1.465759600529566, -21.560519187087142 ], [ -3.016095774013365, -27.589166703859771 ], [ -4.695640079841326, -33.601465894075091 ], [ -6.560974573074361, -39.592374986289933 ], [ -8.696054342222112, -45.555033825652508 ], [ -11.233077386442119, -51.479109954046763 ], [ -14.394459692282339, -57.347383288720735 ], [ -18.584822656134236, -63.128043345012614 ], [ -24.613261457869498, -68.755189183038709 ], [ -34.282219951365789, -74.07193193271651 ], [ -51.883236627156521, -78.641023658601441 ], [ -84.333774762205621, -81.212850307071974 ], [ -122.117471328653096, -80.088367908316926 ], [ -145.315878559177236, -76.138031150393786 ], [ -157.591351115994598, -71.050695461440554 ], [ -164.844241741373366, -65.52158542589828 ], [ -169.676280407779132, -59.788342924722095 ], [ -173.207876954492576, -53.944374034754617 ], [ -175.974699734220621, -48.032391993645689 ], [ -178.260274594665816, -42.074526365557617 ], [ -180.0, -36.777553071225249 ] ] ] } },
{ "type": "Feature", "properties": { "norad_cat_id": 35951, "object_name": "DMSP 5D-3 F18 (USA 210)", "orbit_class": "LEO", "agency_lead": "NOAA", "program": "DMSP", "period_min": 101.77275782990144, "n_samples": 60 }, "geometry": { "type": "MultiLineString", "coordinates": [ [ [ -8.603487200419712, 15.084336997828675 ], [ -10.025629270099341, 9.014570919497048 ], [ -11.41492456278244, 2.942012158838454 ], [ -12.79356101339477, -3.129817673310925 ], [ -14.182753750191283, -9.197467205147992 ], [ -15.604654465330453, -15.257486407221295 ], [ -17.084440775973071, -21.306340001397036 ], [ -18.653016920615812, -27.340264612787525 ], [ -20.3509720851821, -33.355013808575556 ], [ -22.234948368190125, -39.345394731017898 ], [ -24.388665831326104, -45.304408926635624 ], [ -26.943382888302995, -51.221595797517615 ], [ -30.11876572447315, -57.079634583125618 ], [ -34.311657897533486, -62.846746249340811 ], [ -40.307938940256747, -68.457682936636388 ], [ -49.834122783046382, -73.75918308249878 ], [ -66.929856734820461, -78.332570285742889 ], [ -98.187783191450166, -81.000769782787472 ], [ -135.626653332974428, -80.088670681788614 ], [ -159.473034198372432, -76.293972880600009 ], [ -172.223089785051371, -71.29407259511288 ], [ -179.748784512918292, -65.822661088636906 ], [ -180.0, -65.536720762761561 ] ], [ [ 180.0, -65.536720762761561 ], [ 175.253706021614335, -60.13435937714231 ], [ 171.613556863619863, -54.329198255203231 ], [ 168.770559918570257, -48.452669028990201 ], [ 166.428562490978919, -42.528122579497754 ], [ 164.417263072742145, -36.568852382360383 ], [ 162.631581447552747, -30.58320728172248 ], [ 161.002566490459969, -24.576982352618526 ], [ 159.482297466428832, -18.554624178871574 ], [ 158.035477307872611, -12.519871071825062 ], [ 156.634411898429647, -6.476104159019822 ], [ 155.255763444781934, -0.426543794548619 ], [ 153.878217156936159, 5.625636076854637 ], [ 152.480543004346259, 11.677230467043836 ], [ 151.039674221828108, 17.724928411628667 ], [ 149.528423170163649, 23.76520644654747 ], [ 147.912336413244276, 29.794146421345562 ], [ 146.14486600241284, 35.807107674848083 ], [ 144.159323175694823, 41.798125423879199 ], [ 141.8544968595873, 47.758774576049973 ], [ 139.067064421185563, 53.675916637969173 ], [ 135.51437393218589, 59.526897663091439 ], [ 130.664653489397551, 65.268264698487584 ], [ 123.412599361579424, 70.805727786063429 ], [ 111.216293020980686, 75.901878253243041 ], [ 88.38115223033401, 79.872030644555522 ], [ 51.242382963418152, 81.064878844065646 ], [ 18.759254720202364, 78.573756570178972 ], [ 0.880335160817594, 74.036766490826651 ], [ -8.977588781664792, 68.721567266507293 ], [ -15.123848633692489, 63.081877624684957 ], [ -19.392435568030692, 57.281728942509552 ], [ -22.609663294615927, 51.390319771955156 ], [ -25.189166635616573, 45.441239855308709 ], [ -27.358336535122135, 39.452829730711514 ], [ -29.252301663246612, 33.436225781237169 ], [ -30.956858256067392, 27.398923934942296 ], [ -32.529819666847118, 21.346501940043719 ], [ -34.012458457095988, 15.283504863230021 ] ] ] } },
{ "type": "Feature", "properties": { "norad_cat_id": 37849, "object_name": "SUOMI NPP", "orbit_class": "LEO", "agency_lead": "NOAA", "program": "JPSS", "period_min": 101.44243034647485, "n_samples": 60 }, "geometry": { "type": "MultiLineString", "coordinates": [ [ [ -46.777911567563322, 26.038079797010464 ], [ -48.31010307162417, 19.992505999577038 ], [ -49.761080525763418, 13.936806666907534 ], [ -51.160031673171915, 7.874678290019202 ], [ -52.531046044141938, 1.809578189229866 ], [ -53.895631524572053, -4.255153114874928 ], [ -55.274711792064906, -10.316215214807343 ], [ -56.690511377470152, -16.370280732055072 ], [ -58.168691959483169, -22.413904794980986 ], [ -59.741194167513733, -28.443371408348035 ], [ -61.450489527957529, -34.454416905752971 ], [ -63.356527498069546, -40.441724565429645 ], [ -65.54893737600203, -46.397980104848152 ], [ -68.170003195916621, -52.312029135479278 ], [ -71.46133824513106, -58.165035941547252 ], [ -75.867315563837991, -63.921708118466583 ], [ -82.287759137629607, -69.507721673865632 ], [ -92.749294069205533, -74.742725527508753 ], [ -112.011321888129729, -79.117173295603351 ], [ -146.323756874601003, -81.238650037721584 ], [ -180.0, -79.733569606985611 ] ], [ [ 180.0, -79.733569606985611 ], [ 177.496619915683283, -79.621686925726621 ], [ 156.295352240242238, -75.463564836583785 ], [ 144.928954121631591, -70.310887077242995 ], [ 138.081725469640958, -64.762277180060451 ], [ 133.451560510051365, -59.026084308276218 ], [ 130.030768832188045, -53.186200109352207 ], [ 127.329384345233024, -47.28169360998649 ], [ 125.084478396501282, -41.333070941405495 ], [ 123.142891243484428, -35.352282344404685 ], [ 121.409044096511366, -29.347034053030974 ], [ 119.819556186041183, -23.322832321148436 ], [ 118.329909620301521, -17.28402276999822 ], [ 116.906933708711307, -11.234344049330169 ], [ 115.524255461944108, -5.177230397289192 ], [ 114.159306190440589, 0.884020485074492 ], [ 112.791114592156958, 6.946149788138947 ], [ 111.398412259000111, 13.005868636828135 ], [ 109.957679515557686, 19.0597845470657 ], [ 108.44074569418629, 25.104288435730687 ], [ 106.811396771749514, 31.135355033472965 ], [ 105.02006318013261, 37.148179342642898 ], [ 102.994827913049505, 43.136503995004546 ], [ 100.625098088468235, 49.091335903831407 ], [ 97.729744279633962, 54.998364306390592 ], [ 93.989682889419328, 60.832347209692543 ], [ 88.791295248437109, 66.543567734178438 ], [ 80.825174308875035, 72.020545946500704 ], [ 67.013346775279047, 76.971336813250659 ], [ 40.836099245053617, 80.537749536230166 ], [ 2.085860499603712, 80.913789004962041 ], [ -27.190105119586633, 77.800784736441173 ], [ -42.746894663418857, 73.018108186753551 ], [ -51.505019337380645, 67.608541288183034 ], [ -57.096896928718138, 61.929062897546736 ], [ -61.054222866075804, 56.111939881975083 ], [ -64.080014793319265, 50.214552101931588 ], [ -66.533081709671478, 44.26538643940615 ], [ -68.613986027700776, 38.280283678809717 ], [ -70.44360984396684, 32.269019074859841 ], [ -72.099666002078607, 26.238275813004638 ] ] ] } },
{ "type": "Feature", "properties": { "norad_cat_id": 41240, "object_name": "JASON-3", "orbit_class": "LEO", "agency_lead": "NOAA", "program": "Jason", "period_min": 111.8334514856337, "n_samples": 60 }, "geometry": { "type": "MultiLineString", "coordinates": [ [ [ -180.0, 11.947587179661214 ], [ -179.614771241611521, 10.949597576711708 ], [ -177.561161144367247, 5.355572015251965 ], [ -175.553171356488576, -0.249729700561117 ], [ -173.543120144329379, -5.854413745090185 ], [ -171.483184355214433, -11.44655637820923 ], [ -169.322049449277131, -17.013458633648334 ], [ -167.001109810683914, -22.540770879051657 ], [ -164.449714772361972, -28.011333196122965 ], [ -161.578812759328116, -33.403512057451287 ], [ -158.27215443285337, -38.688694277878589 ], [ -154.374097781205052, -43.827398889822703 ], [ -149.673482622712726, -48.763165174541591 ], [ -143.885528572798563, -53.413033560891336 ], [ -136.642479855783989, -57.653507777265034 ], [ -127.527502770023716, -61.303122174605491 ], [ -116.228764007431494, -64.111662399631982 ], [ -102.887728993617827, -65.785550981379416 ], [ -88.459902363813399, -66.085885005862494 ], [ -74.50080811361056, -64.963285662949218 ] ], [ [ -46.222916271067696, -64.95284440673899 ], [ -34.027116152804531, -62.574818173790334 ], [ -24.037198906676565, -59.236682230701156 ], [ -16.075280222305093, -55.213095993937308 ], [ -9.738641045690496, -50.713587786442169 ], [ -4.630675302459225, -45.883338400748279 ], [ -0.432372518408927, -40.819986483265936 ], [ 3.095564137211182, -35.589483431003679 ], [ 6.129417939534673, -30.23737894202489 ], [ 8.799917041038109, -24.796174104956215 ], [ 11.206045408406144, -19.290000552421301 ], [ 13.425123183089346, -13.73761400804708 ], [ 15.520051835661672, -8.154353454086793 ], [ 17.544637367732616, -2.553475739152154 ], [ 19.54771415316835, 3.05287367175446 ], [ 21.57662463031037, 8.652878045495699 ], [ 23.680507947685985, 14.234321622671338 ], [ 25.913819183839205, 19.783795708464478 ], [ 28.340538737618566, 25.285702854610008 ], [ 31.039640251035014, 30.720877527585625 ], [ 34.112559202259284, 36.064551808395755 ], [ 37.693587442923217, 41.283238095130208 ], [ 41.964064995366854, 46.329849461875277 ], [ 47.170087834858435, 51.136035117580498 ], [ 53.638599776867267, 55.600467192540528 ], [ 61.771739690647941, 59.572611204539221 ], [ 71.964828581951721, 62.836352070731692 ], [ 84.356607540852579, 65.112277545913344 ], [ 98.420884653150381, 66.116997451872535 ], [ 112.817331235956587, 65.692675457447407 ], [ 126.010764704482554, 63.908812266055314 ], [ 137.119270109318137, 61.014885968885416 ], [ 146.058072749438054, 57.303719984707598 ], [ 153.159480480042447, 53.019975829405773 ], [ 158.840121637434493, 48.339569438576426 ], [ 163.461135371140358, 43.381889718889553 ], [ 167.300426934211401, 38.22715912586807 ], [ 170.563698696195928, 32.930078314316852 ], [ 173.402636010764695, 27.5290052380087 ], [ 175.930724720817551, 22.051835304893149 ], [ 178.235126004656166, 16.519742968956972 ], [ 180.0, 11.947587179661214 ] ] ] } },
{ "type": "Feature", "properties": { "norad_cat_id": 41866, "object_name": "GOES 16", "orbit_class": "GEO", "agency_lead": "NOAA", "program": "GOES-R", "period_min": 1436.0939680163922, "n_samples": 60 }, "geometry": { "type": "LineString", "coordinates": [ [ -104.689737655232406, -0.081783418794882 ], [ -104.690400156544229, -0.128432915478433 ], [ -104.6911306815107, -0.173642475008911 ], [ -104.691915466584746, -0.216899805801309 ], [ -104.692741758199162, -0.257714587406729 ], [ -104.693596800876122, -0.29562401880881 ], [ -104.694469449253972, -0.330198057016724 ], [ -104.695349027157192, -0.361044287042035 ], [ -104.696226630507752, -0.387812368406018 ], [ -104.697094683361584, -0.410198007997108 ], [ -104.69794640992113, -0.427946414341509 ], [ -104.698776922019277, -0.440855194105357 ], [ -104.699581726855612, -0.44877665786698 ], [ -104.700357874139101, -0.451619508809427 ], [ -104.701102373175019, -0.449349894915704 ], [ -104.701813284675879, -0.441991812422277 ], [ -104.702488114487707, -0.429626855615807 ], [ -104.703124906682319, -0.412393315455841 ], [ -104.703720671864616, -0.39048463688271 ], [ -104.704272549459574, -0.364147251935811 ], [ -104.704776327645007, -0.333677812875593 ], [ -104.705227714190627, -0.299419856289362 ], [ -104.70562098825296, -0.261759935588454 ], [ -104.70595040366149, -0.221123265300448 ], [ -104.70620898098116, -0.177968926060475 ], [ -104.706389879219927, -0.132784684153266 ], [ -104.706486148173568, -0.086081483802932 ], [ -104.706490515313547, -0.038387674108804 ], [ -104.706396909000816, 0.00975696445234 ], [ -104.706199451854957, 0.057807326722996 ], [ -104.705894166729578, 0.105219153942218 ], [ -104.705477963381512, 0.151455199549144 ], [ -104.70495028516379, 0.195991319982212 ], [ -104.704312025548859, 0.238322421433687 ], [ -104.703567058665783, 0.277968194976525 ], [ -104.702721018697474, 0.314478574699776 ], [ -104.701782677817022, 0.347438856456845 ], [ -104.700762552631076, 0.376474418530709 ], [ -104.699674105817095, 0.401254989909193 ], [ -104.698532175121485, 0.421498416927698 ], [ -104.697354009265354, 0.436973884695077 ], [ -104.696157546755984, 0.447504555933389 ], [ -104.694962319774447, 0.452969596552644 ], [ -104.693787631578331, 0.453305564368467 ], [ -104.692653220778979, 0.448507144764383 ], [ -104.691578253083492, 0.438627224704894 ], [ -104.690580309543421, 0.423776304219463 ], [ -104.689676089586314, 0.404121252197605 ], [ -104.688879651215572, 0.379883420957911 ], [ -104.688203391192673, 0.351336141478605 ], [ -104.687656418719683, 0.318801628307937 ], [ -104.687245702298398, 0.28264732992113 ], [ -104.686974625342799, 0.243281766576168 ], [ -104.686844319122287, 0.201149903473798 ], [ -104.686852404261828, 0.156728112187593 ], [ -104.686994505855338, 0.1105187778491 ], [ -104.687263168174994, 0.063044613412261 ], [ -104.687649517757535, 0.01484274545122 ], [ -104.688142289280549, -0.033541361653786 ], [ -104.688729588918093, -0.081560074629344 ] ] } },
{ "type": "Feature", "properties": { "norad_cat_id": 43013, "object_name": "NOAA 20 (JPSS-1)", "orbit_class": "LEO", "agency_lead": "NOAA", "program": "JPSS", "period_min": 101.44288234733757, "n_samples": 60 }, "geometry": { "type": "MultiLineString", "coordinates": [ [ [ 66.13138032936655, 80.066861569217451 ], [ 28.34112063817896, 81.169605796130284 ], [ -3.987706686378431, 78.57377845764708 ], [ -21.52251139604622, 73.98547523159769 ], [ -31.16707362774504, 68.650369616386769 ], [ -37.186226862193799, 63.004664405761297 ], [ -41.373023442760648, 57.205283297763927 ], [ -44.533303007230579, 51.318360544748657 ], [ -47.070435028594467, 45.375967887547205 ], [ -49.206310657319982, 39.395583626960601 ], [ -51.072898580513183, 33.38778973624126 ], [ -52.754059445682998, 27.359685312939838 ], [ -54.306350742977429, 21.316538405498598 ], [ -55.770181785676911, 15.262636411529432 ], [ -57.176228887822703, 9.201740976853662 ], [ -58.549405691234135, 3.137335972391658 ], [ -59.911556745375975, -2.927234948889821 ], [ -61.283525603118008, -8.988685579537387 ], [ -62.687029768203352, -15.043721205394053 ], [ -64.146703855084482, -21.088956712170241 ], [ -65.692729115349223, -27.120781649058756 ], [ -67.364682289029432, -33.135118754189136 ], [ -69.217713354571586, -39.126984054594324 ], [ -71.333230377595086, -45.089670202487241 ], [ -73.838705139751639, -51.013171663232256 ], [ -76.947211898277814, -56.880956487586523 ], [ -81.043300885186824, -62.662755359761086 ], [ -86.888313847890473, -68.296532446216688 ], [ -96.159028415773449, -73.636678479579189 ], [ -112.831279268971429, -78.283721349014144 ], [ -143.819325927311979, -81.087193932411296 ], [ -180.0, -80.336373692563058 ] ], [ [ 180.0, -80.336373692563058 ], [ 177.991013056300062, -80.294683257058992 ], [ 153.529081048006475, -76.525958624107474 ], [ 140.585794279716879, -71.517584116422725 ], [ 133.011847867190056, -66.031128329776138 ], [ 128.009727060051148, -60.326842806266164 ], [ 124.378821568941987, -54.505788887130301 ], [ 121.549451479845999, -48.613615081312346 ], [ 119.222210397030892, -42.673682103877162 ], [ 117.225656684863765, -36.699293898271897 ], [ 115.454351213759054, -30.698836351238974 ], [ 113.839290251866061, -24.678167022985271 ], [ 112.332625267309822, -18.641813814248181 ], [ 110.899184152957616, -12.593608057464497 ], [ 109.511423658201892, -6.537028925024297 ], [ 108.146176338578442, -0.475393632544158 ], [ 106.782319205894055, 5.588034091960039 ], [ 105.398844917064537, 11.649972344081252 ], [ 103.972956012307179, 17.707052081386585 ], [ 102.477805107728557, 23.755717245278049 ], [ 100.879387964772036, 29.792050804441285 ], [ 99.131774348905878, 35.811458482672208 ], [ 97.169163508555982, 41.8080854305393 ], [ 94.891673259179925, 47.773712039990897 ], [ 92.138056312540755, 53.695561765994697 ], [ 88.629029751660937, 59.551624253130534 ], [ 83.83837794880327, 65.299648923141518 ], [ 76.669098861795305, 70.847755861941977 ], [ 64.581584961469389, 75.963546668700971 ], [ 41.789414414494615, 79.96959867021188 ] ] ] } },
{ "type": "Feature", "properties": { "norad_cat_id": 43226, "object_name": "GOES 17", "orbit_class": "GEO", "agency_lead": "NOAA", "program": "GOES-R", "period_min": 1436.0996681891718, "n_samples": 60 }, "geometry": { "type": "LineString", "coordinates": [ [ -89.495694167671715, -0.445550321949522 ], [ -89.497094468114938, -0.544692981514416 ], [ -89.498354751512565, -0.637680319152112 ], [ -89.499447592634283, -0.723458514763795 ], [ -89.50035526910078, -0.801055134007842 ], [ -89.501068883852824, -0.869590151692095 ], [ -89.501589740968384, -0.928285942498625 ], [ -89.501927766432019, -0.976476123533947 ], [ -89.502101179836373, -1.013613145300463 ], [ -89.502135804363903, -1.039274541322489 ], [ -89.502062371143055, -1.053167761721464 ], [ -89.50191609491165, -1.055133532349591 ], [ -89.501733411691333, -1.045147698432558 ], [ -89.501551326057907, -1.023321529764111 ], [ -89.501404095205189, -0.989900483024833 ], [ -89.501322719130044, -0.945261435428576 ], [ -89.501332117174201, -0.889908422295039 ], [ -89.501450262854902, -0.824466928969204 ], [ -89.501687665159679, -0.749676804474342 ], [ -89.502045568313136, -0.66638388012325 ], [ -89.502517092274971, -0.575530390827534 ], [ -89.503086123007876, -0.478144309887988 ], [ -89.503729313570147, -0.375327719529978 ], [ -89.504415800681187, -0.268244349328419 ], [ -89.505109945336002, -0.158106422951726 ], [ -89.505771687331091, -0.046160960377315 ], [ -89.506359781260059, 0.066324312055901 ], [ -89.506832642570373, 0.178075287636972 ], [ -89.507150903288434, 0.287825882851484 ], [ -89.507279892635125, 0.39433235911517 ], [ -89.507190297322609, 0.496387403700166 ], [ -89.506861085076835, 0.592833812746102 ], [ -89.506279428894857, 0.6825776225892 ], [ -89.505442945513806, 0.764600540530954 ], [ -89.504358808542477, 0.837971532678702 ], [ -89.503045124801915, 0.901857434691524 ], [ -89.501529316976402, 0.955532461199381 ], [ -89.499847757225524, 0.998386501338085 ], [ -89.49804499862509, 1.029932101212929 ], [ -89.496170970529235, 1.049810049066582 ], [ -89.494280418856761, 1.05779349531588 ], [ -89.492429457913616, 1.053790557207844 ], [ -89.490674696735894, 1.037845376342883 ], [ -89.489069678758597, 1.010137616392047 ], [ -89.487664086077487, 0.97098040763568 ], [ -89.486500605868031, 0.920816764102134 ], [ -89.485613747670186, 0.860214517725012 ], [ -89.485028994326157, 0.789859831719794 ], [ -89.484760668554472, 0.710549372032763 ], [ -89.484812770726165, 0.623181230969088 ], [ -89.48517757269461, 0.528744710808773 ], [ -89.485837371290899, 0.428309087245893 ], [ -89.486763992087191, 0.323011482791039 ], [ -89.487921381441694, 0.214043988862181 ], [ -89.489266028464385, 0.10264018220009 ], [ -89.490749335468394, -0.009938813446646 ], [ -89.492320183183296, -0.122418565630775 ], [ -89.493925919756521, -0.233525714419903 ], [ -89.495515864110402, -0.342002338441935 ], [ -89.497042038331472, -0.446620148039222 ] ] } },
{ "type": "Feature", "properties": { "norad_cat_id": 46984, "object_name": "SENTINEL-6A", "orbit_class": "LEO", "agency_lead": "NOAA", "program": "Sentinel-6", "period_min": 112.41829210180386, "n_samples": 60 }, "geometry": { "type": "MultiLineString", "coordinates": [ [ [ -180.0, 46.146896113954732 ], [ -179.209845084945073, 45.379366228164969 ], [ -175.090195178122713, 40.295013067075992 ], [ -171.620944656653705, 35.048964697344289 ], [ -168.631014717933198, 29.685229167695425 ], [ -165.993353939546637, 24.235323468674469 ], [ -163.611512008461006, 18.722749419240472 ], [ -161.40987962813486, 13.165861183474432 ], [ -159.326667154962394, 7.579747624834422 ], [ -157.308728390905145, 1.977521180305273 ], [ -155.307522749007546, -3.628736740762369 ], [ -153.275672100077088, -9.227203840563067 ], [ -151.163668325846771, -14.805587705651094 ], [ -148.916307755515021, -20.350317967655805 ], [ -146.468383889888486, -25.845521093073483 ], [ -143.739058818345882, -31.27158959305763 ], [ -140.624150993781342, -36.603062217475774 ], [ -136.985401889209072, -41.805367093599614 ], [ -132.635900132089176, -46.829718396642626 ], [ -127.322195753048618, -51.605110449328421 ], [ -120.709137888055693, -56.026154510769771 ], [ -112.390002596633281, -59.936520740351142 ], [ -101.980941370483606, -63.113277235342672 ], [ -89.390956238077479, -65.272964741626723 ], [ -75.230798114502363, -66.138518983835084 ], [ -60.899010722032585, -65.572276341367029 ], [ -47.89516003118689, -63.666276837929196 ], [ -37.013971386602066, -60.68015530010166 ], [ -28.279595941938112, -56.904360691334333 ], [ -21.340448473134359, -52.576566180416194 ], [ -15.782231964865673, -47.86618082055756 ], [ -11.252147137927352, -42.887892305073308 ], [ -7.480353623134533, -37.718816119281428 ], [ -4.267392928290519, -32.411655236205597 ], [ -1.466050067705794, -27.003485963204216 ], [ 1.034061761745932, -21.521376251658047 ], [ 3.317995157770781, -15.985963880662357 ], [ 5.453740267107264, -10.413772672990659 ], [ 7.498223661490726, -4.818761357637154 ], [ 9.501842071595661, 0.786583361336188 ], [ 11.51214269296878, 6.390405617146521 ], [ 13.577137351054773, 11.980744843085912 ], [ 15.748677925650213, 17.544783209028061 ], [ 18.086325883948462, 23.067949556586569 ], [ 20.66223330570466, 28.532721102114959 ] ], [ [ 49.024419400189984, 28.564161674779225 ], [ 51.932116065693826, 33.947794906351156 ], [ 55.289719288053121, 39.221130636942199 ], [ 59.257888090092401, 44.34322570336851 ], [ 64.054717407082478, 49.255334268463301 ], [ 69.973711592208502, 53.870949300549917 ], [ 77.390896395068808, 58.061262796293384 ], [ 86.722793198831823, 61.637676603850345 ], [ 98.253970555368269, 64.342986079351292 ], [ 111.770568202615124, 65.883018207592443 ], [ 126.228278289319178, 66.032552926943154 ], [ 140.053456383337164, 64.766892034875454 ], [ 152.038010002170068, 62.278858279569377 ], [ 161.811838233518387, 58.859511488627668 ], [ 169.591918383337173, 54.778456285128769 ], [ 175.787798515214661, 50.238486842484257 ], [ 180.0, 46.146896113954732 ] ] ] } },
{ "type": "Feature", "properties": { "norad_cat_id": 51850, "object_name": "GOES 18", "orbit_class": "GEO", "agency_lead": "NOAA", "program": "GOES-R", "period_min": 1436.0924785314648, "n_samples": 60 }, "geometry": { "type": "LineString", "coordinates": [ [ -136.987604569388424, -0.000078526444219 ], [ -136.987649354468431, -0.003998904444947 ], [ -136.987768224858883, -0.007888565576047 ], [ -136.98795913589791, -0.011703614994609 ], [ -136.988219398222412, -0.015400844021195 ], [ -136.988545533709441, -0.018938219431456 ], [ -136.988933323106892, -0.022275361094981 ], [ -136.989377683381377, -0.025374002548076 ], [ -136.989873394693717, -0.028198429265456 ], [ -136.990414162517681, -0.030715889632756 ], [ -136.990993352130715, -0.032896973914748 ], [ -136.991603898389513, -0.034715956859958 ], [ -136.992238387969593, -0.036151099977307 ], [ -136.992888967188236, -0.037184909960115 ], [ -136.993548106766639, -0.037804350212652 ], [ -136.994207676984701, -0.038001002949281 ], [ -136.994859710784112, -0.037771179880436 ], [ -136.995496320875532, -0.037115980067717 ], [ -136.996109788206979, -0.036041294115921 ], [ -136.996692480251568, -0.03455775446664 ], [ -136.997237607008032, -0.032680632159878 ], [ -136.99773828880933, -0.03042968103028 ], [ -136.998188305604259, -0.027828930896654 ], [ -136.998581996454476, -0.024906431880849 ], [ -136.998914158102707, -0.021693952548491 ], [ -136.999180770265582, -0.018226635093213 ], [ -136.999378042380357, -0.014542611281933 ], [ -136.999503122118341, -0.010682583335658 ], [ -136.999553964280807, -0.006689374332936 ], [ -136.99952935390985, -0.002607453086446 ], [ -136.999428757258869, 0.00151756124708 ], [ -136.999252994629671, 0.005639409311242 ], [ -136.999003234039378, 0.009711710745113 ], [ -136.998681646548818, 0.01368848659781 ], [ -136.998291219090873, 0.017524679068958 ], [ -136.997835719225264, 0.021176662685987 ], [ -136.99731948942582, 0.024602741100874 ], [ -136.996748065136444, 0.027763623827458 ], [ -136.996127115394188, 0.030622877444763 ], [ -136.995463041269176, 0.033147346059908 ], [ -136.99476274072606, 0.035307536153459 ], [ -136.99403335823078, 0.037077961317086 ], [ -136.993282877959132, 0.038437442833864 ], [ -136.992519024867022, 0.039369362540636 ], [ -136.991749842397098, 0.03986186494405 ], [ -136.990983437212975, 0.039908006131116 ], [ -136.990227881738832, 0.039505847614578 ], [ -136.989490953242267, 0.038658493876779 ], [ -136.988780713961802, 0.037374073014703 ], [ -136.988104412582061, 0.035665660536907 ], [ -136.987469069038724, 0.033551147011961 ], [ -136.986881230750043, 0.031053050910392 ], [ -136.986346890116067, 0.02819827861023 ], [ -136.985871252786467, 0.025017834142885 ], [ -136.985459347194819, 0.021546481833981 ], [ -136.985114960187246, 0.017822365536269 ], [ -136.984841271920885, 0.013886588652575 ], [ -136.984640645855677, 0.00978275960002 ], [ -136.984514438389908, 0.005556507767491 ], [ -136.984463657534775, 0.001254975361804 ] ] } },
{ "type": "Feature", "properties": { "norad_cat_id": 54234, "object_name": "NOAA 21 (JPSS-2)", "orbit_class": "LEO", "agency_lead": "NOAA", "program": "JPSS", "period_min": 101.44113332288396, "n_samples": 60 }, "geometry": { "type": "MultiLineString", "coordinates": [ [ [ 163.939002992075757, -75.954149610874197 ], [ 152.011787834022442, -70.844960261725888 ], [ 144.925249489473686, -65.313695612032532 ], [ 140.182038576675751, -59.585873486622198 ], [ 136.703286623988106, -53.750654085268025 ], [ 133.970787158931557, -47.848970219484706 ], [ 131.70913437124733, -41.90206048204471 ], [ 129.759132880595757, -35.922178573882768 ], [ 128.022072080327263, -29.917154852634958 ], [ 126.432868064594174, -23.892540236656135 ], [ 124.946056987974885, -17.852689571295176 ], [ 123.527957366415734, -11.801336154764341 ], [ 122.151959148151349, -5.741904479000911 ], [ 120.79545234951533, 0.322317347260696 ], [ 119.437588110367415, 6.388078986030656 ], [ 118.057387442966089, 12.452100861887185 ], [ 116.631821214375051, 18.511005653151894 ], [ 115.133486617205008, 24.561214416158414 ], [ 113.527352914671525, 30.598762468673659 ], [ 111.765707176749999, 36.61896248253143 ], [ 109.779640850897138, 42.615780025060623 ], [ 107.463673984398795, 48.580643672633911 ], [ 104.64590468115712, 54.500060345752964 ], [ 101.025203887295788, 60.350461931940949 ], [ 96.026145565102667, 66.085869092767567 ], [ 88.428301600169547, 71.604222847718233 ], [ 75.361113319628387, 76.640702513538173 ], [ 50.455888446135233, 80.410948764783612 ], [ 11.68227134787333, 81.125029894811945 ], [ -19.14484955430882, 78.214273207422693 ], [ -35.528406508275921, 73.494961599655568 ], [ -44.62139317107745, 68.104430591036575 ], [ -50.360223353974106, 62.430710620473235 ], [ -54.388365423637865, 56.614875088215264 ], [ -57.450314526384354, 50.717183924601173 ], [ -59.922041144678893, 44.767205201760959 ], [ -62.011967741087538, 38.781225292644464 ], [ -63.844875818165555, 32.769209875719447 ], [ -65.500528317110081, 26.737918786764524 ], [ -67.033020604675372, 20.692423188506826 ], [ -68.481227400674868, 14.6368896944838 ], [ -69.874847561346996, 8.575000293412465 ], [ -71.238177595145714, 2.510180968986121 ], [ -72.592695944305291, -3.554271571451411 ], [ -73.959080634217287, -9.615112757352607 ], [ -75.359068376560231, -15.669086158886985 ], [ -76.817520939286254, -21.712840330620267 ], [ -78.365123265534493, -27.742788929152518 ], [ -80.042377361290704, -33.754858820600916 ], [ -81.906064948165593, -39.744029854153489 ], [ -84.040511188172871, -45.703477324278225 ], [ -86.578623891736768, -51.622908984998922 ], [ -89.744269801783815, -57.485128322561408 ], [ -93.945289966443127, -63.258272811687981 ], [ -99.998710946461543, -68.876123733017408 ], [ -109.728678524377784, -74.180492947928556 ], [ -127.483755940865166, -78.728961914136562 ], [ -160.186068715519184, -81.257849046631179 ], [ -180.0, -80.640147075861307 ] ], [ [ 180.0, -80.640147075861307 ], [ 162.092929115787257, -80.081891734350265 ], [ 139.098668694420581, -76.111406556540274 ] ] ] } },
{ "type": "Feature", "properties": { "norad_cat_id": 60133, "object_name": "GOES 19", "orbit_class": "GEO", "agency_lead": "NOAA", "program": "GOES-R", "period_min": 1436.1006707368017, "n_samples": 60 }, "geometry": { "type": "LineString", "coordinates": [ [ -75.186179800177783, -0.01939848524268 ], [ -75.186514638706981, -0.021617573059002 ], [ -75.186883713001293, -0.023606490903948 ], [ -75.187283463904592, -0.025341869676911 ], [ -75.187709490489937, -0.026803057456007 ], [ -75.188157271363679, -0.027972363710863 ], [ -75.188622046492441, -0.028835271618861 ], [ -75.189098872024218, -0.02938061596245 ], [ -75.189582672861576, -0.029600724456235 ], [ -75.19006830074153, -0.029491520749056 ], [ -75.190550590559738, -0.029052587764077 ], [ -75.19102425134318, -0.028287190474398 ], [ -75.191484593043882, -0.027202257658389 ], [ -75.191926573930374, -0.025808322632907 ], [ -75.192345530566385, -0.024119423418962 ], [ -75.192737057622551, -0.022152963248254 ], [ -75.193097059773905, -0.019929532765403 ], [ -75.193421795591817, -0.017472695714446 ], [ -75.193707922699133, -0.014808740314907 ], [ -75.193952532486108, -0.01196639892734 ], [ -75.194153185138035, -0.008976538976343 ], [ -75.194307774097183, -0.005871828436422 ], [ -75.194415210540271, -0.002686379488783 ], [ -75.194474441711733, 0.000544625778594 ], [ -75.194485133337324, 0.00378532353247 ], [ -75.194447500895095, 0.00699956594402 ], [ -75.194362313905245, 0.010151324121626 ], [ -75.194230888099227, 0.013205091738789 ], [ -75.194055068410862, 0.016126284836113 ], [ -75.193837211230786, 0.018881633293959 ], [ -75.193579992255167, 0.021439559540953 ], [ -75.193287045287917, 0.023770540182586 ], [ -75.192961914768773, 0.025847446402813 ], [ -75.192608691668156, 0.027645859208162 ], [ -75.192231792736365, 0.029144355846365 ], [ -75.191835914172586, 0.030324764037168 ], [ -75.191425976876729, 0.031172380998564 ], [ -75.191007069339349, 0.031676154633478 ], [ -75.190584388443568, 0.031828824655755 ], [ -75.190163178886465, 0.031627021875553 ], [ -75.189748505629026, 0.031071324327962 ], [ -75.189345866887891, 0.03016626940964 ], [ -75.188960122121159, 0.028920321681008 ], [ -75.188596107900281, 0.027345796490371 ], [ -75.188258414407173, 0.025458740075623 ], [ -75.18795133121003, 0.023278767293035 ], [ -75.187678801166982, 0.020828858605624 ], [ -75.187444371394193, 0.018135118429333 ], [ -75.187251154754676, 0.015226497379933 ], [ -75.187101628485507, 0.012134481380037 ], [ -75.186998272205102, 0.008892750970686 ], [ -75.186942542234746, 0.005536814520286 ], [ -75.186935521693087, 0.002103619331629 ], [ -75.186977743137945, -0.00136885508854 ], [ -75.187069185593614, -0.004842017116164 ], [ -75.187209272117201, -0.008277091804504 ], [ -75.187396881990097, -0.011635553623006 ], [ -75.187630362369546, -0.014879558314171 ], [ -75.187907550434232, -0.017972369033393 ], [ -75.188225628556069, -0.020878771981886 ] ] } },
{ "type": "Feature", "properties": { "norad_cat_id": 66514, "object_name": "SENTINEL-6B", "orbit_class": "LEO", "agency_lead": "NOAA", "program": "Sentinel-6", "period_min": 112.41829078535882, "n_samples": 60 }, "geometry": { "type": "MultiLineString", "coordinates": [ [ [ -180.0, 46.183350343205916 ], [ -176.103600561987491, 41.651452577190867 ], [ -172.481818412174619, 36.442946281237653 ], [ -169.379490789888735, 31.106591435945116 ], [ -166.659440249593672, 25.676677004855453 ], [ -164.218238673917881, 20.178486906197545 ], [ -161.975562483352377, 14.631518662987267 ], [ -159.866544899539207, 9.051579538261088 ], [ -157.836188810590443, 3.45220294802333 ], [ -155.835087971882757, -2.15433459845295 ], [ -153.815872390527772, -7.756209590205529 ], [ -151.729916966350288, -13.341322685711294 ], [ -149.523889536692678, -18.896523733046344 ], [ -147.135688228351057, -24.406659200987793 ], [ -144.489225684674466, -29.853270489370171 ], [ -141.487348834802674, -35.212690271977962 ], [ -138.001993136057422, -40.453140413597332 ], [ -133.860659021099593, -45.530200999891846 ], [ -128.829154907710659, -50.379687997810969 ], [ -122.594502067308611, -54.906687959386872 ], [ -114.764576156656915, -58.969999150617589 ], [ -104.932005395825684, -62.365069029969867 ], [ -92.890940444339662, -64.821057952974655 ], [ -79.033717917549268, -66.048138495695227 ], [ -64.587744583876599, -65.858614727099521 ], [ -51.121391086778601, -64.283753813277698 ], [ -39.654882998308153, -61.552300628740447 ], [ -30.382651547329715, -57.958079565576995 ], [ -23.013038967522903, -53.75625502019976 ], [ -17.129705026574811, -49.133398979508435 ], [ -12.359037574741365, -44.216824947270823 ], [ -8.409987915720933, -39.092044844309669 ], [ -5.066382925530888, -33.817161858560318 ], [ -2.168940303503859, -28.432704363289865 ], [ 0.401132201264431, -22.967953796894275 ], [ 2.734625216729455, -17.444969399190985 ], [ 4.903350331567935, -11.881178344437105 ], [ 6.966651814822171, -6.291090094737017 ], [ 8.976256634840297, -0.687486101546026 ], [ 10.98012886778389, 4.917688680325413 ], [ 13.025837276962193, 10.512574871576236 ], [ 15.16387252295084, 16.084662272837321 ], [ 17.45134210497946, 21.619945116924669 ], [ 19.956526737929721, 27.101821866692145 ] ], [ [ 48.318232878149317, 27.133379650188051 ], [ 51.128682316896878, 32.540594612827896 ], [ 54.354127970718061, 37.846208143961029 ], [ 58.143004434609928, 43.012786568625728 ], [ 62.696497097817343, 47.987071726897732 ], [ 68.28672757810088, 52.691084020519291 ], [ 75.268987117511372, 57.008818657392865 ], [ 84.058694962622241, 60.769008068776586 ], [ 95.003036957029437, 63.731877108695912 ], [ 108.062182890793324, 65.60595369829008 ], [ 122.417186534766188, 66.133907359591461 ], [ 136.556477265801988, 65.229649226191128 ], [ 149.095438854647284, 63.036619170751095 ], [ 159.446375695227687, 59.834057713293511 ], [ 167.714224368591402, 55.90464273821987 ], [ 174.286722294891234, 51.469608048850212 ], [ 179.569750219232674, 46.683773375112139 ], [ 180.0, 46.183350343205916 ] ] ] } }
]
}
