{
"type": "FeatureCollection",
"name": "agency_usgs_footprints",
"crs": { "type": "name", "properties": { "name": "urn:ogc:def:crs:OGC:1.3:CRS84" } },
"features": [
{ "type": "Feature", "properties": { "norad_cat_id": 39084, "object_name": "LANDSAT 8", "orbit_class": "LEO", "agency_lead": "USGS", "program": "Landsat", "alt_km": 717.86230509333586, "elevation_mask_deg": 0.0, "central_angle_deg": 25.994564526238854, "radius_km": 2893.7016864538023 }, "geometry": { "type": "Polygon", "coordinates": [ [ [ 71.369296302801416, -12.497791630807253 ], [ 73.611632216422649, -12.574836023421652 ], [ 75.844353779357007, -12.80551813962634 ], [ 78.057945836274058, -13.188493373334181 ], [ 80.243084461085417, -13.721548789218474 ], [ 82.390715174217391, -14.401643457338492 ], [ 84.492111626385324, -15.224961527844505 ], [ 86.53891026760013, -16.186975003507996 ], [ 88.523117883101733, -17.282512741304199 ], [ 90.437090191760973, -18.505832028610055 ], [ 92.273480810917007, -19.850689109089771 ], [ 94.025160677574135, -21.310405228882132 ], [ 95.685108410830779, -22.877925071664908 ], [ 97.246272084343488, -24.545864782580914 ], [ 98.7014024729217, -26.306547079051693 ], [ 100.042857100962479, -28.152021151477001 ], [ 101.262373439545456, -30.074065118387672 ], [ 102.350808495691311, -32.06416867799836 ], [ 103.29784098876415, -34.113493259385237 ], [ 104.091631592424747, -36.212806399070601 ], [ 104.71843679593249, -38.352386243635088 ], [ 105.162173591002585, -40.521891023642858 ], [ 105.403936762401685, -42.710187132047601 ], [ 105.42148031417679, -44.905128259730979 ], [ 105.188693204985412, -47.093277306469361 ], [ 104.675132903351042, -49.259563335146609 ], [ 103.845736767864196, -51.386869256352504 ], [ 102.660921660189672, -53.455555033001446 ], [ 101.077416190075638, -55.442940578865901 ], [ 99.050345386287631, -57.322808809010724 ], [ 96.537264905088165, -59.065049845846914 ], [ 93.504898605997852, -60.635654942550531 ], [ 89.939012661107526, -61.997368261940608 ], [ 85.856792049739454, -63.111362007381302 ], [ 81.319058070225893, -63.940207390496717 ], [ 76.437258067162915, -64.452046292745294 ], [ 71.369296302801416, -64.625226325625704 ], [ 66.301334538439917, -64.452046292745294 ], [ 61.41953453537694, -63.940207390496717 ], [ 56.881800555863379, -63.111362007381302 ], [ 52.799579944495306, -61.997368261940608 ], [ 49.233693999604981, -60.635654942550531 ], [ 46.201327700514668, -59.065049845846914 ], [ 43.688247219315201, -57.322808809010724 ], [ 41.661176415527194, -55.442940578865901 ], [ 40.077670945413161, -53.455555033001446 ], [ 38.89285583773863, -51.386869256352504 ], [ 38.063459702251791, -49.259563335146609 ], [ 37.54989940061742, -47.093277306469361 ], [ 37.317112291426035, -44.905128259730979 ], [ 37.334655843201141, -42.710187132047601 ], [ 37.576419014600241, -40.521891023642858 ], [ 38.020155809670342, -38.352386243635088 ], [ 38.646961013178085, -36.212806399070601 ], [ 39.440751616838682, -34.113493259385237 ], [ 40.387784109911522, -32.06416867799836 ], [ 41.476219166057376, -30.074065118387672 ], [ 42.695735504640353, -28.152021151477001 ], [ 44.037190132681125, -26.306547079051693 ], [ 45.492320521259344, -24.545864782580914 ], [ 47.053484194772054, -22.877925071664908 ], [ 48.713431928028697, -21.310405228882132 ], [ 50.465111794685825, -19.850689109089771 ], [ 52.301502413841867, -18.505832028610055 ], [ 54.215474722501099, -17.282512741304199 ], [ 56.199682338002695, -16.186975003507996 ], [ 58.246480979217516, -15.224961527844505 ], [ 60.347877431385442, -14.401643457338492 ], [ 62.495508144517416, -13.721548789218474 ], [ 64.680646769328774, -13.188493373334181 ], [ 66.894238826245825, -12.80551813962634 ], [ 69.126960389180184, -12.574836023421652 ], [ 71.369296302801416, -12.497791630807253 ] ] ] } },
{ "type": "Feature", "properties": { "norad_cat_id": 49260, "object_name": "LANDSAT 9", "orbit_class": "LEO", "agency_lead": "USGS", "program": "Landsat", "alt_km": 707.3305826774714, "elevation_mask_deg": 0.0, "central_angle_deg": 25.819361790785745, "radius_km": 2874.1982071575731 }, "geometry": { "type": "Polygon", "coordinates": [ [ [ -108.398515909104262, 63.612812763073791 ], [ -103.540584262321289, 63.444886737405156 ], [ -98.851348928647539, 62.948132326515527 ], [ -94.475488254885803, 62.142380635324855 ], [ -90.517711688416455, 61.057040372731699 ], [ -87.038313829635271, 59.727027270238146 ], [ -84.058276387908847, 58.188999037645672 ], [ -81.569279406833672, 56.478569183421435 ], [ -79.544373059575989, 54.62864120199302 ], [ -77.946861992842514, 52.668671578682655 ], [ -76.736632556006469, 50.624561687489056 ], [ -75.874131814945656, 48.518907298664814 ], [ -75.322568491003707, 46.371411319809255 ], [ -75.048918739129604, 44.199340255911153 ], [ -75.024198249957678, 42.01796014825365 ], [ -75.223321320158306, 39.840922824592127 ], [ -75.624751573915873, 37.680593196728651 ], [ -76.210066586486477, 35.548318461367842 ], [ -76.96350485406893, 33.454644464801603 ], [ -77.871530469825899, 31.409485825602555 ], [ -78.92243153852047, 29.422256243405734 ], [ -80.105957689907939, 27.50196463165118 ], [ -81.41299662078697, 25.657281759241979 ], [ -82.835287241022399, 23.896581199255014 ], [ -84.36516638740278, 22.227957666193266 ], [ -85.995346393923029, 20.659225316201525 ], [ -87.718721577914494, 19.197898293251125 ], [ -89.528202612344359, 17.851155716015153 ], [ -91.416578603512676, 16.625793389621695 ], [ -93.376407337694715, 15.528164756761845 ], [ -95.399934496202093, 14.564113925193778 ], [ -97.479042595789096, 13.738903963916586 ], [ -99.60522995827948, 13.057143980129702 ], [ -101.769619163779879, 12.522718702382551 ], [ -103.962993262440747, 12.13872433582902 ], [ -106.175856629495627, 11.907414271666701 ], [ -108.398515909104262, 11.830157797390417 ], [ -110.621175188712897, 11.907414271666701 ], [ -112.834038555767776, 12.13872433582902 ], [ -115.027412654428645, 12.522718702382551 ], [ -117.191801859929043, 13.057143980129702 ], [ -119.317989222419428, 13.738903963916586 ], [ -121.397097322006431, 14.564113925193778 ], [ -123.420624480513808, 15.528164756761845 ], [ -125.380453214695848, 16.625793389621695 ], [ -127.268829205864165, 17.851155716015153 ], [ -129.07831024029403, 19.197898293251125 ], [ -130.801685424285495, 20.659225316201525 ], [ -132.431865430805743, 22.227957666193266 ], [ -133.961744577186124, 23.896581199255014 ], [ -135.384035197421554, 25.657281759241979 ], [ -136.691074128300585, 27.50196463165118 ], [ -137.874600279688053, 29.422256243405734 ], [ -138.925501348382625, 31.409485825602555 ], [ -139.833526964139594, 33.454644464801603 ], [ -140.586965231722047, 35.548318461367842 ], [ -141.172280244292665, 37.680593196728651 ], [ -141.573710498050218, 39.840922824592127 ], [ -141.77283356825086, 42.01796014825365 ], [ -141.748113079078905, 44.199340255911153 ], [ -141.47446332720483, 46.371411319809255 ], [ -140.922900003262868, 48.518907298664814 ], [ -140.060399262202054, 50.624561687489056 ], [ -138.850169825366009, 52.668671578682655 ], [ -137.252658758632549, 54.62864120199302 ], [ -135.227752411374865, 56.478569183421435 ], [ -132.738755430299676, 58.188999037645672 ], [ -129.758717988573238, 59.727027270238146 ], [ -126.279320129792069, 61.057040372731699 ], [ -122.32154356332272, 62.142380635324855 ], [ -117.945682889560985, 62.948132326515527 ], [ -113.256447555887235, 63.444886737405156 ], [ -108.398515909104262, 63.612812763073791 ] ] ] } }
]
}
