{
"type": "FeatureCollection",
"name": "agency_noaa_footprints",
"crs": { "type": "name", "properties": { "name": "urn:ogc:def:crs:OGC:1.3:CRS84" } },
"features": [
{ "type": "Feature", "properties": { "norad_cat_id": 28054, "object_name": "DMSP 5D-3 F16 (USA 172)", "orbit_class": "LEO", "agency_lead": "NOAA", "program": "DMSP", "alt_km": 845.46983889368357, "elevation_mask_deg": 0.0, "central_angle_deg": 27.998804993048306, "radius_km": 3116.812714646303 }, "geometry": { "type": "MultiPolygon", "coordinates": [ [ [ [ -140.725425932307246, 73.217570687945795 ], [ -133.933413802472103, 72.045206636223497 ], [ -128.368124818971012, 70.529354322650818 ], [ -123.989903803621189, 68.750062144335757 ], [ -120.658616502389293, 66.775688938573566 ], [ -118.206989662783513, 64.660689897798747 ], [ -116.478035507375452, 62.447168587888271 ], [ -115.338584237502005, 60.167505451730037 ], [ -114.680972127697942, 57.846849739665778 ], [ -114.420105220562817, 55.505112336693195 ], [ -114.489345590188861, 53.158449881346499 ], [ -114.8366028426626, 50.820336212089828 ], [ -115.421059901818182, 48.502326782572652 ], [ -116.210574840885016, 46.214602719054959 ], [ -117.179668338538903, 43.966358616355791 ], [ -118.307978532754731, 41.766079366138271 ], [ -119.579074944035966, 39.621737376621752 ], [ -120.979543316215683, 37.540931718160927 ], [ -122.498273403383067, 35.530983958163752 ], [ -124.125898730857358, 33.599000832631368 ], [ -125.854350719179365, 31.751910776995867 ], [ -127.67649973875514, 29.996479245384837 ], [ -129.585863313977711, 28.339306373833118 ], [ -131.576367418703484, 26.786809680743556 ], [ -133.642151073506426, 25.345194005768683 ], [ -135.777407616083082, 24.020410667024745 ], [ -137.976258311296533, 22.818107791580537 ], [ -140.232655559810865, 21.74357388382418 ], [ -142.540313964296672, 20.801676884507575 ], [ -144.892667999885248, 19.996801185711789 ], [ -147.282855080314903, 19.332785250520992 ], [ -149.703722486903388, 18.812862590787738 ], [ -152.147856022224545, 18.439608839013143 ], [ -154.607627469944333, 18.214897480074683 ], [ -157.075257106501624, 18.139866471182117 ], [ -159.542886743058915, 18.214897480074683 ], [ -162.002658190778703, 18.439608839013143 ], [ -164.44679172609986, 18.812862590787738 ], [ -166.867659132688345, 19.332785250520992 ], [ -169.257846213118, 19.996801185711789 ], [ -171.610200248706576, 20.801676884507575 ], [ -173.917858653192383, 21.74357388382418 ], [ -176.174255901706715, 22.818107791580537 ], [ -178.373106596920167, 24.020410667024745 ], [ -180.0, 25.029788805593409 ], [ -180.0, 72.08268017308643 ], [ -173.425088280696002, 73.217570687945795 ], [ -165.567858468991602, 73.964589158080486 ], [ -157.075257106501624, 74.221878521843195 ], [ -148.582655744011646, 73.964589158080486 ], [ -140.725425932307246, 73.217570687945795 ] ] ], [ [ [ 177.425853205700236, 26.786809680743556 ], [ 175.435349100974463, 28.339306373833118 ], [ 173.525985525751878, 29.996479245384837 ], [ 171.703836506176117, 31.751910776995867 ], [ 169.97538451785411, 33.599000832631368 ], [ 168.347759190379804, 35.530983958163752 ], [ 166.829029103212434, 37.540931718160927 ], [ 165.428560731032718, 39.621737376621752 ], [ 164.157464319751483, 41.766079366138271 ], [ 163.029154125535655, 43.966358616355791 ], [ 162.060060627881768, 46.214602719054959 ], [ 161.270545688814934, 48.502326782572652 ], [ 160.686088629659366, 50.820336212089828 ], [ 160.338831377185613, 53.158449881346499 ], [ 160.269591007559569, 55.505112336693195 ], [ 160.530457914694693, 57.846849739665778 ], [ 161.188070024498757, 60.167505451730037 ], [ 162.327521294372218, 62.447168587888271 ], [ 164.056475449780265, 64.660689897798747 ], [ 166.508102289386045, 66.775688938573566 ], [ 169.839389590617941, 68.750062144335757 ], [ 174.217610605967764, 70.529354322650818 ], [ 179.782899589468855, 72.045206636223497 ], [ 180.0, 72.08268017308643 ], [ 180.0, 25.029788805593409 ], [ 179.491636860503178, 25.345194005768683 ], [ 177.425853205700236, 26.786809680743556 ] ] ] ] } },
{ "type": "Feature", "properties": { "norad_cat_id": 29522, "object_name": "DMSP 5D-3 F17 (USA 191)", "orbit_class": "LEO", "agency_lead": "NOAA", "program": "DMSP", "alt_km": 845.19081950302052, "elevation_mask_deg": 0.0, "central_angle_deg": 27.994642084630129, "radius_km": 3116.3493018009726 }, "geometry": { "type": "MultiPolygon", "coordinates": [ [ [ [ -162.291717748799897, 58.078128835110277 ], [ -158.186498019771335, 57.26330490656089 ], [ -154.421820716808384, 56.160033376007121 ], [ -151.055130161412819, 54.799827921442436 ], [ -148.113733537542629, 53.216650345730677 ], [ -145.600772161518677, 51.444413003519735 ], [ -143.50246861167426, 49.515304498056778 ], [ -141.794792106204454, 47.458878847291963 ], [ -140.448681359875991, 45.301723186132755 ], [ -139.433686303916659, 43.067501443306575 ], [ -138.720258312223251, 40.777207701500203 ], [ -138.281031343271138, 38.449513167803566 ], [ -138.091415480348843, 36.101134876726761 ], [ -138.129754803245021, 33.747186358229165 ], [ -138.377227695741368, 31.401491211266741 ], [ -138.817606872737969, 29.076852672902142 ], [ -139.436952036218685, 26.78527873687916 ], [ -140.223278020443047, 24.538165364788412 ], [ -141.166222032168889, 22.346441346376682 ], [ -142.256721872558643, 20.220678346451685 ], [ -143.486710339596641, 18.171169190725738 ], [ -144.848827593993434, 16.207976823269775 ], [ -146.336151949544814, 14.340955807007211 ], [ -147.941949545000199, 12.579747850217036 ], [ -149.659444146607996, 10.933752695416992 ], [ -151.481609540186355, 9.412075841500121 ], [ -153.40098828947913, 8.023454998624203 ], [ -155.409541780302703, 6.776167881415946 ], [ -157.4985371652526, 5.677924876659123 ], [ -159.658476821486033, 4.735751182364933 ], [ -161.879075039773085, 3.955864070131005 ], [ -164.149284784454437, 3.343551803966561 ], [ -166.457374558221403, 2.90306127644902 ], [ -168.791051907827494, 2.637501435780914 ], [ -171.137626323262765, 2.548768967155292 ], [ -173.484200738698036, 2.637501435780914 ], [ -175.817878088304127, 2.90306127644902 ], [ -178.125967862071093, 3.343551803966561 ], [ -180.0, 3.84900856536431 ], [ -180.0, 58.074860761729383 ], [ -179.983534897725633, 58.078128835110277 ], [ -175.627375940359826, 58.578555541633563 ], [ -171.137626323262765, 58.747377760135763 ], [ -166.647876706165704, 58.578555541633563 ], [ -162.291717748799897, 58.078128835110277 ] ] ], [ [ [ 177.383224174960503, 4.735751182364933 ], [ 175.22328451872707, 5.677924876659123 ], [ 173.134289133777173, 6.776167881415946 ], [ 171.1257356429536, 8.023454998624203 ], [ 169.206356893660825, 9.412075841500121 ], [ 167.384191500082466, 10.933752695416992 ], [ 165.666696898474669, 12.579747850217036 ], [ 164.060899303019283, 14.340955807007211 ], [ 162.573574947467904, 16.207976823269775 ], [ 161.211457693071111, 18.171169190725738 ], [ 159.981469226033113, 20.220678346451685 ], [ 158.890969385643359, 22.346441346376682 ], [ 157.948025373917517, 24.538165364788412 ], [ 157.161699389693155, 26.78527873687916 ], [ 156.542354226212439, 29.076852672902142 ], [ 156.101975049215838, 31.401491211266741 ], [ 155.854502156719491, 33.747186358229165 ], [ 155.816162833823313, 36.101134876726761 ], [ 156.005778696745608, 38.449513167803566 ], [ 156.445005665697721, 40.777207701500203 ], [ 157.158433657391129, 43.067501443306575 ], [ 158.173428713350461, 45.301723186132755 ], [ 159.519539459678924, 47.458878847291963 ], [ 161.22721596514873, 49.515304498056778 ], [ 163.325519514993147, 51.444413003519735 ], [ 165.838480891017099, 53.216650345730677 ], [ 168.779877514887289, 54.799827921442436 ], [ 172.146568070282854, 56.160033376007121 ], [ 175.911245373245805, 57.26330490656089 ], [ 180.0, 58.074860761729383 ], [ 180.0, 3.84900856536431 ], [ 179.603822393247555, 3.955864070131005 ], [ 177.383224174960503, 4.735751182364933 ] ] ] ] } },
{ "type": "Feature", "properties": { "norad_cat_id": 35951, "object_name": "DMSP 5D-3 F18 (USA 210)", "orbit_class": "LEO", "agency_lead": "NOAA", "program": "DMSP", "alt_km": 837.35970682308357, "elevation_mask_deg": 0.0, "central_angle_deg": 27.877438689715255, "radius_km": 3103.3022795598058 }, "geometry": { "type": "Polygon", "coordinates": [ [ [ -8.603487200419712, 43.080146875932421 ], [ -5.417443296071506, 42.945452515186759 ], [ -2.286897698438253, 42.544115985248631 ], [ 0.736257840198887, 41.884153638231695 ], [ 3.606740573415133, 40.978225445498673 ], [ 6.287850872424386, 39.842722416644818 ], [ 8.75227192014656, 38.496720060693299 ], [ 10.981813316429763, 36.960944616601815 ], [ 12.966385929930103, 35.256862575338538 ], [ 14.702546757391849, 33.405955684484347 ], [ 16.191912957285503, 31.429199194956571 ], [ 17.439659201692962, 29.346729358769753 ], [ 18.453221580999411, 27.17766878326357 ], [ 19.24125741795946, 24.940072495948957 ], [ 19.8128609194695, 22.650959319244365 ], [ 20.177007477227633, 20.3263986297064 ], [ 20.342188650425328, 17.981629131825503 ], [ 20.316199217968197, 15.631192388704051 ], [ 20.106042298360542, 13.289068838427747 ], [ 19.717925150472126, 10.968807721555546 ], [ 19.157324981426598, 8.683644856222779 ], [ 18.429109914160009, 6.44660373771569 ], [ 17.537704771303687, 4.270576250857927 ], [ 16.487294363799016, 2.168379600512338 ], [ 15.282058509100045, 0.152786107993108 ], [ 13.926433075318213, -1.763477499700262 ], [ 12.425390026762818, -3.567764556036709 ], [ 10.784726881992695, -5.247579446008198 ], [ 9.011352476181733, -6.790686863349059 ], [ 7.113551944026185, -8.185259341378815 ], [ 5.101210164334228, -9.420060553267021 ], [ 2.985970532250739, -10.484658653915421 ], [ 0.781305972854305, -11.369660254399903 ], [ -1.497517415912366, -12.06695194601626 ], [ -3.83359625981422, -12.569933268049619 ], [ -6.208666366850564, -12.873723359290683 ], [ -8.603487200419712, -12.975323869364216 ], [ -10.998308033988859, -12.873723359290683 ], [ -13.373378141025205, -12.569933268049619 ], [ -15.709456984927058, -12.06695194601626 ], [ -17.98828037369373, -11.369660254399903 ], [ -20.192944933090164, -10.484658653915421 ], [ -22.308184565173654, -9.420060553267021 ], [ -24.320526344865609, -8.185259341378815 ], [ -26.218326877021155, -6.790686863349059 ], [ -27.991701282832118, -5.247579446008198 ], [ -29.632364427602241, -3.567764556036709 ], [ -31.133407476157636, -1.763477499700262 ], [ -32.489032909939468, 0.152786107993108 ], [ -33.694268764638437, 2.168379600512338 ], [ -34.744679172143108, 4.270576250857927 ], [ -35.636084314999437, 6.44660373771569 ], [ -36.364299382266026, 8.683644856222779 ], [ -36.924899551311555, 10.968807721555546 ], [ -37.31301669919997, 13.289068838427747 ], [ -37.523173618807625, 15.631192388704051 ], [ -37.549163051264749, 17.981629131825503 ], [ -37.383981878067054, 20.3263986297064 ], [ -37.019835320308928, 22.650959319244365 ], [ -36.448231818798888, 24.940072495948957 ], [ -35.660195981838832, 27.17766878326357 ], [ -34.646633602532383, 29.346729358769753 ], [ -33.398887358124924, 31.429199194956571 ], [ -31.909521158231271, 33.405955684484347 ], [ -30.173360330769526, 35.256862575338538 ], [ -28.188787717269186, 36.960944616601815 ], [ -25.959246320985983, 38.496720060693299 ], [ -23.49482527326381, 39.842722416644818 ], [ -20.813714974254559, 40.978225445498673 ], [ -17.943232241038309, 41.884153638231695 ], [ -14.920076702401172, 42.544115985248631 ], [ -11.789531104767919, 42.945452515186759 ], [ -8.603487200419712, 43.080146875932421 ] ] ] } },
{ "type": "Feature", "properties": { "norad_cat_id": 37849, "object_name": "SUOMI NPP", "orbit_class": "LEO", "agency_lead": "NOAA", "program": "JPSS", "alt_km": 829.226860488331, "elevation_mask_deg": 0.0, "central_angle_deg": 27.754966499010411, "radius_km": 3089.6687376542059 }, "geometry": { "type": "Polygon", "coordinates": [ [ [ -46.777911567563322, 53.863491343064908 ], [ -42.854583092737478, 53.709294803635139 ], [ -39.027265544387625, 53.251182833109119 ], [ -35.382658765739556, 52.502049086519889 ], [ -31.991056549301014, 51.481735822179772 ], [ -28.902760719679801, 50.215018644946589 ], [ -26.148024960928907, 48.729489305588388 ], [ -23.739593240118918, 47.053693111495299 ], [ -21.676562665316567, 45.21571372935199 ], [ -19.948477174943303, 43.242243997873118 ], [ -18.538959586235581, 41.158081323384266 ], [ -17.42857818124785, 38.985943975813456 ], [ -16.59691251517329, 36.746502702794935 ], [ -16.023923632174554, 34.458540224481709 ], [ -15.690782050428588, 32.139174795555903 ], [ -15.58030324232281, 29.804105447372237 ], [ -15.677114602944926, 27.467852996166233 ], [ -15.96764726209819, 25.143982306912338 ], [ -16.4400185813018, 22.84529857324587 ], [ -17.083849468836963, 20.584014652004758 ], [ -17.890044824373881, 18.371888766876459 ], [ -18.850554573913975, 16.22033291866564 ], [ -19.95812575697915, 14.140492638105336 ], [ -21.206051986245861, 12.143298651768371 ], [ -22.587924532394709, 10.239490848947241 ], [ -24.09738870573436, 8.439614810043141 ], [ -25.727909661695726, 6.753991209984977 ], [ -27.472552876207267, 5.192658733333372 ], [ -29.323785968258893, 3.765291787212114 ], [ -31.27330992642305, 2.481095289712198 ], [ -33.311928736112129, 1.348680108520975 ], [ -35.429466514935399, 0.375924227686526 ], [ -37.614740205780393, -0.430173737393227 ], [ -39.855593442010019, -1.063640701011224 ], [ -42.138993391976591, -1.519666056640336 ], [ -44.451187493323047, -1.794720303773547 ], [ -46.777911567563322, -1.886646882086916 ], [ -49.104635641803597, -1.794720303773547 ], [ -51.416829743150053, -1.519666056640336 ], [ -53.700229693116626, -1.063640701011224 ], [ -55.941082929346251, -0.430173737393227 ], [ -58.126356620191245, 0.375924227686526 ], [ -60.243894399014515, 1.348680108520975 ], [ -62.282513208703591, 2.481095289712198 ], [ -64.232037166867755, 3.765291787212114 ], [ -66.083270258919384, 5.192658733333372 ], [ -67.827913473430925, 6.753991209984977 ], [ -69.458434429392284, 8.439614810043141 ], [ -70.967898602731935, 10.239490848947241 ], [ -72.349771148880791, 12.143298651768371 ], [ -73.597697378147501, 14.140492638105336 ], [ -74.705268561212677, 16.22033291866564 ], [ -75.665778310752756, 18.371888766876459 ], [ -76.471973666289685, 20.584014652004758 ], [ -77.115804553824844, 22.84529857324587 ], [ -77.588175873028462, 25.143982306912338 ], [ -77.878708532181719, 27.467852996166233 ], [ -77.975519892803831, 29.804105447372237 ], [ -77.865041084698049, 32.139174795555903 ], [ -77.531899502952086, 34.458540224481709 ], [ -76.958910619953357, 36.746502702794935 ], [ -76.127244953878801, 38.985943975813456 ], [ -75.016863548891067, 41.158081323384266 ], [ -73.607345960183338, 43.242243997873118 ], [ -71.879260469810077, 45.21571372935199 ], [ -69.816229895007723, 47.053693111495299 ], [ -67.407798174197737, 48.729489305588388 ], [ -64.65306241544684, 50.215018644946589 ], [ -61.56476658582563, 51.481735822179772 ], [ -58.173164369387088, 52.502049086519889 ], [ -54.52855759073902, 53.251182833109119 ], [ -50.701240042389166, 53.709294803635139 ], [ -46.777911567563322, 53.863491343064908 ] ] ] } },
{ "type": "Feature", "properties": { "norad_cat_id": 41240, "object_name": "JASON-3", "orbit_class": "LEO", "agency_lead": "NOAA", "program": "Jason", "alt_km": 1328.648155787833, "elevation_mask_deg": 0.0, "central_angle_deg": 34.146995200161498, "radius_km": 3801.226117802335 }, "geometry": { "type": "Polygon", "coordinates": [ [ [ -180.0, -76.75427537811747 ], [ -169.551590364227593, -76.75427537811747 ], [ -160.954315329300016, -74.90268224073148 ], [ -153.77689187715896, -72.92800326549505 ], [ -147.627438690867166, -70.878011724149971 ], [ -142.225213672962411, -68.784850107040597 ], [ -137.372540990560879, -66.670969438870941 ], [ -132.929550670729896, -64.552783408181654 ], [ -128.795865679022199, -62.442880565711917 ], [ -124.898171308213023, -60.35137562821339 ], [ -121.181925944235161, -58.286750372003652 ], [ -117.605824337748913, -56.256388042240658 ], [ -114.13806211493835, -54.26691975336869 ], [ -110.753781378069561, -52.324452588199527 ], [ -107.433298457670162, -50.434721172225885 ], [ -104.160856598893361, -48.603188277649352 ], [ -100.923736126138408, -46.835110418464708 ], [ -97.711611598266131, -45.135578618011877 ], [ -94.516081928746644, -43.509540988193784 ], [ -91.330323051753624, -41.961811559748703 ], [ -88.14882819717036, -40.497068427239704 ], [ -84.96721113016514, -39.11984341441449 ], [ -81.782054652821557, -37.834504939898849 ], [ -78.590791421793597, -36.645235454350946 ], [ -75.391607456181987, -35.556004653606728 ], [ -72.183361081757084, -34.57053959738343 ], [ -68.965511802694721, -33.692292843417711 ], [ -65.738054922956849, -32.924409714769325 ], [ -62.501458796444012, -32.269695831292637 ], [ -59.256602457987015, -31.730586037013399 ], [ -56.004712130473933, -31.309115829148563 ], [ -52.747295745658676, -31.00689633149187 ], [ -49.486075168044408, -30.825093748895448 ], [ -46.222916271067703, -30.764414089321285 ], [ -42.959757374090998, -30.825093748895448 ], [ -39.698536796476731, -31.00689633149187 ], [ -36.441120411661473, -31.309115829148563 ], [ -33.189230084148363, -31.730586037013399 ], [ -29.944373745691394, -32.269695831292637 ], [ -26.707777619178529, -32.924409714769325 ], [ -23.480320739440685, -33.692292843417711 ], [ -20.262471460378322, -34.57053959738343 ], [ -17.054225085953419, -35.556004653606728 ], [ -13.855041120341809, -36.645235454350946 ], [ -10.663777889313877, -37.834504939898849 ], [ -7.478621411970266, -39.11984341441449 ], [ -4.297004344965046, -40.497068427239704 ], [ -1.115509490381754, -41.961811559748703 ], [ 2.070249386611266, -43.509540988193784 ], [ 5.265779056130782, -45.135578618011877 ], [ 8.477903584003002, -46.835110418464708 ], [ 11.715024056757954, -48.603188277649352 ], [ 14.987465915534756, -50.434721172225885 ], [ 18.307948835934127, -52.324452588199527 ], [ 21.692229572802972, -54.26691975336869 ], [ 25.159991795613507, -56.256388042240658 ], [ 28.736093402099755, -58.286750372003652 ], [ 32.452338766077645, -60.35137562821339 ], [ 36.350033136886793, -62.442880565711917 ], [ 40.483718128594546, -64.552783408181654 ], [ 44.926708448425529, -66.670969438870941 ], [ 49.779381130827005, -68.784850107040597 ], [ 55.181606148731817, -70.878011724149971 ], [ 61.331059335023554, -72.92800326549505 ], [ 68.508482787164581, -74.90268224073148 ], [ 77.105757822092187, -76.75427537811747 ], [ 87.632330174048775, -78.410472236602374 ], [ 100.618906121312307, -79.764341840188976 ], [ 116.25801731338629, -80.674107121365182 ], [ 133.777083728932325, -80.998393733801421 ], [ 151.296150144478247, -80.674107121365182 ], [ 166.93526133655223, -79.764341840188976 ], [ 179.921837283815876, -78.410472236602374 ], [ 180.0, -78.410472236602374 ], [ 180.0, -90.0 ], [ -180.0, -90.0 ], [ -180.0, -76.75427537811747 ] ] ] } },
{ "type": "Feature", "properties": { "norad_cat_id": 41866, "object_name": "GOES 16", "orbit_class": "GEO", "agency_lead": "NOAA", "program": "GOES-R", "alt_km": 35787.638908438006, "elevation_mask_deg": 0.0, "central_angle_deg": 81.299852707812676, "radius_km": 9050.2582050018518 }, "geometry": { "type": "MultiPolygon", "coordinates": [ [ [ [ 178.481251252530797, -49.36938432354215 ], [ 177.343496533645038, -44.488726013332105 ], [ 176.464443986185756, -39.586665097351471 ], [ 175.779094213946223, -34.668363736238852 ], [ 175.243823382889786, -29.737471917270177 ], [ 174.828632122440922, -24.796730191104043 ], [ 174.512593502653601, -19.848320591886804 ], [ 174.28108731863253, -14.89407873321311 ], [ 174.124082549402431, -9.935626036910818 ], [ 174.035067010576682, -4.974454722264593 ], [ 174.010401260628726, -0.011984792769081 ], [ 174.048973844944953, 4.95039470474551 ], [ 174.152096236955458, 9.91129140103258 ], [ 174.323619089985584, 14.86927502663268 ], [ 174.570289468595092, 19.822835206869673 ], [ 174.902412219766859, 24.770322719558145 ], [ 175.334940452816568, 29.709861620195841 ], [ 175.889221082042809, 34.639212423948599 ], [ 176.595801039033972, 39.555552702612054 ], [ 177.499039484474679, 44.45511431518532 ], [ 178.664949670453097, 49.332560897173337 ], [ 180.0, 53.561746957910202 ], [ 180.0, -54.27365103852545 ], [ 179.977874384080991, -54.220880861724069 ], [ 178.481251252530797, -49.36938432354215 ] ] ], [ [ [ -55.871301353245222, 76.863511458297609 ], [ -45.112590011536405, 72.800785852097931 ], [ -38.661989227491659, 68.356954493155911 ], [ -34.494347360490352, 63.723525143516028 ], [ -31.632294291392185, 58.98419610309621 ], [ -29.574601228081718, 54.179868831378435 ], [ -28.044424980917896, 49.332560897173337 ], [ -26.878514794939505, 44.45511431518532 ], [ -25.975276349498799, 39.555552702612054 ], [ -25.268696392507636, 34.639212423948599 ], [ -24.714415763281394, 29.709861620195841 ], [ -24.281887530231671, 24.770322719558145 ], [ -23.94976477905989, 19.822835206869673 ], [ -23.703094400450397, 14.86927502663268 ], [ -23.531571547420285, 9.91129140103258 ], [ -23.428449155409766, 4.95039470474551 ], [ -23.389876571093552, -0.011984792769081 ], [ -23.414542321041495, -4.974454722264593 ], [ -23.503557859867257, -9.935626036910818 ], [ -23.660562629097342, -14.89407873321311 ], [ -23.892068813118414, -19.848320591886804 ], [ -24.208107432905734, -24.796730191104043 ], [ -24.623298693354613, -29.737471917270177 ], [ -25.15856952441105, -34.668363736238852 ], [ -25.843919296650554, -39.586665097351471 ], [ -26.72297184410985, -44.488726013332105 ], [ -27.860726562995595, -49.36938432354215 ], [ -29.357349694545803, -54.220880861724069 ], [ -31.374060748807779, -59.030789850484275 ], [ -34.184882249953148, -63.777776777537994 ], [ -38.287675622651733, -68.422108984819459 ], [ -44.658980832197493, -72.882128358765144 ], [ -55.344425128013434, -76.969525285823906 ], [ -74.372776321689756, -80.208412658311417 ], [ -104.689737655232406, -81.559679244837483 ], [ -135.006698988775071, -80.208412658311417 ], [ -154.035050182451386, -76.969525285823906 ], [ -164.720494478267312, -72.882128358765144 ], [ -171.091799687813079, -68.422108984819459 ], [ -175.194593060511664, -63.777776777537994 ], [ -178.005414561657034, -59.030789850484275 ], [ -180.0, -54.27365103852545 ], [ -180.0, 53.561746957910202 ], [ -179.804874082383094, 54.179868831378435 ], [ -177.747181019072627, 58.98419610309621 ], [ -174.885127949974446, 63.723525143516028 ], [ -170.717486082973153, 68.356954493155911 ], [ -164.266885298928401, 72.800785852097931 ], [ -153.508173957219583, 76.863511458297609 ], [ -134.539449330223277, 80.068288540209053 ], [ -104.689737655232406, 81.397716177856111 ], [ -74.840025980241535, 80.068288540209053 ], [ -55.871301353245222, 76.863511458297609 ] ] ] ] } },
{ "type": "Feature", "properties": { "norad_cat_id": 43013, "object_name": "NOAA 20 (JPSS-1)", "orbit_class": "LEO", "agency_lead": "NOAA", "program": "JPSS", "alt_km": 839.20872010276275, "elevation_mask_deg": 0.0, "central_angle_deg": 27.905175500300704, "radius_km": 3106.389927190407 }, "geometry": { "type": "Polygon", "coordinates": [ [ [ -180.0, 68.13541101979466 ], [ -176.277072453014966, 68.13541101979466 ], [ -170.236455299643694, 68.878445597266108 ], [ -163.950153781219342, 69.56994237860944 ], [ -157.413241332677416, 70.199369874648411 ], [ -150.628681253731116, 70.756004480801465 ], [ -143.609535498774903, 71.229309094453413 ], [ -136.38072469485212, 71.609429476783006 ], [ -128.979794809202332, 71.887779413353911 ], [ -121.456171322810718, 72.057652195925385 ], [ -113.86861967063345, 72.11476732611969 ], [ -106.281068018456153, 72.057652195925385 ], [ -98.757444532064596, 71.887779413353911 ], [ -91.35651464641478, 71.609429476783006 ], [ -84.127703842491997, 71.229309094453413 ], [ -77.108558087535812, 70.756004480801465 ], [ -70.323998008589456, 70.199369874648411 ], [ -63.787085560047558, 69.56994237860944 ], [ -57.500784041623206, 68.878445597266108 ], [ -51.460166888251933, 68.13541101979466 ], [ -45.654644504397538, 67.350918550187302 ], [ -40.069940634922432, 66.534440501658352 ], [ -34.689696210365014, 65.694766118141615 ], [ -29.496681720370248, 64.839983283354712 ], [ -24.473657637189035, 63.977497337481779 ], [ -19.603946960581311, 63.11407146526912 ], [ -14.871787417238522, 62.255877553764861 ], [ -10.262523543400846, 61.408550115935938 ], [ -5.762687564338478, 60.577238681206843 ], [ -1.360006412020255, 59.766656042872846 ], [ 2.956637883684664, 58.981121088126883 ], [ 7.197275291141636, 58.224595789615563 ], [ 11.370929358562478, 57.500716453455681 ], [ 15.485704752391143, 56.812819609270164 ], [ 19.548875386220857, 56.163963073503083 ], [ 23.566969952586476, 55.55694277332632 ], [ 27.545853134350523, 54.994305921437899 ], [ 31.49080173122087, 54.478361105372372 ], [ 35.40657554522727, 54.011185813042864 ], [ 39.29748323874162, 53.594631867657895 ], [ 43.167443589200786, 53.230329194675328 ], [ 47.020042671459009, 52.919688293495959 ], [ 50.858587539912264, 52.663901738186475 ], [ 54.686156984370314, 52.463944984898554 ], [ 58.505649913923889, 52.320576718650187 ], [ 62.319831893787239, 52.234338928435847 ], [ 66.13138032936655, 52.205556856870082 ], [ 69.942928764945862, 52.234338928435847 ], [ 73.757110744809211, 52.320576718650187 ], [ 77.576603674362786, 52.463944984898554 ], [ 81.404173118820836, 52.663901738186475 ], [ 85.242717987274091, 52.919688293495959 ], [ 89.095317069532314, 53.230329194675328 ], [ 92.96527741999148, 53.594631867657895 ], [ 96.85618511350583, 54.011185813042864 ], [ 100.771958927512287, 54.478361105372372 ], [ 104.716907524382577, 54.994305921437899 ], [ 108.695790706146624, 55.55694277332632 ], [ 112.713885272512243, 56.163963073503083 ], [ 116.777055906341957, 56.812819609270164 ], [ 120.891831300170622, 57.500716453455681 ], [ 125.065485367591464, 58.224595789615563 ], [ 129.306122775048436, 58.981121088126883 ], [ 133.622767070753355, 59.766656042872846 ], [ 138.025448223071578, 60.577238681206843 ], [ 142.525284202133946, 61.408550115935938 ], [ 147.134548075971622, 62.255877553764861 ], [ 151.866707619314411, 63.11407146526912 ], [ 156.736418295922135, 63.977497337481779 ], [ 161.759442379103348, 64.839983283354712 ], [ 166.952456869098114, 65.694766118141615 ], [ 172.332701293655532, 66.534440501658352 ], [ 177.917405163130638, 67.350918550187302 ], [ 180.0, 67.350918550187302 ], [ 180.0, 90.0 ], [ -180.0, 90.0 ], [ -180.0, 68.13541101979466 ] ] ] } },
{ "type": "Feature", "properties": { "norad_cat_id": 43226, "object_name": "GOES 17", "orbit_class": "GEO", "agency_lead": "NOAA", "program": "GOES-R", "alt_km": 35788.87250296471, "elevation_mask_deg": 0.0, "central_angle_deg": 81.300109204668487, "radius_km": 9050.2867581012288 }, "geometry": { "type": "Polygon", "coordinates": [ [ [ -89.495694167671715, 81.037766673837524 ], [ -60.638191217375137, 79.754589861096676 ], [ -41.817694128410203, 76.623956482186728 ], [ -30.910972140048798, 72.616083018300628 ], [ -24.291429328135052, 68.208704703476258 ], [ -19.983186809655749, 63.600009006758995 ], [ -17.009093062942384, 58.878138393549726 ], [ -14.861327788578251, 54.086586208036245 ], [ -13.257174864244021, 49.248899529934015 ], [ -12.02905675829146, 44.378858038223214 ], [ -11.07230034805508, 39.485083532908881 ], [ -10.318690245815219, 34.573307647520906 ], [ -9.72226197391123, 29.647567324253401 ], [ -9.2512687117501, 24.710871753113139 ], [ -8.883440503896409, 19.765591866710974 ], [ -8.603090776259066, 14.813696277545773 ], [ -8.399310052230234, 9.856898514721953 ], [ -8.264831559570496, 4.896751477981567 ], [ -8.195336362127023, -0.065289787511469 ], [ -8.189068627487899, -5.027823674451771 ], [ -8.246694559187844, -9.989466672340741 ], [ -8.371382493242578, -14.948819653266264 ], [ -8.56911967411564, -19.904428606465888 ], [ -8.849323904193383, -24.854731424065108 ], [ -9.225868273190883, -29.797979161194107 ], [ -9.718734917866968, -34.732113789931631 ], [ -10.356687922675803, -39.654572050407992 ], [ -11.181686265534395, -44.561960472912865 ], [ -12.256422670192933, -49.449496093177494 ], [ -13.677791200375879, -54.309997131544748 ], [ -15.602304205164003, -59.131950224584884 ], [ -18.297309221395523, -63.895526889273455 ], [ -22.252263053169216, -68.563595826114351 ], [ -28.439686977846222, -73.059118746183586 ], [ -38.946468364730855, -77.201324399524964 ], [ -58.089237959964521, -80.517786664506986 ], [ -89.495694167671715, -81.92013041195348 ], [ -120.902150375378909, -80.517786664506986 ], [ -140.044919970612568, -77.201324399524964 ], [ -150.551701357497222, -73.059118746183586 ], [ -156.7391252821742, -68.563595826114351 ], [ -160.694079113947907, -63.895526889273455 ], [ -163.389084130179413, -59.131950224584884 ], [ -165.313597134967551, -54.309997131544748 ], [ -166.734965665150497, -49.449496093177494 ], [ -167.80970206980902, -44.561960472912865 ], [ -168.634700412667627, -39.654572050407992 ], [ -169.272653417476477, -34.732113789931631 ], [ -169.765520062152547, -29.797979161194107 ], [ -170.142064431150061, -24.854731424065108 ], [ -170.422268661227804, -19.904428606465888 ], [ -170.620005842100852, -14.948819653266264 ], [ -170.7446937761556, -9.989466672340741 ], [ -170.802319707855531, -5.027823674451771 ], [ -170.796051973216407, -0.065289787511469 ], [ -170.726556775772934, 4.896751477981567 ], [ -170.59207828311321, 9.856898514721953 ], [ -170.388297559084378, 14.813696277545773 ], [ -170.107947831447007, 19.765591866710974 ], [ -169.74011962359333, 24.710871753113139 ], [ -169.2691263614322, 29.647567324253401 ], [ -168.672698089528211, 34.573307647520906 ], [ -167.91908798728835, 39.485083532908881 ], [ -166.96233157705197, 44.378858038223214 ], [ -165.734213471099395, 49.248899529934015 ], [ -164.130060546765179, 54.086586208036245 ], [ -161.982295272401046, 58.878138393549726 ], [ -159.008201525687696, 63.600009006758995 ], [ -154.699959007208378, 68.208704703476258 ], [ -148.080416195294617, 72.616083018300628 ], [ -137.17369420693322, 76.623956482186728 ], [ -118.353197117968293, 79.754589861096676 ], [ -89.495694167671715, 81.037766673837524 ] ] ] } },
{ "type": "Feature", "properties": { "norad_cat_id": 46984, "object_name": "SENTINEL-6A", "orbit_class": "LEO", "agency_lead": "NOAA", "program": "Sentinel-6", "alt_km": 1343.4951087367349, "elevation_mask_deg": 0.0, "central_angle_deg": 34.309085963642275, "radius_km": 3819.2699790553074 }, "geometry": { "type": "Polygon", "coordinates": [ [ [ 49.024419400189984, 62.926878707913232 ], [ 55.155113157603452, 62.691412951456172 ], [ 61.025370368650982, 61.997669869786321 ], [ 66.423502068980355, 60.880633438355957 ], [ 71.214291433730708, 59.390201068181845 ], [ 75.33979690257955, 57.582635742867602 ], [ 78.802128883419201, 55.513660232801755 ], [ 81.640990540263687, 53.234262620428929 ], [ 83.914434387002231, 50.788916206476365 ], [ 85.685679748972916, 48.215394439523322 ], [ 87.015480872294646, 45.545415838733845 ], [ 87.958433869036611, 42.805603117104916 ], [ 88.561686858974667, 40.018472989068819 ], [ 88.864951190837445, 37.203328442317776 ], [ 88.901129340119013, 34.377011805966241 ], [ 88.69717450572324, 31.554518566158706 ], [ 88.274984069931335, 28.7494884527651 ], [ 87.652236619736911, 25.974594451847253 ], [ 86.843140125642606, 23.241849045361029 ], [ 85.859088023034445, 20.562843633168413 ], [ 84.709233245837339, 17.948933355865478 ], [ 83.400995156405756, 15.411376067069209 ], [ 81.940514865337065, 12.961431221997888 ], [ 80.333072751389409, 10.610422001893639 ], [ 78.583479100042751, 8.369762079573894 ], [ 76.696445133964801, 6.250947058536866 ], [ 74.676937503438737, 4.265509826157833 ], [ 72.530514670073487, 2.424938920673764 ], [ 70.263638755983862, 0.740559604946558 ], [ 67.883951712652902, -0.776621269118394 ], [ 65.400500671556742, -2.116103334537002 ], [ 62.823894847754936, -3.268107584502189 ], [ 60.166376235775566, -4.223808642431861 ], [ 57.441789296670628, -4.975571796973545 ], [ 54.665441217484009, -5.517179583886079 ], [ 51.853853793953064, -5.844031377390919 ], [ 49.024419400189984, -5.953299934211883 ], [ 46.194985006426904, -5.844031377390919 ], [ 43.383397582895959, -5.517179583886079 ], [ 40.607049503709341, -4.975571796973545 ], [ 37.882462564604403, -4.223808642431861 ], [ 35.224943952625033, -3.268107584502189 ], [ 32.648338128823227, -2.116103334537002 ], [ 30.164887087727063, -0.776621269118394 ], [ 27.785200044396113, 0.740559604946558 ], [ 25.518324130306485, 2.424938920673764 ], [ 23.371901296941235, 4.265509826157833 ], [ 21.352393666415161, 6.250947058536866 ], [ 19.46535970033721, 8.369762079573894 ], [ 17.715766048990552, 10.610422001893639 ], [ 16.108323935042904, 12.961431221997888 ], [ 14.647843643974213, 15.411376067069209 ], [ 13.339605554542622, 17.948933355865478 ], [ 12.189750777345516, 20.562843633168413 ], [ 11.205698674737363, 23.241849045361029 ], [ 10.396602180643058, 25.974594451847253 ], [ 9.773854730448633, 28.7494884527651 ], [ 9.351664294656722, 31.554518566158706 ], [ 9.147709460260955, 34.377011805966241 ], [ 9.183887609542523, 37.203328442317776 ], [ 9.487151941405308, 40.018472989068819 ], [ 10.090404931343365, 42.805603117104916 ], [ 11.033357928085323, 45.545415838733845 ], [ 12.363159051407045, 48.215394439523322 ], [ 14.134404413377737, 50.788916206476365 ], [ 16.407848260116289, 53.234262620428929 ], [ 19.246709916960768, 55.513660232801755 ], [ 22.709041897800418, 57.582635742867602 ], [ 26.834547366649257, 59.390201068181845 ], [ 31.625336731399607, 60.880633438355957 ], [ 37.023468431728986, 61.997669869786321 ], [ 42.893725642776516, 62.691412951456172 ], [ 49.024419400189984, 62.926878707913232 ] ] ] } },
{ "type": "Feature", "properties": { "norad_cat_id": 51850, "object_name": "GOES 18", "orbit_class": "GEO", "agency_lead": "NOAA", "program": "GOES-R", "alt_km": 35786.086720098647, "elevation_mask_deg": 0.0, "central_angle_deg": 81.299529945322661, "radius_km": 9050.2222752458129 }, "geometry": { "type": "MultiPolygon", "coordinates": [ [ [ [ 163.209725377741961, -72.841478840298066 ], [ 156.798409115152964, -68.389562662884742 ], [ 152.662984019310215, -63.750682559464863 ], [ 149.826419992537637, -59.00752278576703 ], [ 147.789135406588912, -54.200402281806284 ], [ 146.275679330571961, -49.350997686730011 ], [ 145.123807082676933, -44.471943075936309 ], [ 144.232632991442955, -39.571129877902067 ], [ 143.536647512359309, -34.653807344195307 ], [ 142.991857135760313, -29.723684514227966 ], [ 142.56798741189192, -24.783542851298485 ], [ 142.243900565625722, -19.835593091592909 ], [ 142.004809380946739, -14.881690994858754 ], [ 141.840545570888111, -9.923471867857112 ], [ 141.744479312414001, -4.962436996080835 ], [ 141.712865485281213, -0.000011507948124 ], [ 141.744492665398525, 4.962413893350759 ], [ 141.840572468909386, 9.923448501435324 ], [ 142.004850218856291, 14.881667178029859 ], [ 142.243955963799976, 19.835568620208484 ], [ 142.568058253626418, 24.783517494515852 ], [ 142.991944623994641, 29.723658002478174 ], [ 143.536753253287316, 34.65377935274455 ], [ 144.232759117006395, 39.571100003396673 ], [ 145.123956430848125, 44.471910801569898 ], [ 146.275855712780924, 49.350962328423535 ], [ 147.789344005429257, 54.200362901551657 ], [ 149.826667940862478, 59.007478045880518 ], [ 152.663281158088068, 63.750630466385815 ], [ 156.798768518031977, 68.389500100765929 ], [ 163.210160913693585, 72.84140073433457 ], [ 173.932937419297474, 76.916400974256788 ], [ 180.0, 77.945203396717829 ], [ 180.0, -77.945398331216509 ], [ 173.932431546919815, -76.916502769474974 ], [ 163.209725377741961, -72.841478840298066 ] ] ], [ [ [ -87.908146558074321, 76.916400974256788 ], [ -77.185370052470418, 72.84140073433457 ], [ -70.773977656808839, 68.389500100765929 ], [ -66.638490296864916, 63.750630466385815 ], [ -63.801877079639326, 59.007478045880518 ], [ -61.76455314420609, 54.200362901551657 ], [ -60.251064851557757, 49.350962328423535 ], [ -59.099165569624986, 44.471910801569898 ], [ -58.207968255783243, 39.571100003396673 ], [ -57.511962392064149, 34.65377935274455 ], [ -56.967153762771474, 29.723658002478174 ], [ -56.54326739240328, 24.783517494515852 ], [ -56.219165102576824, 19.835568620208484 ], [ -55.980059357633152, 14.881667178029859 ], [ -55.815781607686219, 9.923448501435324 ], [ -55.719701804175386, 4.962413893350759 ], [ -55.688074624058046, -0.000011507948124 ], [ -55.719688451190862, -4.962436996080835 ], [ -55.815754709664958, -9.923471867857112 ], [ -55.980018519723586, -14.881690994858754 ], [ -56.219109704402555, -19.835593091592909 ], [ -56.543196550668753, -24.783542851298485 ], [ -56.967066274537174, -29.723684514227966 ], [ -57.511856651136142, -34.653807344195307 ], [ -58.207842130219802, -39.571129877902067 ], [ -59.099016221453795, -44.471943075936309 ], [ -60.250888469348808, -49.350997686730011 ], [ -61.764344545365745, -54.200402281806284 ], [ -63.801629131314499, -59.00752278576703 ], [ -66.638193158087077, -63.750682559464863 ], [ -70.773618253929811, -68.389562662884742 ], [ -77.184934516518794, -72.841478840298066 ], [ -87.907640685696663, -76.916502769474974 ], [ -106.906664416509727, -80.138223520582784 ], [ -136.987604569388424, -81.478453885642097 ], [ -167.06854472226712, -80.138223520582784 ], [ -180.0, -77.945398331216509 ], [ -180.0, 77.945203396717829 ], [ -167.068096126503406, 80.138088974394876 ], [ -136.987604569388424, 81.47829837265455 ], [ -106.907113012273442, 80.138088974394876 ], [ -87.908146558074321, 76.916400974256788 ] ] ] ] } },
{ "type": "Feature", "properties": { "norad_cat_id": 54234, "object_name": "NOAA 21 (JPSS-2)", "orbit_class": "LEO", "agency_lead": "NOAA", "program": "JPSS", "alt_km": 856.3544452157663, "elevation_mask_deg": 0.0, "central_angle_deg": 28.160510301024949, "radius_km": 3134.8136671888324 }, "geometry": { "type": "Polygon", "coordinates": [ [ [ -180.0, -48.748335467999254 ], [ -178.485390717227915, -48.748335467999254 ], [ -174.951730437477863, -49.151851708322127 ], [ -171.40701208669617, -49.625522355736656 ], [ -167.848585485216518, -50.167758560177184 ], [ -164.273405989543789, -50.776738150667491 ], [ -160.67796045868613, -51.450408239931761 ], [ -157.058184181605725, -52.186486707243361 ], [ -153.409366312527709, -52.982461968499763 ], [ -149.726040812231361, -53.835590333433693 ], [ -146.001859239293992, -54.742890114669557 ], [ -142.229440968920585, -55.701131481838935 ], [ -138.400195544313647, -56.706820833332742 ], [ -134.504110919539016, -57.756178172663269 ], [ -130.529500420757074, -58.845105607086651 ], [ -126.462700524528998, -59.96914461240673 ], [ -122.287711406260655, -61.123419110219757 ], [ -117.985773364830209, -62.302560671439323 ], [ -113.534875987206021, -63.500611307058222 ], [ -108.909205590056899, -64.710898406761885 ], [ -104.078554023668858, -65.925875635318732 ], [ -99.007744865182758, -67.136923438396593 ], [ -93.6561914708372, -68.334104145083444 ], [ -87.977799438183638, -69.505871186262439 ], [ -81.921579600384291, -70.638742644766509 ], [ -75.433553984690548, -71.716970849969528 ], [ -68.460786520028364, -72.72227795577156 ], [ -60.958527454840919, -73.633786686377803 ], [ -52.901222175841269, -74.428349692041422 ], [ -44.296998803113183, -75.08153730116824 ], [ -35.202793806470481, -75.56950554441741 ], [ -25.734014351795736, -75.871731996265638 ], [ -16.060997007924243, -75.974149625283644 ], [ -6.38797966405275, -75.871731996265638 ], [ 3.080799790621995, -75.56950554441741 ], [ 12.175004787264697, -75.08153730116824 ], [ 20.779228159992726, -74.428349692041422 ], [ 28.836533438992433, -73.633786686377803 ], [ 36.338792504179878, -72.72227795577156 ], [ 43.311559968842062, -71.716970849969528 ], [ 49.799585584535862, -70.638742644766509 ], [ 55.855805422335152, -69.505871186262439 ], [ 61.534197454988771, -68.334104145083444 ], [ 66.885750849334272, -67.136923438396593 ], [ 71.956560007820372, -65.925875635318732 ], [ 76.787211574208413, -64.710898406761885 ], [ 81.412881971357592, -63.500611307058222 ], [ 85.86377934898178, -62.302560671439323 ], [ 90.165717390412169, -61.123419110219757 ], [ 94.340706508680569, -59.96914461240673 ], [ 98.407506404908645, -58.845105607086651 ], [ 102.38211690369053, -57.756178172663269 ], [ 106.278201528465161, -56.706820833332742 ], [ 110.107446953072099, -55.701131481838935 ], [ 113.879865223445449, -54.742890114669557 ], [ 117.604046796382818, -53.835590333433693 ], [ 121.287372296679223, -52.982461968499763 ], [ 124.936190165757239, -52.186486707243361 ], [ 128.555966442837644, -51.450408239931761 ], [ 132.151411973695303, -50.776738150667491 ], [ 135.726591469368032, -50.167758560177184 ], [ 139.285018070847627, -49.625522355736656 ], [ 142.829736421629377, -49.151851708322127 ], [ 146.363396701379429, -48.748335467999254 ], [ 149.88832161961966, -48.416325937701075 ], [ 153.406567996188642, -48.156935446889257 ], [ 156.91998425445081, -47.971033075664288 ], [ 160.430264914719714, -47.859241813491245 ], [ 163.939002992075757, -47.821936372654072 ], [ 167.4477410694318, -47.859241813491245 ], [ 170.958021729700704, -47.971033075664288 ], [ 174.471437987962815, -48.156935446889257 ], [ 177.989684364531854, -48.416325937701075 ], [ 180.0, -48.416325937701075 ], [ 180.0, -90.0 ], [ -180.0, -90.0 ], [ -180.0, -48.748335467999254 ] ] ] } },
{ "type": "Feature", "properties": { "norad_cat_id": 60133, "object_name": "GOES 19", "orbit_class": "GEO", "agency_lead": "NOAA", "program": "GOES-R", "alt_km": 35787.235011792734, "elevation_mask_deg": 0.0, "central_angle_deg": 81.299768723742005, "radius_km": 9050.2488559378689 }, "geometry": { "type": "Polygon", "coordinates": [ [ [ -75.186179800177783, 81.459405867074778 ], [ -45.160076351202562, 80.121738305117944 ], [ -26.168088965921591, 76.904024297519427 ], [ -15.436787333182892, 72.831900358153888 ], [ -9.016150572441589, 68.38188732910578 ], [ -4.873095998935113, 63.744288823144139 ], [ -2.030500114720979, 59.002028862041534 ], [ 0.01161293260455, 54.195563829517653 ], [ 1.5290250252324, 49.346650711904537 ], [ 2.684219389570146, 44.467972552592826 ], [ 3.578249504741891, 39.567451891486996 ], [ 4.276744108530053, 34.650358472029211 ], [ 4.823783204785698, 29.720415228386358 ], [ 5.249705693302971, 24.780413247641214 ], [ 5.575698825467683, 19.83257001267107 ], [ 5.81658908009021, 14.878746012190929 ], [ 5.982577087910244, 9.92057980363095 ], [ 6.080320468493554, 4.959574783597614 ], [ 6.113589394826775, -0.002842742461703 ], [ 6.083619076942512, -4.965281718629607 ], [ 5.98922174795284, -9.926351877054907 ], [ 5.826677332917413, -14.884629347343449 ], [ 5.589383924298531, -19.838615039289078 ], [ 5.267205841077939, -24.786676989618989 ], [ 4.845395567170527, -29.726964275987129 ], [ 4.30286546868426, -34.657273042653692 ], [ 3.609406523614879, -39.574831623669894 ], [ 2.721113142547125, -44.47594511064537 ], [ 1.572597067088225, -49.355385080927249 ], [ 0.063143547601371, -54.205291721931715 ], [ -1.9692488490237, -59.013080721284453 ], [ -4.799692976742492, -63.757157113312232 ], [ -8.927366025031219, -68.39734175402549 ], [ -15.329194805089635, -72.851194552891286 ], [ -26.043119581746296, -76.929170473633548 ], [ -45.049254197185569, -80.154975164199683 ], [ -75.186179800177783, -81.497822433480053 ], [ -105.32310540316999, -80.154975164199683 ], [ -124.329240018609269, -76.929170473633548 ], [ -135.043164795265938, -72.851194552891286 ], [ -141.444993575324361, -68.39734175402549 ], [ -145.572666623613088, -63.757157113312232 ], [ -148.403110751331866, -59.013080721284453 ], [ -150.435503147956922, -54.205291721931715 ], [ -151.94495666744379, -49.355385080927249 ], [ -153.093472742902691, -44.47594511064537 ], [ -153.981766123970431, -39.574831623669894 ], [ -154.675225069039811, -34.657273042653692 ], [ -155.217755167526093, -29.726964275987129 ], [ -155.63956544143349, -24.786676989618989 ], [ -155.961743524654082, -19.838615039289078 ], [ -156.199036933272964, -14.884629347343449 ], [ -156.361581348308391, -9.926351877054907 ], [ -156.455978677298077, -4.965281718629607 ], [ -156.485948995182355, -0.002842742461703 ], [ -156.452680068849133, 4.959574783597614 ], [ -156.354936688265809, 9.92057980363095 ], [ -156.188948680445776, 14.878746012190929 ], [ -155.948058425823262, 19.83257001267107 ], [ -155.622065293658522, 24.780413247641214 ], [ -155.196142805141278, 29.720415228386358 ], [ -154.649103708885605, 34.650358472029211 ], [ -153.950609105097442, 39.567451891486996 ], [ -153.056578989925697, 44.467972552592826 ], [ -151.90138462558798, 49.346650711904537 ], [ -150.383972532960115, 54.195563829517653 ], [ -148.341859485634586, 59.002028862041534 ], [ -145.499263601420466, 63.744288823144139 ], [ -141.356209027913962, 68.38188732910578 ], [ -134.935572267172688, 72.831900358153888 ], [ -124.204270634433982, 76.904024297519427 ], [ -105.212283249153003, 80.121738305117944 ], [ -75.186179800177783, 81.459405867074778 ] ] ] } },
{ "type": "Feature", "properties": { "norad_cat_id": 66514, "object_name": "SENTINEL-6B", "orbit_class": "LEO", "agency_lead": "NOAA", "program": "Sentinel-6", "alt_km": 1343.2642178912042, "elevation_mask_deg": 0.0, "central_angle_deg": 34.306575135600411, "radius_km": 3818.9904749562179 }, "geometry": { "type": "Polygon", "coordinates": [ [ [ 48.318232878149317, 61.501702020561567 ], [ 54.169273907773089, 61.274003199414707 ], [ 59.789474539884466, 60.602222690094976 ], [ 64.987992819034204, 59.517844073305668 ], [ 69.637880497907958, 58.066297840698041 ], [ 73.678662284621339, 56.299593854621428 ], [ 77.103632780148217, 54.270117305940857 ], [ 79.94164986555063, 52.026618783516071 ], [ 82.240558336683137, 49.612297553192413 ], [ 84.055161117726385, 47.06436426906194 ], [ 85.439790016119559, 44.414441285101965 ], [ 86.444372170438584, 41.689332005049494 ], [ 87.11276610452191, 38.91188057416813 ], [ 87.482411920090541, 36.101782305326111 ], [ 87.584662916857354, 33.276289077553642 ], [ 87.445420561840336, 30.450797893838409 ], [ 87.085864994484069, 27.639330679047852 ], [ 86.523176940668748, 24.854920377192389 ], [ 85.771206058714029, 22.109919113789395 ], [ 84.84107258666657, 19.416242207623235 ], [ 83.741705147067151, 16.785558931715507 ], [ 82.480324663178493, 14.229437955606404 ], [ 81.062886550821702, 11.759452691424769 ], [ 79.494492849980276, 9.387249443007823 ], [ 77.779783862044383, 7.124579374264256 ], [ 75.923315685947088, 4.983293917961841 ], [ 73.929926038908718, 2.975302410993566 ], [ 71.805086065045543, 1.11249056759961 ], [ 69.555230709031292, -0.593400997413307 ], [ 67.188055076935797, -2.130937512735508 ], [ 64.712759684635543, -3.489187013105383 ], [ 62.14022450617793, -4.657947313937163 ], [ 59.483091303262881, -5.62799312883153 ], [ 56.755736752519411, -6.391329785403111 ], [ 53.974125858348962, -6.941436973320378 ], [ 51.155545743192668, -7.273484325473247 ], [ 48.318232878149317, -7.384501019843718 ], [ 45.480920013105965, -7.273484325473247 ], [ 42.662339897949671, -6.941436973320378 ], [ 39.880729003779223, -6.391329785403111 ], [ 37.153374453035752, -5.62799312883153 ], [ 34.496241250120704, -4.657947313937163 ], [ 31.923706071663091, -3.489187013105383 ], [ 29.448410679362837, -2.130937512735508 ], [ 27.081235047267342, -0.593400997413307 ], [ 24.831379691253083, 1.11249056759961 ], [ 22.706539717389912, 2.975302410993566 ], [ 20.713150070351549, 4.983293917961841 ], [ 18.856681894254248, 7.124579374264256 ], [ 17.141972906318355, 9.387249443007823 ], [ 15.573579205476925, 11.759452691424769 ], [ 14.156141093120141, 14.229437955606404 ], [ 12.894760609231483, 16.785558931715507 ], [ 11.795393169632057, 19.416242207623235 ], [ 10.865259697584598, 22.109919113789395 ], [ 10.113288815629879, 24.854920377192389 ], [ 9.550600761814572, 27.639330679047852 ], [ 9.191045194458304, 30.450797893838409 ], [ 9.051802839441287, 33.276289077553642 ], [ 9.154053836208092, 36.101782305326111 ], [ 9.523699651776724, 38.91188057416813 ], [ 10.19209358586005, 41.689332005049494 ], [ 11.196675740179067, 44.414441285101965 ], [ 12.581304638572256, 47.06436426906194 ], [ 14.395907419615497, 49.612297553192413 ], [ 16.694815890748004, 52.026618783516071 ], [ 19.532832976150413, 54.270117305940857 ], [ 22.957803471677298, 56.299593854621428 ], [ 26.998585258390676, 58.066297840698041 ], [ 31.64847293726443, 59.517844073305668 ], [ 36.846991216414168, 60.602222690094976 ], [ 42.467191848525545, 61.274003199414707 ], [ 48.318232878149317, 61.501702020561567 ] ] ] } }
]
}
